unique_key,source,Name,Provider,StreetAddress,City,ZipCode,State,Country,Whitespace,Area,YearBuilt,Power,Scale,Certifications,URL,Power_Standardized,Area_Standardized
Northern Virginia_facility_1,datacenterhawk,PowerHouse Data Centers · ABX-1Featured,Dominion Energy,21529 Beaumeade Circle,Ashburn,,VA,United States,"265,000 SF",,2023,36 MW,,,https://datacenterhawk.com/marketplace/providers/powerhouse-data-centers/21529-beaumeade-circle/abx-1,36.0,265000.0
Northern Virginia_facility_6,datacenterhawk,Aligned Data Centers · IAD04,FirstEnergy/Potomac Edison,5601 Manor Woods Road,Frederick,,MD,United States,"1,300,000 SF","1,300,000 SF",,"36,000 kW",,"ISO, HIPAA, SOC 2",https://datacenterhawk.com/marketplace/providers/aligned-data-centers/5601-manor-woods-road/iad04,36.0,1300000.0
Northern Virginia_facility_12,datacenterhawk,Centersquare · WDC1,Centersquare,21571 & 21561 Beaumeade Circle,Ashburn,,VA,United States,"164,453 SF","164,453 SF",2000,"9,000 kW",,,https://datacenterhawk.com/marketplace/providers/centersquare/21571-21561-beaumeade-circle/wdc1,9.0,164453.0
Northern Virginia_facility_15,datacenterhawk,Centersquare · IAD3-A,Dominion Virginia Power,22995 Wilder Court,Sterling,,VA,United States,"135,513 SF","135,513 SF",2000,"7,800 kW",,,https://datacenterhawk.com/marketplace/providers/centersquare/22995-wilder-court/iad3-a,7.8,135513.0
Northern Virginia_facility_23,datacenterhawk,CloudHQ · MCC5,Dominion Virginia Power,10740 Airman Avenue,Manassas,,VA,United States,"400,000 SF","400,000 SF",,"60,000 kW",,,https://datacenterhawk.com/marketplace/providers/cloudhq/10740-airman-avenue/mcc5,60.0,400000.0
Northern Virginia_facility_24,datacenterhawk,CloudHQ · MCC4,Dominion Virginia Power,10849 Airman Avenue,Manassas,,VA,United States,"400,000 SF",,,"60,000 kW",,,https://datacenterhawk.com/marketplace/providers/cloudhq/10849-airman-avenue/mcc4,60.0,400000.0
Northern Virginia_facility_26,datacenterhawk,CloudHQ · MCC6,Dominion Virginia Power,10900 Airman Avenue,Manassas,,VA,United States,"480,000 SF","480,000 SF",,"40,000 kW",,,https://datacenterhawk.com/marketplace/providers/cloudhq/10900-airman-avenue/mcc6,40.0,480000.0
Northern Virginia_facility_27,datacenterhawk,CloudHQ · MCC3,Dominion Virginia Power,10940 Airman Avenue,Manassas,,VA,United States,"400,000 SF",,,"60,000 kW",,,https://datacenterhawk.com/marketplace/providers/cloudhq/10940-airman-avenue/mcc3,60.0,400000.0
Northern Virginia_facility_30,datacenterhawk,CloudHQ · LC13,Dominion,21605 Lockridge Road,Ashburn,,VA,United States,"769,144 SF",,,"108,000 kW",,,https://datacenterhawk.com/marketplace/providers/cloudhq/21605-lockridge-road/lc13,108.0,769144.0
Northern Virginia_facility_35,datacenterhawk,CloudHQ · LC2,CloudHQ,44621 Waxpool Road,Ashburn,,VA,United States,"531,700 SF",,2019,84000.0,,,https://datacenterhawk.com/marketplace/providers/cloudhq/44621-waxpool-road/lc2,84.0,531700.0
Northern Virginia_facility_44,datacenterhawk,CoreSite · DC2,White House Utilities District,1099 14th Street NW,Washington,,DC,United States,"24,000 SF","24,000 SF",1991,"3,228 kW",,,https://datacenterhawk.com/marketplace/providers/coresite/1099-14th-street-nw/dc2,3.228,24000.0
Northern Virginia_facility_52,datacenterhawk,Corscale · VA2,Corscale,Russel Branch Parkway,Sterling,,VA,United States,"460,000 SF","460,000 SF",,"72,000 kW",,,https://datacenterhawk.com/marketplace/providers/corscale/russel-branch-parkway/va2,72.0,460000.0
Northern Virginia_facility_54,datacenterhawk,CyrusOne · NVA5,Dominion Virginia Power,21350 Pacific Blvd.,Sterling,,VA,United States,"1,098,052 SF","1,098,052 SF",2017,"72,000 kW",,,https://datacenterhawk.com/marketplace/providers/cyrusone/21350-pacific-blvd/nva5,72.0,1098052.0
Northern Virginia_facility_57,datacenterhawk,CyrusOne · NVA4,CyrusOne,22811 International Drive,Sterling,,VA,United States,"128,715 SF","128,715 SF",1985,"10,500 kW",,,https://datacenterhawk.com/marketplace/providers/cyrusone/22811-international-drive/nva4,10.5,128715.0
Northern Virginia_facility_60,datacenterhawk,CyrusOne · Broadlands Boulevard,CyrusOne,Broadlands Boulevard,Ashburn,,VA,United States,,"72,000",,"72,000",,,https://datacenterhawk.com/marketplace/providers/cyrusone/broadlands-boulevard/1071678,72.0,72000.0
Northern Virginia_facility_61,datacenterhawk,CyrusOne · NVA18,CyrusOne,MacIntosh DriveVint Hill,Vint Hill,,VA,United States,"318,900 SF",,,"24,000 kW",,,https://datacenterhawk.com/marketplace/providers/cyrusone/macintosh-drive/nva18,24.0,318900.0
Northern Virginia_facility_71,datacenterhawk,DataBank · IAD6,Dominion Energy,14601 Germanna Hwy,Culpeper,,VA,United States,"795,700 SF",,,"120,000 kW",,,https://datacenterhawk.com/marketplace/providers/databank/14601-germanna-hwy/iad6,120.0,795700.0
Northern Virginia_facility_77,datacenterhawk,Deft · EQ-DC,Virginia Electric & Power Co.,21721 Filigree Court,Ashburn,,VA,United States,"229,435 SF","229,435 SF",2012,200 kW,,,https://datacenterhawk.com/marketplace/providers/deft/21721-filigree-court/eq-dc,0.2,229435.0
Northern Virginia_facility_98,datacenterhawk,Digital Realty · IAD13,Dominion Virginia,43831 Devin Shafron Drive (Building C),Ashburn,,VA,United States,"249,809 SF","249,809 SF",2001,"6,000 kW",,,https://datacenterhawk.com/marketplace/providers/digital-realty/43831-devin-shafron-drive-building-c/iad13,6.0,249809.0
Northern Virginia_facility_101,datacenterhawk,Digital Realty · IAD37,Dominion Virginia Power,44060 Digital Loudoun Plaza (Building K),Ashburn,,VA,United States,"284,500 SF","284,500 SF",2014,"19,800 kW",,,https://datacenterhawk.com/marketplace/providers/digital-realty/44060-digital-loudoun-plaza-building-k/iad37,19.8,284500.0
Northern Virginia_facility_103,datacenterhawk,Digital Realty · IAD39,Dominion Virginia Power,44274 Round Table Plaza (Building L),Ashburn,,VA,United States,"105,700 SF",,2017,"108,000 kW",,,https://datacenterhawk.com/marketplace/providers/digital-realty/44274-round-table-plaza-building-l/iad39,108.0,105700.0
Northern Virginia_facility_104,datacenterhawk,Digital Realty · IAD40,Digital Realty,44372 Round Table Plaza (Building M),Ashburn,,VA,United States,"223,000 SF",,2019,62000.0,,,https://datacenterhawk.com/marketplace/providers/digital-realty/44372-round-table-plaza-building-m/iad40,62.0,223000.0
Northern Virginia_facility_119,datacenterhawk,Digital Realty · ACC 11,Dominion Virginia Power,NEC Gresham Drive and Waxpool Road,Ashburn,,VA,United States,"270,000 SF","270,000 SF",2017,"48,000 kW",,,https://datacenterhawk.com/marketplace/providers/digital-realty/nec-gresham-drive-and-waxpool-road/acc-11,48.0,270000.0
Northern Virginia_facility_123,datacenterhawk,EdgeCore · AS01,EdgeCore,45865 Maries Road,Sterling,,VA,United States,"348,000 SF","348,000 SF",,"54,000 kW",,,https://datacenterhawk.com/marketplace/providers/edgecore/45865-maries-road/as01,54.0,348000.0
Northern Virginia_facility_130,datacenterhawk,Equinix · DC2,Virginia Electric & Power Co.,21715 Filigree Court,Ashburn,,VA,United States,"147,600 SF","147,600 SF",2000,"10,152 kW",,,https://datacenterhawk.com/marketplace/providers/equinix/21715-filigree-court/dc2,10.152,147600.0
Northern Virginia_facility_134,datacenterhawk,Equinix · DC22,Equinix,22165 Beaumeade Circle,Sterling,,VA,United States,"311,699 SF",,,"10,000 kW",,,https://datacenterhawk.com/marketplace/providers/equinix/22165-beaumeade-circle/dc22,10.0,311699.0
Northern Virginia_facility_138,datacenterhawk,Equinix · DC15,Equinix,44780 Performance Circle,Ashburn,,VA,United States,"143,906 SF","143,906 SF",2020,"14,000 kW",,,https://datacenterhawk.com/marketplace/providers/equinix/44780-performance-circle/dc15,14.0,143906.0
Northern Virginia_facility_139,datacenterhawk,Equinix · DC12,Equinix,44790 Performance Circle,Ashburn,,VA,United States,"182,800 SF",,2017,"12,200 kW",,,https://datacenterhawk.com/marketplace/providers/equinix/44790-performance-circle/dc12,12.2,182800.0
Northern Virginia_facility_140,datacenterhawk,Equinix · DC14,Equinix,7400 Infantry Ridge Road,Manassas,,VA,United States,"109,781 SF","109,781 SF",2004,"4,000 kW",,,https://datacenterhawk.com/marketplace/providers/equinix/7400-infantry-ridge-road/dc14,4.0,109781.0
Northern Virginia_facility_159,datacenterhawk,Legacy Investing · 4120 Lafayette Center Drive,Dominion Energy,4120 Lafayette Center Drive,Chantilly,,VA,United States,"54,530 SF","54,530 SF",1988,"1,500 kW",,,https://datacenterhawk.com/marketplace/providers/legacy-investing/4120-lafayette-center-drive/1041828,1.5,54530.0
Northern Virginia_facility_164,datacenterhawk,Menlo Equities · 22265 Pacific Boulevard,Dominion Energy,22265 Pacific Boulevard,Sterling,,VA,United States,"600,742 SF","600,742 SF",,"96,000 kW",,,https://datacenterhawk.com/marketplace/providers/menlo-equities/22265-pacific-boulevard/1093352,96.0,600742.0
Northern Virginia_facility_177,datacenterhawk,NTT Global Data Centers · VA11,NTT Global Data Centeres,7253 Grove Hill Boulevard,Gainesville,,VA,United States,"557,780 SF","557,780 SF",,"96,000 kW",,,https://datacenterhawk.com/marketplace/providers/ntt-global-data-centers/7253-grove-hill-boulevard/va11,96.0,557780.0
Northern Virginia_facility_178,datacenterhawk,NTT Global Data Centers · VA12,NTT Global Data Centers,7253 Grove Hill Boulevard,Gainesville,,VA,United States,"557,780 SF","557,780 SF",,"96,000 kW",,,https://datacenterhawk.com/marketplace/providers/ntt-global-data-centers/7253-grove-hill-boulevard/va12,96.0,557780.0
Northern Virginia_facility_182,datacenterhawk,PointOne Development Corp. · NWC Lucky Hill Rd and Old Grassdale Rd,PointOne Development Corp.,NWC Lucky Hill Rd and Old Grassdale Rd,Remington,,VA,United States,"1,800,000 SF","1,800,000 SF",,"120,000 kW",,,https://datacenterhawk.com/marketplace/providers/pointone-development-corp/nwc-lucky-hill-rd-and-old-grassdale-rd/1029694,120.0,1800000.0
Northern Virginia_facility_183,datacenterhawk,QTS · Broderick DC1,Dominion Power,22271 Broderick Drive,Sterling,,VA,United States,"427,320 SF","427,320 SF",2018,"37,000 kW",,,https://datacenterhawk.com/marketplace/providers/qts/22271-broderick-drive/broderick-dc1,37.0,427320.0
Northern Virginia_facility_185,datacenterhawk,QTS · Shellhorn DC1,QTS,22291 Shellhorn Road,Ashburn,,VA,United States,"306,934 SF",,2021,42000.0,,,https://datacenterhawk.com/marketplace/providers/qts/22291-shellhorn-road/shellhorn-dc1,42.0,306934.0
Northern Virginia_facility_189,datacenterhawk,QTS · Manassas DC5,QTS,9301 Freedom Center Boulevard,Manassas,,VA,United States,"300,000 SF",,2021,42000.0,,,https://datacenterhawk.com/marketplace/providers/qts/9301-freedom-center-boulevard/manassas-dc5,42.0,300000.0
Northern Virginia_facility_203,datacenterhawk,Rowan Digital Infrastructure · Frederick II - Building D,Rowan Digital Infrastructure,Happy Landing Road,Frederick,,MD,United States,,"66,000",,"66,000",,,https://datacenterhawk.com/marketplace/providers/rowan-digital-infrastructure/happy-landing-road/frederick-ii-building-d,66.0,66000.0
Northern Virginia_facility_204,datacenterhawk,Sabey Data Centers · SDC Ashburn Building A,Sabey Data Centers,21735 Red Rum Drive,Ashburn,,VA,United States,"262,191 SF",,,36 MW,,,https://datacenterhawk.com/marketplace/providers/sabey-data-centers/21735-red-rum-drive/sdc-ashburn-building-a,36.0,262191.0
Northern Virginia_facility_205,datacenterhawk,Sabey Data Centers · SDC Ashburn Building C,Dominion Energy,21741 Red Rum Drive,Ashburn,,VA,United States,"138,170 SF",,2016,36 MW,,,https://datacenterhawk.com/marketplace/providers/sabey-data-centers/21741-red-rum-drive/sdc-ashburn-building-c,36.0,138170.0
Northern Virginia_facility_235,datacenterhawk,The BlackChamber Group · Dulles 28 Technology Park,The BlackChamber Group,45130 Waxpool Road,Sterling,,VA,United States,,"65,000",,"65,000",,,https://datacenterhawk.com/marketplace/providers/the-blackchamber-group/45130-waxpool-road/dulles-28-technology-park,65.0,65000.0
Northern Virginia_facility_244,datacenterhawk,Voxility · DC2,Virginia Electric & Power Co.,21715 Filigree Court,Ashburn,,VA,United States,"187,746 SF","187,746 SF",2000,150 kW,,,https://datacenterhawk.com/marketplace/providers/voxility/21715-filigree-court/dc2,0.15,187746.0
Northern Virginia_facility_249,datacenterhawk,Aligned Data Centers · IAD04,FirstEnergy/Potomac Edison,5601 Manor Woods Road,Frederick,,MD,United States,"1,300,000 SF","1,300,000 SF",,"36,000 kW",,"ISO, HIPAA, SOC 2",https://datacenterhawk.com/marketplace/providers/aligned-data-centers/5601-manor-woods-road/iad04,36.0,1300000.0
Chicago_facility_1,datacenterhawk,1547 Realty · CHIL2Featured,Commonwealth Edison,725 S Wells Street,Chicago,,IL,United States,"60,000 SF","60,000 SF",1930,"2,500 kW",,,https://datacenterhawk.com/marketplace/providers/1547-realty/725-s-wells-street/chil2,2.5,60000.0
Chicago_facility_7,datacenterhawk,360TCS · 360 E 22nd Street,"Sunesys, CenturyLink, AboveNet",360 E 22nd Street,Lombard,,IL,United States,"111,185 SF","111,185 SF",1984,"1,500 kW",,,https://datacenterhawk.com/marketplace/providers/360tcs/360-e-22nd-street/121919,1.5,111185.0
Chicago_facility_15,datacenterhawk,"Centersquare · ORD2-A,B",Centersquare,2425 Busse Road,Elk Grove Village,,IL,United States,"163,747 SF",,2000,14800.0,,,https://datacenterhawk.com/marketplace/providers/centersquare/2425-busse-road/ord2-a-b,14.8,163747.0
Chicago_facility_17,datacenterhawk,"Centersquare · ORD1-B,C,D",Commonwealth Edison,"350 East Cermak Road, Suite 410",Chicago,,IL,United States,"1,133,739 SF","1,133,739 SF",1912,"3,400 kW",,,https://datacenterhawk.com/marketplace/providers/cyxtera-technologies/350-east-cermak-road-suite-410/ord1-b-c-d,3.4,1133739.0
Chicago_facility_21,datacenterhawk,CloudHQ · ORD1,CloudHQ,1200 E Algonquin Road,Mount Prospect,,IL,United States,"566,800 SF","566,800 SF",,"9,000 kW",,,https://datacenterhawk.com/marketplace/providers/cloudhq/1200-e-algonquin-road/ord1,9.0,566800.0
Chicago_facility_23,datacenterhawk,CloudHQ · ORD3,CloudHQ,1200 E Algonquin Road,Mount Prospect,,IL,United States,"566,800 SF","566,800 SF",,"84,000 kW",,,https://datacenterhawk.com/marketplace/providers/cloudhq/1200-e-algonquin-road/ord3,84.0,566800.0
Chicago_facility_27,datacenterhawk,Compass Datacenters · ORD IA,Compass Data Centers,3333 Beverly Road,Hoffman Estates,,IL,United States,,"10,000 SF",,1200 kW,,Tier 3 Designed and Certified by the Uptime Institute,https://datacenterhawk.com/marketplace/providers/compass-datacenters/3333-beverly-road/ord-ia,1.2,10000.0
Chicago_facility_33,datacenterhawk,CoreSite · CH2,ComEd,1432 S Clinton Street,Chicago,,IL,United States,"169,000 SF","169,000 SF",2020,"6,000 kW",,,https://datacenterhawk.com/marketplace/providers/coresite/1432-s-clinton-street/ch2,6.0,169000.0
Chicago_facility_37,datacenterhawk,CyrusOne · Aurora III - Building 2,CyrusOne,2725 Bilter Road,Aurora,,IL,United States,"153,745 SF","153,745 SF",,"13,000 kW",,,https://datacenterhawk.com/marketplace/providers/cyrusone/2725-bilter-road/aurora-iii-building-2,13.0,153745.0
Chicago_facility_46,datacenterhawk,DataBank · ORD3,DataBank,800 E Business Center Drive,Mount Prospect,,IL,United States,"81,610 SF",,1988,6500.0,,,https://datacenterhawk.com/marketplace/providers/databank/800-e-business-center-drive/ord3,6500.0,81610.0
Chicago_facility_51,datacenterhawk,Digital Crossroad · DX-1,ComEd/NIPSCO,100 Digital Crossroad Drive,Hammond,,IN,United States,"105,000 SF","105,000 SF",2020,"7,000 kW",,,https://datacenterhawk.com/marketplace/providers/digital-crossroad/100-digital-crossroad-drive/dx-1,7.0,105000.0
Chicago_facility_53,datacenterhawk,Digital Realty · CH3,Digital Realty,1400 E Devon Avenue,Elk Grove Village,,IL,United States,"305,000 SF","305,000 SF",2017,"28,833 kW",,,https://datacenterhawk.com/marketplace/providers/digital-realty/1400-e-devon-avenue/ch3,28.833,305000.0
Chicago_facility_55,datacenterhawk,Digital Realty · CH2,Digital Realty,2299 Busse Road,Elk Grove Village,,IL,United States,"336,000 SF",,2015,26800.0,,,https://datacenterhawk.com/marketplace/providers/digital-realty/2299-busse-road/ch2,26.8,336000.0
Chicago_facility_56,datacenterhawk,Digital Realty · 2553 Edgington Street,Commonwealth Edison Co.,2553 Edgington Street,Franklin Park,,IL,United States,"263,668 SF","263,668 SF",,"44,000 kW",,,https://datacenterhawk.com/marketplace/providers/digital-realty/2553-edgington-street/149001,44.0,263668.0
Chicago_facility_57,datacenterhawk,Digital Realty · 330 East Cermak Road,Commonwealth Edison Co.,330 East Cermak Road,Chicago,,IL,United States,"698,000 SF","698,000 SF",,"54,000 kW",,,https://datacenterhawk.com/marketplace/providers/digital-realty/330-east-cermak-road/137030,54.0,698000.0
Chicago_facility_63,datacenterhawk,Digital Realty · ORD14 (Digital Chicago),Digital Realty,9377 W. Grand Avenue,Franklin Park,,IL,United States,"179,100 SF","179,100 SF",2017,10.8 MW,,,https://datacenterhawk.com/marketplace/providers/digital-realty/9377-w-grand-avenue/ord14-digital-chicago,10.8,179100.0
Chicago_facility_67,datacenterhawk,EdgeConneX · CHI03,Commonwealth Edison,2055 Lunt Avenue,Elk Grove Village,,IL,United States,"167,000 SF","167,000 SF",2022,"19,200 kW",,,https://datacenterhawk.com/marketplace/providers/edgeconnex/2055-lunt-avenue/chi03,19.2,167000.0
Chicago_facility_72,datacenterhawk,Element Critical · CH2,ComEd,341 Haynes Drive,Wood Dale,,IL,United States,"44,520 SF",,1989,"2,025 kW",,,https://datacenterhawk.com/marketplace/providers/element-critical/341-haynes-drive/ch2,2.025,44520.0
Chicago_facility_75,datacenterhawk,Equinix · CH3,Equinix,1905 Lunt Avenue,Elk Grove Village,,IL,United States,"379,662 SF","379,662 SF",2007,"20,650 kW",,,https://datacenterhawk.com/marketplace/providers/equinix/1905-lunt-avenue/ch3,20.65,379662.0
Chicago_facility_84,datacenterhawk,New York Internet · 800 Jorie Boulevard,New York Internet,800 Jorie Boulevard,Oak Brook,,IL,United States,"129,393 SF","129,393 SF",1961,710 kW,,,https://datacenterhawk.com/marketplace/providers/new-york-internet/800-jorie-boulevard/1042401,0.71,129393.0
Chicago_facility_90,datacenterhawk,Prime Data Centers · ORD01-01,ComEd,1701 Midway Court,Elk Grove Village,,IL,United States,"381,141 SF",,,"72,000 kW",,,https://datacenterhawk.com/marketplace/providers/prime-data-centers/1701-midway-court/ord01-01,72.0,381141.0
Chicago_facility_95,datacenterhawk,SBA Edge · 603 Discovery Drive,"Windstream Communications, Comcast, AT&T",603 Discovery Drive,West Chicago,,IL,United States,"80,000 SF","80,000 SF",2007,"2,000 kW",,,https://datacenterhawk.com/marketplace/providers/sba-edge/603-discovery-drive/115940,2.0,80000.0
Chicago_facility_98,datacenterhawk,Sirius Computer Solutions · 1441 Touhy Avenue,Commonwealth Edison Co.,1441 Touhy AvenueElk Grove Village,Elk Grove Village,,IL,United States,"221,000 SF",,2015,2900.0,,,https://datacenterhawk.com/marketplace/providers/sirius-computer-solutions/1441-touhy-avenue/1373,2900.0,221000.0
Chicago_facility_99,datacenterhawk,Skybox Datacenters · Chicago I,ComEd,800 Devon Avenue,Elk Grove Village,,IL,United States,"189,240 SF",,2005,"20,000 kW",,,https://datacenterhawk.com/marketplace/providers/skybox-datacenters/800-devon-avenue/chicago-i,20.0,189240.0
Chicago_facility_100,datacenterhawk,STACK Infrastructure · CHI01B,Commonwealth Edison Co.,1301 Touhy AvenueElk Grove Village,Elk Grove Village,,IL,United States,"202,000 SF",,2020,24000.0,,,https://datacenterhawk.com/marketplace/providers/stack-infrastructure/1301-touhy-avenue/chi01b,24.0,202000.0
Chicago_facility_122,datacenterhawk,TierPoint · CHI,Commonwealth Edison Co.,9333 W. Grand Avenue,Franklin Park,,IL,United States,"117,515 SF","117,515 SF",1991,"1,550 kW",,,https://datacenterhawk.com/marketplace/providers/tierpoint/9333-w-grand-avenue/chi,1.55,117515.0
Chicago_facility_127,datacenterhawk,360TCS · 360 E 22nd Street,"Sunesys, CenturyLink, AboveNet",360 E 22nd Street,Lombard,,IL,United States,"111,185 SF","111,185 SF",1984,"1,500 kW",,,https://datacenterhawk.com/marketplace/providers/360tcs/360-e-22nd-street/121919,1.5,111185.0
Northern California_facility_12,datacenterhawk,CIM Group · 400 Paul Avenue,PG&E,400 Paul Avenue,San Francisco,,CA,United States,"187,000 SF","187,000 SF",2021,"12,000 kW",,,https://datacenterhawk.com/marketplace/providers/cim-group/400-paul-avenue/144710,12.0,187000.0
Northern California_facility_15,datacenterhawk,Cologix · SV1,Cologix,2050 Martin Avenue,Santa Clara,,CA,United States,"84,000 SF","84,000 SF",2009,"3,000 kW",,,https://datacenterhawk.com/marketplace/providers/cologix/2050-martin-avenue/sv1,3.0,84000.0
Northern California_facility_16,datacenterhawk,Colovore · SJC01,Silicon Valley Power,1101 Space Park Drive,Santa Clara,,CA,United States,"24,000 SF","24,000 SF",1981,"6,000 kW",,,https://datacenterhawk.com/marketplace/providers/colovore/1101-space-park-drive/sjc01,6.0,24000.0
Northern California_facility_18,datacenterhawk,CoreSite · SV2,Pacific Gas & Electric,1656 McCarthy Boulevard,Milpitas,,CA,United States,"76,000 SF","76,000 SF",1983,12.1,,,https://datacenterhawk.com/marketplace/providers/coresite/1656-mccarthy-boulevard/sv2,12.1,76000.0
Northern California_facility_27,datacenterhawk,CyrusOne · SC1,CyrusOne,595 Martin Avenue,Santa Clara,,CA,United States,"703,450 SF",,,12.1,,,https://datacenterhawk.com/marketplace/providers/cyrusone/595-martin-avenue/sc1,12.1,703450.0
Northern California_facility_34,datacenterhawk,Digital Realty · SJC15,Silcon Valley Power,1201 Comstock Street,Santa Clara,,CA,United States,"24,000 SF","24,000 SF",2008,"2,300 kW",,,https://datacenterhawk.com/marketplace/providers/digital-realty/1201-comstock-street/sjc15,2.3,24000.0
Northern California_facility_37,datacenterhawk,Digital Realty · SJC16,Silicon Valley Power,1525 Comstock Street,Santa Clara,,CA,United States,"42,400 SF","42,400 SF",2007,12.1,,,https://datacenterhawk.com/marketplace/providers/digital-realty/1525-comstock-street/sjc16,12.1,42400.0
Northern California_facility_38,datacenterhawk,Digital Realty · 1550 Space Park Drive,Digital Realty,1550 Space Park Drive,Santa Clara,,CA,United States,"78,567 SF","78,567 SF",2010,"6,000 kW",,,https://datacenterhawk.com/marketplace/providers/digital-realty/1550-space-park-drive/1162,6.0,78567.0
Northern California_facility_41,datacenterhawk,Digital Realty · 2045 Lafayette Street,Digital Realty,2045 Lafayette Street,Santa Clara,,CA,United States,"300,000 SF","300,000 SF",2005,"10,000 kW",,,https://datacenterhawk.com/marketplace/providers/digital-realty/2045-lafayette-street/1758,10.0,300000.0
Northern California_facility_47,datacenterhawk,Digital Realty · SJC34,Silicon Valley Power,2820 Northwestern Parkway,Santa Clara,,CA,United States,"198,000 SF","198,000 SF",2012,"5,700 kW",,,https://datacenterhawk.com/marketplace/providers/digital-realty/2820-northwestern-parkway/sjc34,5.7,198000.0
Northern California_facility_48,datacenterhawk,Digital Realty · 2845 Lafayette Street,Digital Realty,2845 Lafayette Street,Santa Clara,,CA,United States,"480,000 SF",,,"60,000 kW",,,https://datacenterhawk.com/marketplace/providers/digital-realty/2845-lafayette-street/1031862,60.0,480000.0
Northern California_facility_53,datacenterhawk,Digital Realty · SJC37,Digital Realty,641 Walsh Avenue,Santa Clara,,CA,United States,"430,000 SF","430,000 SF",,"8,000 kW",,,https://datacenterhawk.com/marketplace/providers/digital-realty/641-walsh-avenue/sjc37,8.0,430000.0
Northern California_facility_62,datacenterhawk,Equinix · SV2,Pacific Gas and Electric Co.,1350 Duane Avenue,Santa Clara,,CA,United States,"160,000 SF","160,000 SF",1980,"7,500 kW",,,https://datacenterhawk.com/marketplace/providers/equinix/1350-duane-avenue/sv2,7.5,160000.0
Northern California_facility_69,datacenterhawk,Equinix · SV17 (Pod A),Equinix,3030 Corvin Drive,Santa Clara,,CA,United States,"40,205 SF","40,205 SF",1970,"4,500 kW",,,https://datacenterhawk.com/marketplace/providers/equinix/3030-corvin-drive/sv17-pod-a,4.5,40205.0
Northern California_facility_72,datacenterhawk,Equinix · SV8,Equinix,529 Bryant Street,Palo Alto,,CA,United States,"45,319 SF","45,319 SF",1928,"2,600 kW",,,https://datacenterhawk.com/marketplace/providers/equinix/529-bryant-street/sv8,2.6,45319.0
Northern California_facility_75,datacenterhawk,Equinix · SV-12x,Equinix,6390 San Ignacio Avenue,San Jose,,CA,United States,"81,000 SF",,2024,"14,000 kW",,,https://datacenterhawk.com/marketplace/providers/equinix/6390-san-ignacio-avenue/sv-12x,14.0,81000.0
Northern California_facility_79,datacenterhawk,Evocative · SJC14,Silicon Valley Power,1525 Comstock Street,Santa Clara,,CA,United States,"42,385 SF","42,385 SF",2007,"1,200 kW",,,https://datacenterhawk.com/marketplace/providers/evocative/1525-comstock-street/sjc14,1.2,42385.0
Northern California_facility_86,datacenterhawk,Hines · 150 South First Street,Hines,150 South First Street,San Jose,,CA,United States,"179,761 SF","179,761 SF",1987,"3,000 kW",,,https://datacenterhawk.com/marketplace/providers/hines/150-south-first-street/1646,3.0,179761.0
Northern California_facility_90,datacenterhawk,Krypt · 11 Great Oaks Boulevard,"Arelion, Windstream Wholesale, Zayo",11 Great Oaks Boulevard,San Jose,,CA,United States,"133,500 SF","133,500 SF",1982,12.1,,,https://datacenterhawk.com/marketplace/providers/krypt/11-great-oaks-boulevard/140964,12.1,133500.0
Northern California_facility_92,datacenterhawk,Mapletree · 3065 Gold Camp Drive,Sacramento Municipal Utility District,3065 Gold Camp Drive,Rancho Cordova,,CA,United States,"63,791 SF",,1984,"2,475 kW",,,https://datacenterhawk.com/marketplace/providers/mapletree/3065-gold-camp-drive/1018,2.475,63791.0
Northern California_facility_101,datacenterhawk,Prime Data Centers · SJC02,Silicon Valley Power,1111 Comstock Street,Santa Clara,,CA,United States,,"121,000 SF",2021,"9,000 kW",,,https://datacenterhawk.com/marketplace/providers/prime-data-centers/1111-comstock-street/sjc02,9.0,121000.0
Northern California_facility_103,datacenterhawk,Prime Data Centers · SJC03,Prime Data Centers,2215 Martin Avenue,Santa Clara,,CA,United States,"207,000 SF",,,"9,000 kW",,,https://datacenterhawk.com/marketplace/providers/prime-data-centers/2215-martin-avenue/sjc03,9.0,207000.0
Northern California_facility_105,datacenterhawk,Prime Data Centers · SMF01-02,Prime,2407 Ak Street #2McClellan Park,McClellan Park,,CA,United States,"150,000 SF","150,000 SF",,"9,000 kW",,,https://datacenterhawk.com/marketplace/providers/prime-data-centers/2407-ak-street-2/smf01-02,9.0,150000.0
Northern California_facility_108,datacenterhawk,PS Business Parks · 1360 Kifer Road,PG&E,1360 Kifer Road,Sunnyvale,,CA,United States,"96,100 SF","96,100 SF",1979,"8,750 kW",,,https://datacenterhawk.com/marketplace/providers/ps-business-parks/1360-kifer-road/141709,8.75,96100.0
Northern California_facility_110,datacenterhawk,QTS · Santa Clara II,Silicon Valley Power,2805 Mission College Boulevard,Santa Clara,,CA,United States,"135,322 SF","135,322 SF",1999,"3,700 kW",,,https://datacenterhawk.com/marketplace/providers/qts/2805-mission-college-boulevard/santa-clara-ii,3.7,135322.0
Northern California_facility_113,datacenterhawk,Rackspace · SJC2,Rackspace,"150 South First Street, Suite 101",San Jose,,CA,United States,"179,761 SF","179,761 SF",1987,12.1,,,https://datacenterhawk.com/marketplace/providers/rackspace/150-south-first-street-suite-101/sjc2,12.1,179761.0
Northern California_facility_115,datacenterhawk,STACK Infrastructure · SVY02A,STACK Infrastructure,1200 Memorex Dr.,Santa Clara,,CA,United States,"560,440 SF",,,"42,000 kW",,,https://datacenterhawk.com/marketplace/providers/stack-infrastructure/1200-memorex-dr/svy02a,42.0,560440.0
Northern California_facility_118,datacenterhawk,STACK Infrastructure · SVY01D,STACK Infrastructure,2400 Ringwood Avenue,San Jose,,CA,United States,"220,012 SF","220,012 SF",,"24,000 kW",,,https://datacenterhawk.com/marketplace/providers/stack-infrastructure/2400-ringwood-avenue/svy01d,24.0,220012.0
Northern California_facility_120,datacenterhawk,STACK Infrastructure · SVY01B,PG&E,Fortune Drive,San Jose,,CA,United States,"400,000 SF",,2021,32000.0,,,https://datacenterhawk.com/marketplace/providers/stack-infrastructure/fortune-drive/svy01b,32.0,400000.0
Northern California_facility_123,datacenterhawk,Valley Oak Partners · 37887 Shinn Street,Valley Oak Partners LLC,37887 Shinn Street,Fremont,,CA,United States,"490,000 SF","490,000 SF",,"90,000 kW",,,https://datacenterhawk.com/marketplace/providers/valley-oak-partners/37887-shinn-street/1072311,90.0,490000.0
Northern California_facility_124,datacenterhawk,Vantage Data Centers · CA12,Silicon Valley Power,2565 Walsh Avenue,Santa Clara,,CA,United States,"73,440 SF","73,440 SF",2011,"18,000 kW",,,https://datacenterhawk.com/marketplace/providers/vantage-data-centers/2565-walsh-avenue/ca12,18.0,73440.0
Northern California_facility_126,datacenterhawk,Vantage Data Centers · CA14,Silicon Valley Power,2625 Walsh Avenue,Santa Clara,,CA,United States,"43,000 SF","43,000 SF",1981,"6,000 kW",,,https://datacenterhawk.com/marketplace/providers/vantage-data-centers/2625-walsh-avenue/ca14,6.0,43000.0
Northern California_facility_127,datacenterhawk,Vantage Data Centers · CA11,Vantage,2820 Northwestern Parkway,Santa Clara,,CA,United States,"198,000 SF","198,000 SF",2012,"14,000 kW",,,https://datacenterhawk.com/marketplace/providers/vantage-data-centers/2820-northwestern-parkway/ca11,14.0,198000.0
Northern California_facility_128,datacenterhawk,Vantage Data Centers · CA13,Silicon Valley Power,2880 Northwestern Parkway,Santa Clara,,CA,United States,"60,000 SF",,2011,"6,000 kW",,,https://datacenterhawk.com/marketplace/providers/vantage-data-centers/2880-northwestern-parkway/ca13,6.0,60000.0
Northern California_facility_134,datacenterhawk,Vantage Data Centers · CA21,Silicon Valley Power,825 Mathew Street,Santa Clara,,CA,United States,"175,000 SF","175,000 SF",2019,"21,000 kW",,,https://datacenterhawk.com/marketplace/providers/vantage-data-centers/825-mathew-street/ca21,21.0,175000.0
Dallas/Fort Worth_facility_7,datacenterhawk,Aligned Data Centers · DFW02,Aligned Data Center,2800 Summit Avenue,Plano,,TX,United States,"221,750 SF","221,750 SF",,"18,000 kW",,"ISO, NIST, HIPAA",https://datacenterhawk.com/marketplace/providers/aligned-data-centers/2800-summit-avenue/dfw02,18.0,221750.0
Dallas/Fort Worth_facility_21,datacenterhawk,Compass Datacenters · Red Oak I,Compass Data Centers,441 N Austin Boulevard,Red Oak,,TX,United States,"400,000 SF",,2023,360000.0,,,https://datacenterhawk.com/marketplace/providers/compass-datacenters/441-n-austin-boulevard/red-oak-i,360.0,400000.0
Dallas/Fort Worth_facility_30,datacenterhawk,Compass Datacenters · DFW II,Compass Datacenters,820 Allen Commerce Parkway,Allen,,TX,United States,"87,000 SF",,2017,"3,000 kW",,,https://datacenterhawk.com/marketplace/providers/compass-datacenters/820-allen-commerce-parkway/dfw-ii,3.0,87000.0
Dallas/Fort Worth_facility_31,datacenterhawk,Compass Datacenters · Allen Commerce Parkway,Oncor,Allen Commerce Parkway,Allen,,TX,United States,"192,000 SF","192,000 SF",,"9,600 kW",,,https://datacenterhawk.com/marketplace/providers/compass-datacenters/allen-commerce-parkway/1047074,9.6,192000.0
Dallas/Fort Worth_facility_34,datacenterhawk,CyrusOne · DFW3 - Building 1,CyrusOne,2300 Chelsea Boulevard,Allen,,TX,United States,"346,179 SF","346,179 SF",2018,"13,500 kW",,,https://datacenterhawk.com/marketplace/providers/cyrusone/2300-chelsea-boulevard/dfw3-building-1,13.5,346179.0
Dallas/Fort Worth_facility_35,datacenterhawk,CyrusOne · Downtown,Oncor,2323 Bryan Street,Dallas,,TX,United States,"477,000 SF",,1983,500.0,,,https://datacenterhawk.com/marketplace/providers/cyrusone/2323-bryan-street/downtown,500.0,477000.0
Dallas/Fort Worth_facility_36,datacenterhawk,CyrusOne · Convergence Building 4,New Mexico Power & Light,2501 S State HighwayLewisville,,,TX,United States,"200,000 SF",,1979,"2,500 kW",,,https://datacenterhawk.com/marketplace/providers/cyrusone/2501-s-state-highway/convergence-building-4,2.5,200000.0
Dallas/Fort Worth_facility_40,datacenterhawk,CyrusOne · DFW3 - Building 2,CyrusOne,Chelsea Boulevard,Allen,,TX,United States,"619,100 SF","619,100 SF",,"36,000 kW",,,https://datacenterhawk.com/marketplace/providers/cyrusone/chelsea-boulevard/dfw3-building-2,36.0,619100.0
Dallas/Fort Worth_facility_41,datacenterhawk,CyrusOne · DFW3 - Building 3,CyrusOne,Chelsea Boulevard,Allen,,TX,United States,"412,800 SF","412,800 SF",,"36,000 kW",,,https://datacenterhawk.com/marketplace/providers/cyrusone/chelsea-boulevard/dfw3-building-3,36.0,412800.0
Dallas/Fort Worth_facility_52,datacenterhawk,DartPoints · 2001 Bryan Street,Spire Realty,2001 Bryan Street,Dallas,,TX,United States,"1,100,000 SF","1,100,000 SF",1972,200 kW,,"SOC 1, SSAE-16, SOC 2",https://datacenterhawk.com/marketplace/providers/dartpoints/2001-bryan-street/149966,0.2,1100000.0
Dallas/Fort Worth_facility_53,datacenterhawk,DartPoints · 220 E Las Colinas Boulevard,Parmenter Realty Partners/Partners Group AG,220 E Las Colinas Boulevard,Irving,,TX,United States,"325,253 SF","325,253 SF",1982,200 kW,,"SSAE-16, PCI, SOC 2",https://datacenterhawk.com/marketplace/providers/dartpoints/220-e-las-colinas-boulevard/149983,0.2,325253.0
Dallas/Fort Worth_facility_55,datacenterhawk,DartPoints · 2711 Haskell Avenue,Parmenter Realty Partners,2711 Haskell Avenue,Dallas,,TX,United States,"1,350,000 SF","1,350,000 SF",1988,200 kW,,"SOC 2, HIPAA, SSAE-16",https://datacenterhawk.com/marketplace/providers/dartpoints/2711-haskell-avenue/149971,0.2,1350000.0
Dallas/Fort Worth_facility_71,datacenterhawk,DataBank · DFW13,DataBank,Batchler RoadRed Oak,,,TX,United States,"405,888 SF","405,888 SF",,"60,000 kW",,,https://datacenterhawk.com/marketplace/providers/databank/batchler-road/dfw13,60.0,405888.0
Dallas/Fort Worth_facility_73,datacenterhawk,DataBank · DFW15,DataBank,Batchler RoadRed Oak,,,TX,United States,"408,555 SF",,,"60,000 kW",,,https://datacenterhawk.com/marketplace/providers/databank/batchler-road/dfw15,60.0,408555.0
Dallas/Fort Worth_facility_77,datacenterhawk,Digital Realty · DFW18 (Datacenter Park - Dallas),Oncor,1210 Integrity Drive,Richardson,,TX,United States,"458,500 SF",,2016,36000.0,,,https://datacenterhawk.com/marketplace/providers/digital-realty/1210-integrity-drive/dfw18-datacenter-park-dallas,36.0,458500.0
Dallas/Fort Worth_facility_81,datacenterhawk,Digital Realty · DFW10,Oncor,"2323 Bryan Street, Suite 400",Dallas,,TX,United States,"454,000 SF","454,000 SF",1983,"6,850 kW",,,https://datacenterhawk.com/marketplace/providers/digital-realty/2323-bryan-street-suite-400/dfw10,6.85,454000.0
Dallas/Fort Worth_facility_87,datacenterhawk,Digital Realty · Digital Garland,Garland Power & Light,805 Holford Road,Garland,,TX,United States,"1,400,000 SF","1,400,000 SF",2024,"8,000 kW",,,https://datacenterhawk.com/marketplace/providers/digital-realty/805-holford-road/digital-garland,8.0,1400000.0
Dallas/Fort Worth_facility_90,datacenterhawk,Digital Realty · DFW17 (Datacenter Park - Dallas),Oncor,900 Quality Way,Richardson,,TX,United States,"114,922 SF",,2011,"100,000",,,https://datacenterhawk.com/marketplace/providers/digital-realty/900-quality-way/dfw17-datacenter-park-dallas,100.0,114922.0
Dallas/Fort Worth_facility_94,datacenterhawk,Digital Realty · DFW29 (Datacenter Park - Dallas),Oncor,950 E Collins Boulevard,Richardson,,TX,United States,"121,286 SF","121,286 SF",2012,"100,000 KW",,,https://datacenterhawk.com/marketplace/providers/digital-realty/950-e-collins-boulevard/dfw29-datacenter-park-dallas,100.0,121286.0
Dallas/Fort Worth_facility_99,datacenterhawk,EdgeConneX · Building 5,Oncor,2901 Nokomis Road,Lancaster,,TX,United States,"700,500 SF","700,500 SF",,"67,000 kW",,"HIPAA, SOC 2, PCI",https://datacenterhawk.com/marketplace/providers/edgeconnex/2901-nokomis-road/building-5,67.0,700500.0
Dallas/Fort Worth_facility_100,datacenterhawk,Edged Energy · DFW01-1,Edged Energy,505 N Wildwood Drive,Irving,,TX,United States,"165,543 SF","165,543 SF",2022,"14,000 kW",,,https://datacenterhawk.com/marketplace/providers/edged-energy/505-n-wildwood-drive/dfw01-1,14.0,165543.0
Dallas/Fort Worth_facility_101,datacenterhawk,Equinix · DA10,Oncor,1232 Alma Road,Richardson,,TX,United States,"120,000 SF",,1990,1125.0,,,https://datacenterhawk.com/marketplace/providers/equinix/1232-alma-road/da10,1125.0,120000.0
Dallas/Fort Worth_facility_110,datacenterhawk,Evocative · DA1,Evocative,2800 Summit Avenue,Plano,,TX,United States,"300,000 SF",,2005,750 kW,,,https://datacenterhawk.com/marketplace/providers/evocative/2800-summit-avenue/da1,0.75,300000.0
Dallas/Fort Worth_facility_114,datacenterhawk,Flexential · Dallas - Plano,Oncor,3500 East Plano Parkway,Plano,,TX,United States,"261,425 SF","261,425 SF",2016,18 MW,,,https://datacenterhawk.com/marketplace/providers/flexential/3500-east-plano-parkway/dallas-plano,18.0,261425.0
Dallas/Fort Worth_facility_123,datacenterhawk,Lincoln Property Group · Loop 9,Oncor,Loop 9Red Oak,,,TX,United States,,"384,000",,"384,000",,,https://datacenterhawk.com/marketplace/providers/lincoln-rackhouse/loop-9/1092361,384.0,384000.0
Dallas/Fort Worth_facility_130,datacenterhawk,PowerHouse Data Centers · PowerHouse Irving,Oncor,111 Customer Way,Irving,,TX,United States,,"144,000",,"144,000",,,https://datacenterhawk.com/marketplace/providers/powerhouse-data-centers/111-customer-way/powerhouse-irving,144.0,144000.0
Dallas/Fort Worth_facility_136,datacenterhawk,Prime Data Centers · DFW02-02,Oncor,2000 Holford Road,Garland,,TX,United States,"275,840 SF",,,"48,000 kW",,,https://datacenterhawk.com/marketplace/providers/prime-data-centers/2000-holford-road/dfw02-02,48.0,275840.0
Dallas/Fort Worth_facility_137,datacenterhawk,Prime Data Centers · DFW02-03,Oncor,2000 Holford Road,Garland,,TX,United States,"275,480 SF","275,480 SF",,"48,000 kW",,,https://datacenterhawk.com/marketplace/providers/prime-data-centers/2000-holford-road/dfw02-03,48.0,275480.0
Dallas/Fort Worth_facility_143,datacenterhawk,QTS · Dallas I DC3,Oncor,303 Mason Road,Lancaster,,TX,United States,"574,640 SF","574,640 SF",,"72,000 kW",,,https://datacenterhawk.com/marketplace/providers/qts/303-mason-road/dallas-i-dc3,72.0,574640.0
Dallas/Fort Worth_facility_144,datacenterhawk,QTS · Dallas I DC4,Oncor,303 Mason Road,Lancaster,,TX,United States,"356,218 SF","356,218 SF",,"48,000 kW",,,https://datacenterhawk.com/marketplace/providers/qts/303-mason-road/dallas-i-dc4,48.0,356218.0
Dallas/Fort Worth_facility_152,datacenterhawk,QTS · Dallas II DC2,Oncor,Mason RoadLancaster,,,TX,United States,"429,008 SF","429,008 SF",,"48,000 kW",,,https://datacenterhawk.com/marketplace/providers/qts/mason-road/dallas-ii-dc2,48.0,429008.0
Dallas/Fort Worth_facility_156,datacenterhawk,Rackspace · DFW3,Oncor,1215 Integrity Drive,Richardson,,TX,United States,"117,876 SF","117,876 SF",2011,"6,975 kW",,,https://datacenterhawk.com/marketplace/providers/rackspace/1215-integrity-drive/dfw3,6.975,117876.0
Dallas/Fort Worth_facility_161,datacenterhawk,Skybox Datacenters · PowerCampus Dallas - Building 1,Skybox Datacenters & Bandera Ventures,2401 S Dallas Avenue,Lancaster,,TX,United States,"238,540 SF","238,540 SF",,"48,000 kW",,,https://datacenterhawk.com/marketplace/providers/skybox-datacenters/2401-s-dallas-avenue/powercampus-dallas-building-1,48.0,238540.0
Dallas/Fort Worth_facility_163,datacenterhawk,Skybox Datacenters · PowerCampus Dallas - Building 3,OnCor,2401 S Dallas Avenue,Lancaster,,TX,United States,"280,254 SF","280,254 SF",,"48,000 kW",,,https://datacenterhawk.com/marketplace/providers/skybox-datacenters/2401-s-dallas-avenue/powercampus-dallas-building-3,48.0,280254.0
Dallas/Fort Worth_facility_168,datacenterhawk,STACK Infrastructure · DFW01 Future Expansion,Oncor,5601 West Spring Creek Parkway,Plano,,TX,United States,"278,000 SF","278,000 SF",2014,"9,000 kW",,,https://datacenterhawk.com/marketplace/providers/stack-infrastructure/5601-west-spring-creek-parkway/dfw01-future-expansion,9.0,278000.0
Dallas/Fort Worth_facility_170,datacenterhawk,STACK Infrastructure · DFW01B,Oncor,6715 Pinecrest Drive,Plano,,TX,United States,"157,000 SF","157,000 SF",2016,"4,200 kW",,,https://datacenterhawk.com/marketplace/providers/stack-infrastructure/6715-pinecrest-drive/dfw01b,4.2,157000.0
Dallas/Fort Worth_facility_178,datacenterhawk,STACK Infrastructure · DFW02H,Oncor,East Belt Line RoadLancaster,Lancaster,,TX,United States,,"48,000",,"48,000",,,https://datacenterhawk.com/marketplace/providers/stack-infrastructure/east-belt-line-road/dfw02h,48.0,48000.0
Dallas/Fort Worth_facility_195,datacenterhawk,Aligned Data Centers · DFW02,Aligned Data Center,2800 Summit Avenue,Plano,,TX,United States,"221,750 SF","221,750 SF",,"18,000 kW",,"ISO, NIST, HIPAA",https://datacenterhawk.com/marketplace/providers/aligned-data-centers/2800-summit-avenue/dfw02,18.0,221750.0
Dallas/Fort Worth_facility_197,datacenterhawk,Aligned Data Centers · E Plano Parkway,Oncor,E Plano Parkway,Plano,,TX,United States,"425,512 SF",,,5.51,,,https://datacenterhawk.com/marketplace/providers/aligned-data-centers/e-plano-parkway/1079627,5.51,425512.0
Phoenix_facility_5,datacenterhawk,Aligned Data Centers · PHX-06,Salt River Project,2955 W Innovation Street,Chandler,,AZ,United States,"258,766 SF","258,766 SF",,"90,000 kW",,,https://datacenterhawk.com/marketplace/providers/aligned-data-centers/2955-w-innovation-street/phx-06,90.0,258766.0
Phoenix_facility_11,datacenterhawk,Aligned Data Centers · N 75th Avenue,Salt River Project,N 75th AvenuePeoria,Peoria,,AZ,United States,,"288,000",,"288,000",,,https://datacenterhawk.com/marketplace/providers/aligned-data-centers/n-75th-avenue/1090080,288.0,288000.0
Phoenix_facility_18,datacenterhawk,Compass Datacenters · PHX I-B,Arizona Public Service,400 S Bullard Avenue,Goodyear,,AZ,United States,,"10,000 SF",2023,1200 kW,,Tier 3 Designed and Certified by the Uptime Institute,https://datacenterhawk.com/marketplace/providers/compass-datacenters/400-s-bullard-avenue/phx-i-b,1.2,10000.0
Phoenix_facility_19,datacenterhawk,Compass Datacenters · PHX I-C,Arizona Public Service,400 S Bullard Avenue,Goodyear,,AZ,United States,,"10,000 SF",2024,1200 kW,,Tier 3 Designed and Certified by the Uptime Institute,https://datacenterhawk.com/marketplace/providers/compass-datacenters/400-s-bullard-avenue/phx-i-c,1.2,10000.0
Phoenix_facility_20,datacenterhawk,Compass Datacenters · PHX I-D,Arizona Public Service,400 S Bullard Avenue,Goodyear,,AZ,United States,,"10,000 SF",2024,1200 kW,,Tier 3 Designed and Certified by the Uptime Institute,https://datacenterhawk.com/marketplace/providers/compass-datacenters/400-s-bullard-avenue/phx-i-d,1.2,10000.0
Phoenix_facility_21,datacenterhawk,Compass Datacenters · PHX I-E,Arizona Public Service,400 S Bullard Avenue,Goodyear,,AZ,United States,,"10,000 SF",,1200 kW,,Tier 3 Designed and Certified by the Uptime Institute,https://datacenterhawk.com/marketplace/providers/compass-datacenters/400-s-bullard-avenue/phx-i-e,1.2,10000.0
Phoenix_facility_22,datacenterhawk,Compass Datacenters · PHX I-F,Arizona Public Service,400 S Bullard Avenue,Goodyear,,AZ,United States,,"10,000 SF",,1200 kW,,Tier 3 Designed and Certified by the Uptime Institute,https://datacenterhawk.com/marketplace/providers/compass-datacenters/400-s-bullard-avenue/phx-i-f,1.2,10000.0
Phoenix_facility_23,datacenterhawk,Compass Datacenters · PHX II-A,Arizona Public Service,W Joe R Ramirez RoadEl Mirage,El Mirage,,AZ,United States,,"10,000 SF",,1200 kW,,Tier 3 Designed and Certified by the Uptime Institute,https://datacenterhawk.com/marketplace/providers/compass-datacenters/w-joe-r-ramirez-road/phx-ii-a,1.2,10000.0
Phoenix_facility_24,datacenterhawk,Compass Datacenters · PHX II-B,Arizona Public Service,W Joe R Ramirez RoadEl Mirage,El Mirage,,AZ,United States,,"10,000 SF",,1200 kW,,Tier 3 Designed and Certified by the Uptime Institute,https://datacenterhawk.com/marketplace/providers/compass-datacenters/w-joe-r-ramirez-road/phx-ii-b,1.2,10000.0
Phoenix_facility_25,datacenterhawk,Compass Datacenters · PHX II-C,Arizona Public Service,W Joe R Ramirez RoadEl Mirage,El Mirage,,AZ,United States,,"10,000 SF",,1200 kW,,Tier 3 Designed and Certified by the Uptime Institute,https://datacenterhawk.com/marketplace/providers/compass-datacenters/w-joe-r-ramirez-road/phx-ii-c,1.2,10000.0
Phoenix_facility_27,datacenterhawk,CyrusOne · PHX3,Salt River Project,2305 S Ellis Street,Chandler,,AZ,United States,"150,000 SF",,2012,6000.0,,,https://datacenterhawk.com/marketplace/providers/cyrusone/2305-s-ellis-street/phx3,6000.0,150000.0
Phoenix_facility_31,datacenterhawk,CyrusOne · PHX6,CyrusOne,2605 S Ellis Street,Chandler,,AZ,United States,"193,000 SF",,2017,18000.0,,,https://datacenterhawk.com/marketplace/providers/cyrusone/2605-s-ellis-street/phx6,18.0,193000.0
Phoenix_facility_42,datacenterhawk,Digital Realty · 2055 East Technology Circle,Salt River Project,2055 East Technology Circle,Tempe,,AZ,United States,"76,350 SF","76,350 SF",1989,"3,200 kW",,,https://datacenterhawk.com/marketplace/providers/digital-realty/2055-east-technology-circle/1759,3.2,76350.0
Phoenix_facility_44,datacenterhawk,EdgeConneX · PHX01,EdgeConneX,"3011 S 52nd Street, Suite 107",Tempe,,AZ,United States,"80,908 SF","80,908 SF",1980,"3,000 kW",,,https://datacenterhawk.com/marketplace/providers/edgeconnex/3011-s-52nd-street-suite-107/phx01,3.0,80908.0
Phoenix_facility_52,datacenterhawk,Flexential · Phoenix - Deer Valley,Arizona Public Service,1850 West Deer Valley Road,Phoenix,,AZ,United States,"109,476 SF","109,476 SF",2010,"3,250 kW",,,https://datacenterhawk.com/marketplace/providers/flexential/1850-west-deer-valley-road/phoenix-deer-valley,3.25,109476.0
Phoenix_facility_54,datacenterhawk,INAP · 2500 W Frye Rd,Salt River Project,2500 W Frye Rd,Chandler,,AZ,United States,"160,000 SF","160,000 SF",1988,"4,700 kW",,,https://datacenterhawk.com/marketplace/providers/inap/2500-w-frye-rd/1031666,4.7,160000.0
Phoenix_facility_63,datacenterhawk,LightEdge · 120 East Van Buren,Arizona Public Service,120 East Van Buren,Phoenix,,AZ,United States,"347,000 SF","347,000 SF",1946,781 kW,,,https://datacenterhawk.com/marketplace/providers/lightedge/120-east-van-buren/1034786,0.781,347000.0
Phoenix_facility_66,datacenterhawk,Menlo Equities · ME-PHX 3,Salt River Project,4809 E Thistle Landing Drive,Phoenix,,AZ,United States,,"51,400",,"51,400",,,https://datacenterhawk.com/marketplace/providers/menlo-equities/4809-e-thistle-landing-drive/me-phx-3,51.4,51400.0
Phoenix_facility_70,datacenterhawk,Novva · DH1,Salt River Project,11708 Ellsworth Road  #1,Mesa,,AZ,United States,"225,585 SF","225,585 SF",,"40,000 kW",,,https://datacenterhawk.com/marketplace/providers/novva/11708-ellsworth-road-1/dh1,40.0,225585.0
Phoenix_facility_72,datacenterhawk,Novva · DH3,Novva Data Centers,11708 Ellsworth Road #3,Mesa,,AZ,United States,"225,585 SF",,,40000.0,,,https://datacenterhawk.com/marketplace/providers/novva/11708-ellsworth-road-3/dh3,40.0,225585.0
Phoenix_facility_73,datacenterhawk,Novva · DH4,Salt River Project,11708 Ellsworth Road #4,Mesa,,AZ,United States,"225,585 SF","225,585 SF",,"40,000 kW",,,https://datacenterhawk.com/marketplace/providers/novva/11708-ellsworth-road-4/dh4,40.0,225585.0
Phoenix_facility_81,datacenterhawk,NTT Global Data Centers · PH7,Salt River Project,E Elliot Road and S Signal Butte Road,Mesa,,AZ,United States,"141,000 SF","141,000 SF",,"24,000 kW",,"NIST, SOC 2, HIPAA",https://datacenterhawk.com/marketplace/providers/ntt-global-data-centers/e-elliot-road-and-s-signal-butte-road/ph7,24.0,141000.0
Phoenix_facility_82,datacenterhawk,Omnis Network · 1005 W Geneva Drive,Omnis Network,1005 W Geneva Drive,Tempe,,AZ,United States,"17,000 SF","17,000 SF",1980,625 kW,,,https://datacenterhawk.com/marketplace/providers/omnis-network/1005-w-geneva-drive/126626,0.625,17000.0
Phoenix_facility_83,datacenterhawk,OneNeck IT Solutions · Phoenix 1,Salt River Project,1655 W Sunrise Boulevard,Gilbert,,AZ,United States,"14,168 SF","14,168 SF",1998,700 kW,,,https://datacenterhawk.com/marketplace/providers/oneneck-it-solutions/1655-w-sunrise-boulevard/phoenix-1,0.7,14168.0
Phoenix_facility_84,datacenterhawk,phoenixNAP · PHX02,Salt River Power,3255 E Elwood Street,Phoenix,,AZ,United States,"530,000 SF","530,000 SF",,"30,000 kW",,,https://datacenterhawk.com/marketplace/providers/phoenixnap/3255-e-elwood-street/phx02,30.0,530000.0
Phoenix_facility_85,datacenterhawk,phoenixNAP · PHX01,phoenixNAP,3402 E University Drive,Phoenix,,AZ,United States,"160,000 SF","160,000 SF",1999,"4,500 kW",,,https://datacenterhawk.com/marketplace/providers/phoenixnap/3402-e-university-drive/phx01,4.5,160000.0
Phoenix_facility_86,datacenterhawk,Prime Data Centers · PHX01,Arizona Public Service,11753 W Lower BuckeyeAvondale,Phoenix,,AZ,United States,"1,302,000 SF","1,302,000 SF",,"240,000 kW",,,https://datacenterhawk.com/marketplace/providers/prime-data-centers/11753-w-lower-buckeye/phx01,240.0,1302000.0
Phoenix_facility_118,datacenterhawk,Stream Data Centers · Phoenix II,Arizona Public Service,3180 S Litchfield Road,Goodyear,,AZ,United States,"1,672,800 SF","1,672,800 SF",,"20,000 kW",,"HIPAA, PCI, SOC 2",https://datacenterhawk.com/marketplace/providers/stream-data-centers/3180-s-litchfield-road/phoenix-ii,20.0,1672800.0
Phoenix_facility_131,datacenterhawk,Aligned Data Centers · PHX-06,Salt River Project,2955 W Innovation Street,Chandler,,AZ,United States,"258,766 SF","258,766 SF",,"90,000 kW",,,https://datacenterhawk.com/marketplace/providers/aligned-data-centers/2955-w-innovation-street/phx-06,90.0,258766.0
Atlanta_facility_1,datacenterhawk,55 Marietta · 55 Marietta StreetFeatured,Georgia Power Company,55 Marietta Street,Atlanta,,GA,United States,"386,000 SF",,1955,12MW,,,https://datacenterhawk.com/marketplace/providers/55-marietta/55-marietta-street/135742,12.0,386000.0
Atlanta_facility_5,datacenterhawk,Aligned Data Centers · Building 1,Georgia Power,Old Post RoadWinston,Atlanta,,GA,United States,"566,000 SF","566,000 SF",,"96,000 kW",,,https://datacenterhawk.com/marketplace/providers/aligned-data-centers/old-post-road/building-1,96.0,566000.0
Atlanta_facility_6,datacenterhawk,Aligned Data Centers · Building 2,Georgia Power,Old Post RoadWinston,Atlanta,,GA,United States,"566,000 SF",,,"96,000 kW",,,https://datacenterhawk.com/marketplace/providers/aligned-data-centers/old-post-road/building-2,96.0,566000.0
Atlanta_facility_11,datacenterhawk,CoreSite · AT2,CoreSite,1130 Powers Ferry Place,Marietta,,GA,United States,"73,000 SF","73,000 SF",2002,"2,000 kW",,,https://datacenterhawk.com/marketplace/providers/coresite/1130-powers-ferry-place/at2,2.0,73000.0
Atlanta_facility_13,datacenterhawk,DartPoints · 1000 Abernathy Road NE,Georgia Power Company,1000 Abernathy Road NE,Atlanta,,GA,United States,"586,256 SF","586,256 SF",1986,200 kW,,"HIPAA, SSAE-16, SOC 1",https://datacenterhawk.com/marketplace/providers/dartpoints/1000-abernathy-road-ne/149944,0.2,586256.0
Atlanta_facility_14,datacenterhawk,DartPoints · 1230 Peachtree Street NE,Cousins Properties,1230 Peachtree Street NE,Atlanta,,GA,United States,"774,610 SF","774,610 SF",1990,200 kW,,"SSAE-16, HIPAA, SOC 1",https://datacenterhawk.com/marketplace/providers/dartpoints/1230-peachtree-street-ne/149949,0.2,774610.0
Atlanta_facility_15,datacenterhawk,DartPoints · 3280 Peachtree Road NE,Cousins Properties,3280 Peachtree Road NE,Atlanta,,GA,United States,"656,000 SF","656,000 SF",2007,200 kW,,"HIPAA, SOC 1, PCI",https://datacenterhawk.com/marketplace/providers/dartpoints/3280-peachtree-road-ne/149956,0.2,656000.0
Atlanta_facility_16,datacenterhawk,DataBank · ATL2,DataBank,1100 White St SW,Atlanta,,GA,United States,"74,000 SF",,1962,4200.0,,,https://datacenterhawk.com/marketplace/providers/databank/1100-white-st-sw/atl2,4200.0,74000.0
Atlanta_facility_18,datacenterhawk,DataBank · ATL4,Georgia Power,200 Selig Drive SW,Atlanta,,GA,United States,"200,000 SF","200,000 SF",,"6,000 kW",,,https://datacenterhawk.com/marketplace/providers/databank/200-selig-drive-sw/atl4,6.0,200000.0
Atlanta_facility_52,datacenterhawk,Flexential · Atlanta - Douglasville 2,Graystone,1750 N River Road,Douglasville,,GA,United States,"310,000 SF","310,000 SF",2023,"4,500 kW",,"PCI, SOC 2, NIST",https://datacenterhawk.com/marketplace/providers/flexential/1750-n-river-road/atlanta-douglasville-2,4.5,310000.0
Atlanta_facility_59,datacenterhawk,Lincoln Property Group · 40 Perimeter Center East,Georgia Power,40 Perimeter Center East,Atlanta,,GA,United States,"88,169 SF","88,169 SF",2000,"2,500 kW",,,https://datacenterhawk.com/marketplace/providers/lincoln-rackhouse/40-perimeter-center-east/146244,2.5,88169.0
Atlanta_facility_65,datacenterhawk,QTS · Suwanee DC2,QTS,120 Satellite Blvd NW,Suwanee,,GA,United States,"376,900 SF","376,900 SF",,"24,000 kW",,,https://datacenterhawk.com/marketplace/providers/qts/120-satellite-blvd-nw/suwanee-dc2,24.0,376900.0
Atlanta_facility_66,datacenterhawk,QTS · Suwanee DC1,QTS,300 Satellite Boulevard NW,Suwanee,,GA,United States,"385,000 SF",,2000,20000.0,,,https://datacenterhawk.com/marketplace/providers/qts/300-satellite-boulevard-nw/suwanee-dc1,20.0,385000.0
Atlanta_facility_71,datacenterhawk,STACK Infrastructure · ATL01A,Georgia Power Co.,3200 Webb Bridge Road,Alpharetta,,GA,United States,"105,000 SF","105,000 SF",2011,"1,500 kW",,,https://datacenterhawk.com/marketplace/providers/stack-infrastructure/3200-webb-bridge-road/atl01a,1.5,105000.0
Atlanta_facility_73,datacenterhawk,STACK Infrastructure · ATL01 Future Expansion,Georgia Power,Webb Bridge Road,Alpharetta,,GA,United States,"133,000 SF","133,000 SF",,12 MW,,,https://datacenterhawk.com/marketplace/providers/stack-infrastructure/webb-bridge-road/atl01-future-expansion,12.0,133000.0
Atlanta_facility_75,datacenterhawk,Switch · Atlanta 1,Switch,1 Switch WayLithia Springs,Lithia Springs,,GA,United States,"190,000 SF","190,000 SF",2020,110 MW,Hyperscale,,https://datacenterhawk.com/marketplace/providers/switch/1-switch-way/atlanta-1,110.0,190000.0
Atlanta_facility_77,datacenterhawk,Switch · Atlanta 4,Switch,1 Switch Way,Lithia Springs,,GA,United States,"175,751 SF","175,751 SF",,"34,000 kW",,,https://datacenterhawk.com/marketplace/providers/switch/1-switch-way/atlanta-4,34.0,175751.0
Atlanta_facility_88,datacenterhawk,Aligned Data Centers · Building 1,Georgia Power,Old Post RoadWinston,Atlanta,,GA,United States,"566,000 SF","566,000 SF",,"96,000 kW",,,https://datacenterhawk.com/marketplace/providers/aligned-data-centers/old-post-road/building-1,96.0,566000.0
Atlanta_facility_89,datacenterhawk,Aligned Data Centers · Building 2,Georgia Power,Old Post RoadWinston,Atlanta,,GA,United States,"566,000 SF",,,"96,000 kW",,,https://datacenterhawk.com/marketplace/providers/aligned-data-centers/old-post-road/building-2,96.0,566000.0
Toronto_facility_9,datacenterhawk,beanfield Metroconnect · 905 King Street W,Toronto Hydro,905 King Street W,Toronto,,ON,Canada,"112,000 SF","112,000 SF",1985,300 kW,,,https://datacenterhawk.com/marketplace/providers/beanfield-metroconnect/905-king-street-w/136070,0.3,112000.0
Toronto_facility_18,datacenterhawk,Cologix · Clegg Partner Site,CIM Group / Cologix,105 Clegg Road,Markham,,ON,Canada,"80,000 SF",,,5000.0,,,https://datacenterhawk.com/marketplace/providers/cologix/105-clegg-road/clegg-partner-site,5000.0,80000.0
Toronto_facility_22,datacenterhawk,Coloware · YTZ-1,Toronto Hydro,151 Front Street West,Toronto,,ON,Canada,"325,772 SF",,1954,166 kW,,,https://datacenterhawk.com/marketplace/providers/coloware/151-front-street-west/ytz-1,0.166,325772.0
Toronto_facility_27,datacenterhawk,Cover-All · 1 Valleywood Drive,Power Stream,1 Valleywood Drive,Markham,,ON,Canada,"17,000 SF","17,000 SF",1986,"1,000 kW",,,https://datacenterhawk.com/marketplace/providers/cover-all/1-valleywood-drive/126000,1.0,17000.0
Toronto_facility_30,datacenterhawk,Digital Realty · YYZ10,Digital Realty,371 Gough Road,Markham,,ON,Canada,"104,308 SF","104,308 SF",1980,"6,750 kW",,,https://datacenterhawk.com/marketplace/providers/digital-realty/371-gough-road/yyz10,6.75,104308.0
Toronto_facility_32,datacenterhawk,EdgeConneX · TOR01,EdgeConnex,565 Gordon Baker Road,North York,,ON,Canada,"38,900 SF",,,2000.0,,,https://datacenterhawk.com/marketplace/providers/edgeconnex/565-gordon-baker-road/tor01,2000.0,38900.0
Toronto_facility_35,datacenterhawk,Equinix · TR7,Equinix,1895 Williams Parkway,Brampton,,ON,Canada,"400,000 SF","400,000 SF",2000,"8,800 kW",,,https://datacenterhawk.com/marketplace/providers/equinix/1895-williams-parkway/tr7,8.8,400000.0
Toronto_facility_48,datacenterhawk,Serverfarm · TOR1,Serverfarm,300 Bartor Road,North York,,ON,Canada,"78,000 SF","78,000 SF",,"5,000 kW",,,https://datacenterhawk.com/marketplace/providers/serverfarm/300-bartor-road/tor1,5.0,78000.0
Toronto_facility_53,datacenterhawk,Sungard Availability Services · TOR-371,Alectra,371 Gough Road,Markham,,ON,Canada,"120,041 SF",,1980,"2,700 kW",,,https://datacenterhawk.com/marketplace/providers/sungard-availability-services/371-gough-road/tor-371,2.7,120041.0
Toronto_facility_57,datacenterhawk,TELUS · 73 Laird Drive,TELUS,73 Laird Drive,East York,,ON,Canada,"201,118 SF","201,118 SF",2000,"1,000 kW",,,https://datacenterhawk.com/marketplace/providers/telus/73-laird-drive/126667,1.0,201118.0
Toronto_facility_58,datacenterhawk,Urbacon Data Centre Solutions · 281 Front Street,Toronto Hydro,281 Front Street,Toronto,,ON,Canada,"168,000 SF","168,000 SF",,"16,000 kW",,,https://datacenterhawk.com/marketplace/providers/urbacon-data-centre-solutions/281-front-street/137059,16.0,168000.0
Toronto_facility_61,datacenterhawk,Urbacon Data Centre Solutions · DC1,Urbacon Data Centre Solutions,80 Via Renzo Drive,Richmond Hill,,ON,Canada,"118,135 SF","118,135 SF",2017,"9,000 kW",,,https://datacenterhawk.com/marketplace/providers/urbacon-data-centre-solutions/80-via-renzo-drive/dc1,9.0,118135.0
Toronto_facility_63,datacenterhawk,Urbacon Data Centre Solutions · DC5,Urbacon Data Centre Solutions,Preformance Drive,Richmond Hill,,ON,Canada,"83,300 SF","83,300 SF",,"30,000 kW",,,https://datacenterhawk.com/marketplace/providers/urbacon-data-centre-solutions/preformance-drive/dc5,30.0,83300.0
Toronto_facility_65,datacenterhawk,Urbacon Data Centre Solutions · DC4,Urbacon Data Centre Solutions,Sofia Court,Richmond Hill,,ON,Canada,"91,577 SF","91,577 SF",,"30,000 kW",,,https://datacenterhawk.com/marketplace/providers/urbacon-data-centre-solutions/sofia-court/dc4,30.0,91577.0
Toronto_facility_66,datacenterhawk,Whipcord Edge Data Centers · 75 Horner Avenue,Whipcord Edge,75 Horner Avenue,Toronto,,ON,Canada,"12,500 SF",,,500 kW,,,https://datacenterhawk.com/marketplace/providers/whipcord-edge-data-centers/75-horner-avenue/125391,0.5,12500.0
Toronto_facility_73,datacenterhawk,beanfield Metroconnect · 905 King Street W,Toronto Hydro,905 King Street W,Toronto,,ON,Canada,"112,000 SF","112,000 SF",1985,300 kW,,,https://datacenterhawk.com/marketplace/providers/beanfield-metroconnect/905-king-street-w/136070,0.3,112000.0
Los Angeles_facility_10,datacenterhawk,CoreSite · LA3,CoreSite,260 Bauchet Street,Los Angeles,,CA,United States,"179,600 SF","179,600 SF",2019,"11,960 kW",,,https://datacenterhawk.com/marketplace/providers/coresite/260-bauchet-street/la3,11.96,179600.0
Los Angeles_facility_12,datacenterhawk,"CoreSite · 650 South Grand Avenue, Suites 600/1000",CoreSite,"650 South Grand Avenue, Suites 600/1000",Los Angeles,,CA,United States,"66,623 SF","66,623 SF",1926,"1,220 kW",,,https://datacenterhawk.com/marketplace/providers/coresite/650-south-grand-avenue-suites-600-1000/137993,1.22,66623.0
Los Angeles_facility_16,datacenterhawk,DataBank · SNA2,DataBank,17400 Von Karman Avenue,Irvine,,CA,United States,"33,700 SF","33,700 SF",2011,"11,000 kW",,,https://datacenterhawk.com/marketplace/providers/databank/17400-von-karman-avenue/sna2,11.0,33700.0
Los Angeles_facility_21,datacenterhawk,Digital Realty · LAX12,Southern California Edison,2260 E El Segundo Boulevard,El Segundo,,CA,United States,"132,000 SF","132,000 SF",1978,12.1,,,https://datacenterhawk.com/marketplace/providers/digital-realty/2260-e-el-segundo-boulevard/lax12,12.1,132000.0
Los Angeles_facility_26,datacenterhawk,Equinix · LA7,Equinix,1501 Francisco Street,Torrance,,CA,United States,"108,336 SF",,2000,"9,250 kW",,,https://datacenterhawk.com/marketplace/providers/equinix/1501-francisco-street/la7,9.25,108336.0
Los Angeles_facility_48,datacenterhawk,UnitedLayer · 530 West 6th Street,UnitedLayer,530 West 6th Street,Los Angeles,,CA,United States,,"66,4248 sqft",1929,2 MW,,,https://datacenterhawk.com/marketplace/providers/unitedlayer/530-west-6th-street/1050474,2.0,664248.0
Los Angeles_facility_49,datacenterhawk,Voxility · LA1,LADWP,624 S. Grand Avenue,Los Angeles,,CA,United States,"664,248 SF","664,248 SF",1967,210 kW,,,https://datacenterhawk.com/marketplace/providers/voxility/624-s-grand-avenue/la1,0.21,664248.0
Northern New Jersey_facility_17,datacenterhawk,CoreSite · NY2,Coresite,2 Emerson Lane,Secaucus,,NJ,United States,"236,250 SF","236,250 SF",1980,"22,000 kW",,,https://datacenterhawk.com/marketplace/providers/coresite/2-emerson-lane/ny2,22.0,236250.0
Northern New Jersey_facility_21,datacenterhawk,CyrusOne · NYM1 - Phase 1,Public Service Electric and Gas Co.,800 Cottontail Lane,Somerset,,NJ,United States,"212,522 SF","212,522 SF",2011,"14,000 kW",,,https://datacenterhawk.com/marketplace/providers/cyrusone/800-cottontail-lane/nym1-phase-1,14.0,212522.0
Northern New Jersey_facility_29,datacenterhawk,Digital Realty · 3 Corporate Place Annex,PSE&G,1115 Centennial Avenue,Piscataway,,NJ,United States,"127,000 SF","127,000 SF",2014,"6,000 kW",,,https://datacenterhawk.com/marketplace/providers/digital-realty/1115-centennial-avenue/3-corporate-place-annex,6.0,127000.0
Northern New Jersey_facility_34,datacenterhawk,Digital Realty · Bldg A,Digital Realty,701 Union Boulevard,Totowa,,NJ,United States,"275,000 SF","275,000 SF",1975,"19,200 kW",,,https://datacenterhawk.com/marketplace/providers/digital-realty/701-union-boulevard/bldg-a,19.2,275000.0
Northern New Jersey_facility_40,datacenterhawk,Equinix · NY3,Equinix,600 Jefferson Avenue,Secaucus,,NJ,United States,"340,000 SF","340,000 SF",,"6,000 kW",,,https://datacenterhawk.com/marketplace/providers/equinix/600-jefferson-avenue/ny3,6.0,340000.0
Northern New Jersey_facility_43,datacenterhawk,Evocative · 1 Enterprise Avenue North,Public Service Electrical & Gas (PSE&G),1 Enterprise Avenue North,Secaucus,,NJ,United States,"101,600 SF","101,600 SF",2012,"2,800 kW",,,https://datacenterhawk.com/marketplace/providers/evocative/1-enterprise-avenue-north/1777,2.8,101600.0
Northern New Jersey_facility_44,datacenterhawk,GI Partners · 492 River Road,GI Partners,492 River Road,Nutley,,NJ,United States,"130,009 SF","130,009 SF",1972,"6,500 kW",,,https://datacenterhawk.com/marketplace/providers/gi-partners/492-river-road/1030021,6.5,130009.0
Northern New Jersey_facility_46,datacenterhawk,Iron Mountain Data Centers · NJE-1,Public Service Electric & Gas,3003 Woodbridge Avenue,Edison,,NJ,United States,"830,000 SF",,1967,"23,600 kW",,,https://datacenterhawk.com/marketplace/providers/iron-mountain-data-centers/3003-woodbridge-avenue/nje-1,23.6,830000.0
Northern New Jersey_facility_49,datacenterhawk,QTS · 101 Possumtown Road,QTS,101 Possumtown Road,Piscataway,,NJ,United States,"360,000 SF","360,000 SF",2010,"30,700 kW",,,https://datacenterhawk.com/marketplace/providers/qts/101-possumtown-road/1573,30.7,360000.0
New York_facility_6,datacenterhawk,CoreSite · NY1,Con Edison,"32 Avenue of the Americas, Suite 700",New York,,NY,United States,"48,000 SF",,1930,2400.0,,,https://datacenterhawk.com/marketplace/providers/coresite/32-avenue-of-the-americas-suite-700/ny1,2400.0,48000.0
New York_facility_24,datacenterhawk,New York Internet · NY2,Con Edison,60 Hudson Street,New York,,NY,United States,"1,800,000 SF",,1930,1050.0,,,https://datacenterhawk.com/marketplace/providers/new-york-internet/60-hudson-street/ny2,1050.0,1800000.0
New York_facility_26,datacenterhawk,Sabey Data Centers · SDC Manhattan,Sabey Data Centers,375 Pearl Street,New York,,NY,United States,"1,100,000 SF","1,000,000 SF",1975,40 MW,,,https://datacenterhawk.com/marketplace/providers/sabey-data-centers/375-pearl-street/sdc-manhattan,40.0,1100000.0
New York_facility_34,datacenterhawk,CoreSite · NY1,Con Edison,"32 Avenue of the Americas, Suite 700",New York,,NY,United States,"48,000 SF","48,000 SF",1930,"2,400 kW",,,https://datacenterhawk.com/marketplace/providers/coresite/32-avenue-of-the-americas-suite-700/ny1,2.4,48000.0
Miami_facility_1,datacenterhawk,365 Data Centers · FL1,365 Data Centers,"3250 W Commercial Blvd, Suite 140Fort Lauderdale",Miami,,FL,United States,"83,326 SF","83,326 SF",1990,935 kW,,,https://datacenterhawk.com/marketplace/providers/365-data-centers/3250-w-commercial-blvd-suite-140/fl1,0.935,83326.0
Miami_facility_10,datacenterhawk,EdgeConneX · MIA01,EdgeConnex,2132 NW 114th Avenue,Miami,,FL,United States,"32,000 SF","32,000 SF",2015,"1,500 kW",,,https://datacenterhawk.com/marketplace/providers/edgeconnex/2132-nw-114th-avenue/mia01,1.5,32000.0
Miami_facility_11,datacenterhawk,EdgeConneX · MIA02,EdgeConneX,475 NE 185th Street,Miami,,FL,United States,"65,518 SF",,1983,"2,000 kW",,,https://datacenterhawk.com/marketplace/providers/edgeconnex/475-ne-185th-street/mia02,2.0,65518.0
Miami_facility_14,datacenterhawk,Equinix · MI2,Digital Realty,"36 NE 2nd Street, Suites 100, 120, and 550",Miami,,FL,United States,"162,140 SF",,1926,"1,100 kW",,,https://datacenterhawk.com/marketplace/providers/equinix/36-ne-2nd-street-suites-100-120-and-550/mi2,1.1,162140.0
Miami_facility_26,datacenterhawk,"South Reach Networks · 36 NE 2nd Street, Suite 520",Florida Power and Light,"36 NE 2nd Street, Suite 520",Miami,,FL,United States,"162,140 SF","162,140 SF",1925,"1,200 kW",,,https://datacenterhawk.com/marketplace/providers/south-reach-networks/36-ne-2nd-street-suite-520/1039387,1.2,162140.0
Miami_facility_27,datacenterhawk,Sunrise Data Services · T-Mobile Everglades MSO,FP&L,4850 NW 103rd Ave.,Sunrise,,FL,United States,"33,560 SF",,2018,"1,750 kW",,,https://datacenterhawk.com/marketplace/providers/sunrise-data-services/4850-nw-103rd-ave/t-mobile-everglades-mso,1.75,33560.0
Miami_facility_29,datacenterhawk,Voxility · Miami 2,Digital Realty,"36 NE 2nd Street, Suite 400",Miami,,FL,United States,"162,140 SF","162,140 SF",1920,"2,000 kW",,,https://datacenterhawk.com/marketplace/providers/voxility/36-ne-2nd-street-suite-400/miami-2,2.0,162140.0
Miami_facility_30,datacenterhawk,Voxility · Miami 1,Voxility,50 NE 9th Street,Miami,,FL,United States,"750,000 SF",,2001,500 kW,,,https://datacenterhawk.com/marketplace/providers/voxility/50-ne-9th-street/miami-1,0.5,750000.0
Seattle_facility_15,datacenterhawk,DataBank · 12201 Tukwila International Boulevard,Seattle City Light,12201 Tukwila International Boulevard,Tukwila,,WA,United States,"240,000 SF",,1999,820.0,,,https://datacenterhawk.com/marketplace/providers/databank/12201-tukwila-international-boulevard/1177,820.0,240000.0
Seattle_facility_18,datacenterhawk,Digital Fortress · Tukwila,Seattle City Light,12101 Tukwila International Boulevard,Seattle,,WA,United States,"103,809 SF","103,809 SF",1999,4.49,,,https://datacenterhawk.com/marketplace/providers/digital-fortress/12101-tukwila-international-boulevard/tukwila,4.49,103809.0
Seattle_facility_22,datacenterhawk,Digital Realty · SEA1,Digital Realty,3433 S 120th Place,Tukwila,,WA,United States,"116,000 SF","116,000 SF",2012,"2,400 kW",,,https://datacenterhawk.com/marketplace/providers/digital-realty/3433-s-120th-place/sea1,2.4,116000.0
Seattle_facility_24,datacenterhawk,Equinix · SE2,Seattle City Light,"2001 6th Avenue, Suite 1202",Seattle,,WA,United States,"400,369 SF",,1981,3100.0,,,https://datacenterhawk.com/marketplace/providers/equinix/2001-6th-avenue-suite-1202/se2,3100.0,400369.0
Seattle_facility_27,datacenterhawk,Evocative · 140 4th Avenue North,Seattle City Light,140 4th Avenue North,Seattle,,WA,United States,"187,220 SF",,2003,"2,600 kW",,,https://datacenterhawk.com/marketplace/providers/evocative/140-4th-avenue-north/1767,2.6,187220.0
Seattle_facility_30,datacenterhawk,INAP · 3355 South 120th Place,Seattle City Light,3355 South 120th Place,Tukwila,,WA,United States,"80,281 SF","80,281 SF",1999,"5,000 kW",,,https://datacenterhawk.com/marketplace/providers/inap/3355-south-120th-place/1771,5.0,80281.0
Seattle_facility_37,datacenterhawk,Sabey Data Centers · SDC West Building A,Seattle City Light,12301 Tukwila International BoulevardTukwila,Tukwila,,WA,United States,"103,809 SF","103,809 SF",1999,"2,000 kW",,,https://datacenterhawk.com/marketplace/providers/sabey-data-centers/12301-tukwila-international-boulevard/sdc-west-building-a,2.0,103809.0
Denver_facility_1,datacenterhawk,Centersquare · DEN2-AFeatured,Xcel Energy,8534 Concord Center Drive,Englewood,,CO,United States,"85,660 SF","85,660 SF",2000,"4,700 kW",,,https://datacenterhawk.com/marketplace/providers/centersquare/8534-concord-center-drive/den2-a,4.7,85660.0
Denver_facility_6,datacenterhawk,Colorado Colo · 11100 W 8th Avenue,"Zayo, CenturyLink, Level 3 (Lumen Technologies)",11100 W 8th Avenue,Lakewood,,CO,United States,"104,218 SF","104,218 SF",1973,250 kW,,,https://datacenterhawk.com/marketplace/providers/colorado-colo/11100-w-8th-avenue/1035071,0.25,104218.0
Denver_facility_13,datacenterhawk,DataBank · DEN1,Xcel Energy,393 Inverness Parkway,Englewood,,CO,United States,"53,200 SF","53,200 SF",2012,"3,500 kW",,,https://datacenterhawk.com/marketplace/providers/databank/393-inverness-parkway/den1,3.5,53200.0
Denver_facility_22,datacenterhawk,Expedient · 7347 S Revere Parkway,Expedient,7347 S Revere Parkway,Centennial,,CO,United States,"32,072 SF","32,072 SF",1999,"2,500 kW",,,https://datacenterhawk.com/marketplace/providers/expedient/7347-s-revere-parkway/1044755,2.5,32072.0
Denver_facility_24,datacenterhawk,Flexential · Denver - Centennial,Flexential,12500 East Arapahoe Road,Centennial,,CO,United States,"43,294 SF","43,294 SF",1998,1.6 MW,,,https://datacenterhawk.com/marketplace/providers/flexential/12500-east-arapahoe-road/denver-centennial,1.6,43294.0
Denver_facility_26,datacenterhawk,Flexential · Denver - Parker,CORE Electric Cooperative,Compark Boulevard,Parker,,CO,United States,"294,000 SF","294,000 SF",,"22,500 kW",,,https://datacenterhawk.com/marketplace/providers/flexential/compark-boulevard/denver-parker,22.5,294000.0
Denver_facility_31,datacenterhawk,QTS · Building 2,Xcel Energy,1160 N Gun Club Road,Aurora,,CO,United States,"137,362 SF","137,362 SF",,"60,000 kW",,,https://datacenterhawk.com/marketplace/providers/qts/1160-n-gun-club-road/building-2,60.0,137362.0
Denver_facility_33,datacenterhawk,Radius DC · 1500 Champa Data Center,Xcel Energy,1500 Champa Street,Denver,,CO,United States,"138,116 SF","138,116 SF",1985,"3,000 kW",,,https://datacenterhawk.com/marketplace/providers/radius-dc/1500-champa-street/1500-champa-data-center,3.0,138116.0
Denver_facility_39,datacenterhawk,Colorado Colo · 11100 W 8th Avenue,"Zayo, CenturyLink, Level 3 (Lumen Technologies)",11100 W 8th Avenue,Lakewood,,CO,United States,"104,218 SF","104,218 SF",1973,250 kW,,,https://datacenterhawk.com/marketplace/providers/colorado-colo/11100-w-8th-avenue/1035071,0.25,104218.0
Columbus_facility_5,datacenterhawk,Cologix · COL1,AEP Ohio,555 Scherers Court,Columbus,,OH,United States,"44,000 SF",,1988,4666.0,,,https://datacenterhawk.com/marketplace/providers/cologix/555-scherers-court/col1,4666.0,44000.0
Columbus_facility_6,datacenterhawk,Cologix · COL2,AEP Ohio,555 Scherers Court,Columbus,,OH,United States,"44,000 SF","44,000 SF",1988,"3,333 kW",,,https://datacenterhawk.com/marketplace/providers/cologix/555-scherers-court/col2,3.333,44000.0
Columbus_facility_21,datacenterhawk,QTS · New Albany 1 DC2,QTS,1225 Beech Road SW,New Albany,,OH,United States,,"72,000",,"72,000",,,https://datacenterhawk.com/marketplace/providers/qts/1225-beech-road-sw/new-albany-1-dc2,72.0,72000.0
Columbus_facility_35,datacenterhawk,Cologix · COL1,AEP Ohio,555 Scherers Court,Columbus,,OH,United States,"44,000 SF",,1988,4666.0,,,https://datacenterhawk.com/marketplace/providers/cologix/555-scherers-court/col1,4666.0,44000.0
Columbus_facility_36,datacenterhawk,Cologix · COL2,AEP Ohio,555 Scherers Court,Columbus,,OH,United States,"44,000 SF","44,000 SF",1988,"3,333 kW",,,https://datacenterhawk.com/marketplace/providers/cologix/555-scherers-court/col2,3.333,44000.0
Houston_facility_1,datacenterhawk,TRG Datacenters · Houston OneFeatured,TRG Datacenters,2626 Spring Cypress Road,Spring,,TX,United States,"120,000 SF","120,000 SF",2017,"2,250 kW",,,https://datacenterhawk.com/marketplace/providers/trg-datacenters/2626-spring-cypress-road/houston-one,2.25,120000.0
Houston_facility_5,datacenterhawk,DataBank · HOU3 - Westway Park,Centerpoint,11003 Corporate Centre Drive,Houston,,TX,United States,"640,000 SF",,2014,34500.0,,,https://datacenterhawk.com/marketplace/providers/databank/11003-corporate-centre-drive/hou3-westway-park,34.5,640000.0
Houston_facility_6,datacenterhawk,DataBank · HOU5 - Galleria,CyrusOne,4201 Southwest Freeway,Houston,,TX,United States,"112,000 SF",,1969,5000.0,,,https://datacenterhawk.com/marketplace/providers/databank/4201-southwest-freeway/hou5-galleria,5000.0,112000.0
Houston_facility_9,datacenterhawk,DataBank · Houston West 4,DataBank,Corporate Centre Drive,Houston,,TX,United States,,"36,000",2023,"36,000",,,https://datacenterhawk.com/marketplace/providers/databank/corporate-centre-drive/houston-west-4,36.0,36000.0
Houston_facility_19,datacenterhawk,LOGIX Fiber Networks · 1510 Primewest Parkway,EdgeConneX,1510 Primewest Parkway,Katy,,TX,United States,"93,400 SF","93,400 SF",1999,"1,200 kW",,,https://datacenterhawk.com/marketplace/providers/logix-fiber-networks/1510-primewest-parkway/135482,1.2,93400.0
Houston_facility_23,datacenterhawk,"Quasar Data Center · 1001 Texas Avenue, Suite 310",Quasar,"1001 Texas Avenue, Suite 310",Houston,,TX,United States,"120,000 SF",,1883,"13,700 KW",,"SSAE, Type II",https://datacenterhawk.com/marketplace/providers/quasar-data-center/1001-texas-avenue-suite-310/116426,13.7,120000.0
Houston_facility_27,datacenterhawk,Stream Data Centers · Houston I,Entergy,4001 Technology Forest BlvdThe Woodlands,Houston,,TX,United States,"74,901 SF","74,901 SF",2012,"2,400 kW",,,https://datacenterhawk.com/marketplace/providers/stream-data-centers/4001-technology-forest-blvd/houston-i,2.4,74901.0
Houston_facility_29,datacenterhawk,Sungard Availability Services · HOU-12175,CNP,12175 North Freeway,Houston,,TX,United States,"27,291 SF",,2000,"1,100 kW",,,https://datacenterhawk.com/marketplace/providers/sungard-availability-services/12175-north-freeway/hou-12175,1.1,27291.0
Houston_facility_34,datacenterhawk,DataBank · HOU3 - Westway Park,Centerpoint,11003 Corporate Centre Drive,Houston,,TX,United States,"640,000 SF",,2014,"34,500 kW",,,https://datacenterhawk.com/marketplace/providers/databank/11003-corporate-centre-drive/hou3-westway-park,34.5,640000.0
Houston_facility_35,datacenterhawk,DataBank · HOU5 - Galleria,CyrusOne,4201 Southwest Freeway,Houston,,TX,United States,"112,000 SF",,1969,5000.0,,,https://datacenterhawk.com/marketplace/providers/databank/4201-southwest-freeway/hou5-galleria,5000.0,112000.0
Houston_facility_38,datacenterhawk,DataBank · Houston West 4,DataBank,Corporate Centre Drive,Houston,,TX,United States,,"36,000",2023,"36,000",,,https://datacenterhawk.com/marketplace/providers/databank/corporate-centre-drive/houston-west-4,36.0,36000.0
Austin_facility_27,datacenterhawk,Switch · AUS05,Switch,300 Dell Way,Round Rock,,TX,United States,"183,605 SF","183,605 SF",,"25,000 kW",,,https://datacenterhawk.com/marketplace/providers/switch/300-dell-way/aus05,25.0,183605.0
Minneapolis_facility_3,datacenterhawk,"Centersquare · MSP1-A,B",Shakopee Public Utilities,4450 Dean Lakes Boulevard,Shakopee,,MN,United States,"55,000 SF","55,000 SF",2014,"3,600 kW",,,https://datacenterhawk.com/marketplace/providers/centersquare/4450-dean-lakes-boulevard/msp1-a-b,3.6,55000.0
Minneapolis_facility_7,datacenterhawk,Cologix · MIN2,Xcel Energy,511 11th Avenue South,Minneapolis,,MN,United States,"273,000 SF","273,000 SF",1982,500 kW,,,https://datacenterhawk.com/marketplace/providers/cologix/511-11th-avenue-south/min2,0.5,273000.0
Minneapolis_facility_8,datacenterhawk,Cologix · MIN3,Xcel Energy,511 11th Avenue South,Minneapolis,,MN,United States,"273,000 SF",,1982,1000.0,,,https://datacenterhawk.com/marketplace/providers/cologix/511-11th-avenue-south/min3,1000.0,273000.0
Minneapolis_facility_9,datacenterhawk,Cologix · MIN5,Xcel Energy,511 11th Avenue South,Minneapolis,,MN,United States,"273,000 SF","273,000 SF",1984,"1,500 kW",,,https://datacenterhawk.com/marketplace/providers/cologix/511-11th-avenue-south/min5,1.5,273000.0
Minneapolis_facility_10,datacenterhawk,Compass Datacenters · Shakopee I,Compass Data Centers,4450 Dean Lakes Boulevard,Shakopee,,MN,United States,"55,000 SF","55,000 SF",2014,"6,000 kW",,,https://datacenterhawk.com/marketplace/providers/compass-datacenters/4450-dean-lakes-boulevard/shakopee-i,6.0,55000.0
Minneapolis_facility_16,datacenterhawk,DataBank · Oxbow Creek Drive,DataBank,Oxbow Creek Drive,Brooklyn Park,,MN,United States,"170,000 SF","170,000 SF",,"21,000 kW",,,https://datacenterhawk.com/marketplace/providers/databank/oxbow-creek-drive/1049825,21.0,170000.0
Minneapolis_facility_27,datacenterhawk,Cologix · MIN2,Xcel Energy,511 11th Avenue South,Minneapolis,,MN,United States,"273,000 SF","273,000 SF",1982,500 kW,,,https://datacenterhawk.com/marketplace/providers/cologix/511-11th-avenue-south/min2,0.5,273000.0
Minneapolis_facility_28,datacenterhawk,Cologix · MIN3,Xcel Energy,511 11th Avenue South,Minneapolis,,MN,United States,"273,000 SF",,1982,1000.0,,,https://datacenterhawk.com/marketplace/providers/cologix/511-11th-avenue-south/min3,1000.0,273000.0
Minneapolis_facility_29,datacenterhawk,Cologix · MIN5,Xcel Energy,511 11th Avenue South,Minneapolis,,MN,United States,"273,000 SF","273,000 SF",1984,"1,500 kW",,,https://datacenterhawk.com/marketplace/providers/cologix/511-11th-avenue-south/min5,1.5,273000.0
Boston_facility_5,datacenterhawk,CoreSite · BO1,CoreSite,70 Inner Belt Road,Somerville,,MA,United States,"273,180 SF","273,180 SF",1968,"10,700 kW",,,https://datacenterhawk.com/marketplace/providers/coresite/70-inner-belt-road/bo1,10.7,273180.0
Boston_facility_7,datacenterhawk,Digital Realty · BOS16,Eversource,105 Cabot Street,Needham,,MA,United States,"133,000 SF","133,000 SF",2013,"3,600 kW",,,https://datacenterhawk.com/marketplace/providers/digital-realty/105-cabot-street/bos16,3.6,133000.0
Boston_facility_8,datacenterhawk,Digital Realty · BOS14,Digital Realty,128 First Avenue,Needham,,MA,United States,"314,000 SF","314,000 SF",2000,"11,700 kW",,,https://datacenterhawk.com/marketplace/providers/digital-realty/128-first-avenue/bos14,11.7,314000.0
Boston_facility_11,datacenterhawk,Equinix · BO2,Equinix,41 Alexander Road,Billerica,,MA,United States,"108,336 SF","108,336 SF",2001,"9,250 kW",,,https://datacenterhawk.com/marketplace/providers/equinix/41-alexander-road/bo2,9.25,108336.0
Boston_facility_15,datacenterhawk,Iron Mountain Data Centers · BOS-1,Massachusetts Electric Co.,171 Bearfoot Road,Northborough,,MA,United States,"167,958 SF","167,958 SF",2015,"1,200 kW",,,https://datacenterhawk.com/marketplace/providers/iron-mountain-data-centers/171-bearfoot-road/bos-1,1.2,167958.0
Boston_facility_20,datacenterhawk,TierPoint · AND,TierPoint,15 Shattuck Road,Andover,,MA,United States,"92,700 SF",,1984,2000.0,,,https://datacenterhawk.com/marketplace/providers/tierpoint/15-shattuck-road/and,2000.0,92700.0
Boston_facility_24,datacenterhawk,CoreSite · BO1,CoreSite,70 Inner Belt Road,Somerville,,MA,United States,"273,180 SF","273,180 SF",1968,"10,700 kW",,,https://datacenterhawk.com/marketplace/providers/coresite/70-inner-belt-road/bo1,10.7,273180.0
Boston_facility_26,datacenterhawk,Digital Realty · BOS16,Eversource,105 Cabot Street,Needham,,MA,United States,"133,000 SF","133,000 SF",2013,"3,600 kW",,,https://datacenterhawk.com/marketplace/providers/digital-realty/105-cabot-street/bos16,3.6,133000.0
Boston_facility_27,datacenterhawk,Digital Realty · BOS14,Digital Realty,128 First Avenue,Needham,,MA,United States,"314,000 SF","314,000 SF",2000,"11,700 kW",,,https://datacenterhawk.com/marketplace/providers/digital-realty/128-first-avenue/bos14,11.7,314000.0
Philadelphia_facility_1,datacenterhawk,1547 Realty · Building 1,PECO,800 Swedesford RoadEast Whiteland Township,Philadelphia,,PA,United States,"930,000 SF","930,000 SF",,"60,000 kW",,,https://datacenterhawk.com/marketplace/providers/1547-realty/800-swedesford-road/building-1,60.0,930000.0
Philadelphia_facility_2,datacenterhawk,1547 Realty · Building 2,PECO,800 Swedesford RoadEast Whiteland Township,Philadelphia,,PA,United States,"930,000 SF","930,000 SF",,"60,000 kW",,,https://datacenterhawk.com/marketplace/providers/1547-realty/800-swedesford-road/building-2,60.0,930000.0
Philadelphia_facility_5,datacenterhawk,ColoHouse · 2401 Locust Street,ColoHouse,2401 Locust Street,Philadelphia,,PA,United States,"48,000 SF","48,000 SF",,"1,500 kW",,,https://datacenterhawk.com/marketplace/providers/colohouse/2401-locust-street/1074373,1.5,48000.0
Philadelphia_facility_17,datacenterhawk,TierPoint · LVQ,TierPoint,3949 Schelden Circle,Bethlehem,,PA,United States,"27,000 SF","27,000 SF",,900 kW,,,https://datacenterhawk.com/marketplace/providers/tierpoint/3949-schelden-circle/lvq,0.9,27000.0
Philadelphia_facility_18,datacenterhawk,TierPoint · PHI,TierPoint,4775 League Island Boulevard,Philadelphia,,PA,United States,"25,700 SF","25,700 SF",,"1,170 kW",,,https://datacenterhawk.com/marketplace/providers/tierpoint/4775-league-island-boulevard/phi,1.17,25700.0
Philadelphia_facility_21,datacenterhawk,ColoHouse · 2401 Locust Street,ColoHouse,2401 Locust Street,Philadelphia,,PA,United States,"48,000 SF","48,000 SF",,"1,500 kW",,,https://datacenterhawk.com/marketplace/providers/colohouse/2401-locust-street/1074373,1.5,48000.0
Charlotte_facility_7,datacenterhawk,Flexential · Charlotte - North,Duke Energy,10105 David Taylor Drive,Charlotte,,NC,United States,"207,000 SF","207,000 SF",1985,"4,000 kW",,,https://datacenterhawk.com/marketplace/providers/flexential/10105-david-taylor-drive/charlotte-north,4.0,207000.0
Charlotte_facility_9,datacenterhawk,GIGA Data Centers · CLT-1,Duke Energy,1035 Mecklenburg Highway,Mooresville,,NC,United States,"165,800 SF","165,800 SF",1971,"3,000 kW",,,https://datacenterhawk.com/marketplace/providers/giga-data-centers/1035-mecklenburg-highway/clt-1,3.0,165800.0
Charlotte_facility_32,datacenterhawk,Flexential · Charlotte - North,Duke Energy,10105 David Taylor Drive,Charlotte,,NC,United States,"207,000 SF","207,000 SF",1985,"4,000 kW",,,https://datacenterhawk.com/marketplace/providers/flexential/10105-david-taylor-drive/charlotte-north,4.0,207000.0
Portland_facility_2,datacenterhawk,NTT Global Data Centers · HI1Featured,Portland General Electric,4050 NE Evergreen Road,Hillsboro,,OR,United States,"465,387 SF",,,"36,000 kW",,,https://datacenterhawk.com/marketplace/providers/ntt-global-data-centers/4050-ne-evergreen-road/hi1,36.0,465387.0
Portland_facility_5,datacenterhawk,Crane Data Centers · 3975 Heather Street,Crane Data Centers,3975 Heather Street,Forest Grove,,OR,United States,"180,000 SF",,,50000.0,,,https://datacenterhawk.com/marketplace/providers/crane-data-centers/3975-heather-street/1071643,50.0,180000.0
Portland_facility_6,datacenterhawk,Crane Data Centers · 3975 Heather Street,Crane Data Centers,3975 Heather Street,Forest Grove,,OR,United States,"363,000 SF",,2019,100 MW,Hyperscale,,https://datacenterhawk.com/marketplace/providers/crane-data-centers/3975-heather-street/1089420,100.0,363000.0
Portland_facility_17,datacenterhawk,Flexential · Portland - Hillsboro 1,Flexential,3935 NE Aloclek Place,Hillsboro,,OR,United States,"85,388 SF","85,388 SF",1999,5.3 MW,,,https://datacenterhawk.com/marketplace/providers/flexential/3935-ne-aloclek-place/portland-hillsboro-1,5.3,85388.0
Portland_facility_18,datacenterhawk,Flexential · Portland - Hillsboro 4,Portland General Electric,4915 NE Starr Boulevard,Hillsboro,,OR,United States,"138,000 SF","138,000 SF",2022,18 MW,,,https://datacenterhawk.com/marketplace/providers/flexential/4915-ne-starr-boulevard/portland-hillsboro-4,18.0,138000.0
Portland_facility_19,datacenterhawk,Flexential · Portland - Hillsboro 5,Flexential,4975 NE Starr Boulevard,Hillsboro,,OR,United States,"358,000 SF","358,000 SF",,"36,000 kW",,"SOC 2, SOC 3, SOC 1",https://datacenterhawk.com/marketplace/providers/flexential/4975-ne-starr-boulevard/portland-hillsboro-5,36.0,358000.0
Portland_facility_28,datacenterhawk,QTS · HI1,QTS,4951 NE Huffman Street,Hillsboro,,OR,United States,"158,000 SF","158,000 SF",2020,"17,500 kW",,,https://datacenterhawk.com/marketplace/providers/qts/4951-ne-huffman-street/hi1,17.5,158000.0
Portland_facility_42,datacenterhawk,Crane Data Centers · 3975 Heather Street,Crane Data Centers,3975 Heather Street,Forest Grove,,OR,United States,"180,000 SF",,,50000.0,,,https://datacenterhawk.com/marketplace/providers/crane-data-centers/3975-heather-street/1071643,50.0,180000.0
Portland_facility_43,datacenterhawk,Crane Data Centers · 3975 Heather Street,Crane Data Centers,3975 Heather Street,Forest Grove,,OR,United States,"363,000 SF",,2019,100 MW,Hyperscale,,https://datacenterhawk.com/marketplace/providers/crane-data-centers/3975-heather-street/1089420,100.0,363000.0
Kansas City_facility_4,datacenterhawk,DataBank · MCI1,Kansas City Power & Light,15721 College Boulevard,Lenexa,,KS,United States,"41,615 SF",,1986,1000.0,,,https://datacenterhawk.com/marketplace/providers/databank/15721-college-boulevard/mci1,1000.0,41615.0
Kansas City_facility_6,datacenterhawk,Edged Energy · MCI01-1,Evergy,3420 N Arlington Avenue,Kansas City,,MO,United States,"124,645 SF","124,645 SF",,"8,000 kW",,,https://datacenterhawk.com/marketplace/providers/edged-energy/3420-n-arlington-avenue/mci01-1,8.0,124645.0
Kansas City_facility_10,datacenterhawk,"LightEdge · 9050 NE Underground Drive, Pillar 312",Kansas City Power and Light (KCP&L),"9050 NE Underground Drive, Pillar 312",Kansas City,,MO,United States,"400,000 SF",,2014,"2,000 kW",,,https://datacenterhawk.com/marketplace/providers/lightedge/9050-ne-underground-drive-pillar-312/123114,2.0,400000.0
Kansas City_facility_18,datacenterhawk,DataBank · MCI1,Kansas City Power & Light,15721 College Boulevard,Lenexa,,KS,United States,"41,615 SF",,1986,1000.0,,,https://datacenterhawk.com/marketplace/providers/databank/15721-college-boulevard/mci1,1000.0,41615.0
Kansas City_facility_20,datacenterhawk,Edged Energy · MCI01-1,Evergy,3420 N Arlington Avenue,Kansas City,,MO,United States,"124,645 SF","124,645 SF",,"8,000 kW",,,https://datacenterhawk.com/marketplace/providers/edged-energy/3420-n-arlington-avenue/mci01-1,8.0,124645.0
Montreal_facility_4,datacenterhawk,Cologix · MTL5,Cologix,2351 Boulevard Alfred Nobel,Saint-Laurent,,QC,Canada,"5,000 SF","5,000 SF",1999,230 kW,,,https://datacenterhawk.com/marketplace/providers/cologix/2351-boulevard-alfred-nobel/mtl5,0.23,5000.0
Montreal_facility_5,datacenterhawk,Cologix · MTL9-H,Cologix,2525 Rue Canadien,Drummondville,,QC,Canada,"120,000 SF",,,7800.0,,,https://datacenterhawk.com/marketplace/providers/cologix/2525-rue-canadien/mtl9-h,7800.0,120000.0
Montreal_facility_9,datacenterhawk,Cologix · MTL1,Cologix,625 Boulevard René-Lévesque West,Montréal,,QC,Canada,"5,000 SF","5,000 SF",1972,441 kW,,,https://datacenterhawk.com/marketplace/providers/cologix/625-boulevard-ren%C3%A9-l%C3%A9vesque-west/mtl1,0.441,5000.0
Montreal_facility_10,datacenterhawk,Cologix · MTL4,Hydro-Quebec,7171 Rue Jean-Talon E,Anjou,,QC,Canada,"12,000 SF","12,000 SF",1985,"1,800 kW",,,https://datacenterhawk.com/marketplace/providers/cologix/7171-rue-jean-talon-e/mtl4,1.8,12000.0
Montreal_facility_11,datacenterhawk,Cologix · MTL8-H,Cologix,7350 Rue Frederick Banting,Montreal,,QC,Canada,"325,000 SF","325,000 SF",2020,"13,000 kW",,"SSAE-16, SOC 1, PCI",https://datacenterhawk.com/marketplace/providers/cologix/7350-rue-frederick-banting/mtl8-h,13.0,325000.0
Montreal_facility_12,datacenterhawk,Cologix · MTL11,Cologix,875 Rue Saint-Antoine Ouest,Montreal,,QC,Canada,"25,000 SF","25,000 SF",1967,"1,200 kW",,,https://datacenterhawk.com/marketplace/providers/cologix/875-rue-saint-antoine-ouest/mtl11,1.2,25000.0
Montreal_facility_15,datacenterhawk,Equinix · MT2,Equinix,3500 Rue F.-X.-Tessier,Vaudreuil-Dorion,,QC,Canada,"216,114 SF",,2016,"39,000 kW",,,https://datacenterhawk.com/marketplace/providers/equinix/3500-rue-f-x-tessier/mt2,39.0,216114.0
Montreal_facility_19,datacenterhawk,eStruxture · MLT-4,eStruxture,17500 Route Transcanadienne,Kirkland,,QC,Canada,"103,376 SF","103,376 SF",2015,"3,000 kW",,,https://datacenterhawk.com/marketplace/providers/estruxture/17500-route-transcanadienne/mlt-4,3.0,103376.0
Montreal_facility_20,datacenterhawk,eStruxture · MTL-2,eStruxture Data Centers,7001 Rue Saint-Jacques,Montreal,,QC,Canada,"187,000 SF","187,000 SF",1999,30MW,,,https://datacenterhawk.com/marketplace/providers/estruxture/7001-rue-saint-jacques/mtl-2,30.0,187000.0
Montreal_facility_21,datacenterhawk,eStruxture · MTL-1,Hydro Quebec,800 Rue du Square-Victoria,Montréal,,QC,Canada,"984,397 SF","25,000 square feet",1964,5MW,,,https://datacenterhawk.com/marketplace/providers/estruxture/800-rue-du-square-victoria/mtl-1,5.0,984397.0
Montreal_facility_27,datacenterhawk,Urbacon Data Centre Solutions · 544 Rue de L'inspecteur,Hydro Quebec,544 Rue de L'inspecteur,Montreal,,QC,Canada,"266,271 SF",,2017,"15,000 kW",,,https://datacenterhawk.com/marketplace/providers/urbacon-data-centre-solutions/544-rue-de-l-inspecteur/144625,15.0,266271.0
Montreal_facility_30,datacenterhawk,Vantage Data Centers · QC4B,Vantage Data Centers,2800 Trans-Canada Highway,Pointe-Claire,,QC,Canada,"125,000 SF","125,000 SF",,"35,000 kW",,"SOC 2, PCI, ISO",https://datacenterhawk.com/marketplace/providers/vantage-data-centers/2800-trans-canada-highway/qc4b,35.0,125000.0
Montreal_facility_31,datacenterhawk,Vantage Data Centers · QC4C,Vantage Data Centers,2800 Trans-Canada Highway,Pointe-Claire,,QC,Canada,"94,000 SF","94,000 SF",2022,"21,000 kW",,,https://datacenterhawk.com/marketplace/providers/vantage-data-centers/2800-trans-canada-highway/qc4c,21.0,94000.0
Montreal_facility_34,datacenterhawk,WhiteFiber · MTL1,Hydro Quebec,3195 Chemin Bedford,Montreal,,QC,Canada,"70,000 SF","70,000 SF",1969,"4,000 kW",,,https://datacenterhawk.com/marketplace/providers/bit-digital/3195-chemin-bedford/mtl1,4.0,70000.0
Montreal_facility_36,datacenterhawk,Cologix · MTL5,Cologix,2351 Boulevard Alfred Nobel,Saint-Laurent,,QC,Canada,"5,000 SF","5,000 SF",1999,230 kW,,,https://datacenterhawk.com/marketplace/providers/cologix/2351-boulevard-alfred-nobel/mtl5,0.23,5000.0
Montreal_facility_37,datacenterhawk,Cologix · MTL9-H,Cologix,2525 Rue Canadien,Drummondville,,QC,Canada,"120,000 SF",,,7800.0,,,https://datacenterhawk.com/marketplace/providers/cologix/2525-rue-canadien/mtl9-h,7800.0,120000.0
Montreal_facility_40,datacenterhawk,Cologix · MTL10-H,Cologix,530 Rue Beriault,Longueuil,,QC,Canada,"180,000 SF","180,000 SF",1977,"15,600 kW",,,https://datacenterhawk.com/marketplace/providers/cologix/530-rue-beriault/mtl10-h,15.6,180000.0
Montreal_facility_41,datacenterhawk,Cologix · MTL1,Cologix,625 Boulevard René-Lévesque West,Montréal,,QC,Canada,"5,000 SF","5,000 SF",1972,441 kW,,,https://datacenterhawk.com/marketplace/providers/cologix/625-boulevard-ren%C3%A9-l%C3%A9vesque-west/mtl1,0.441,5000.0
Richmond_facility_8,datacenterhawk,CleanArc Data Centers · VA-1-1,CleanArc Data Centers,Bull Church RoadRuther Glen,,,VA,United States,"490,400 SF","490,400 SF",,"135,000 kW",,,https://datacenterhawk.com/marketplace/providers/cleanarc-data-centers/bull-church-road/va-1-1,135.0,490400.0
Richmond_facility_12,datacenterhawk,Flexential · Richmond,Flexential,"8851 Park Central Drive, Suite B",Richmond,,VA,United States,"45,540 SF","45,540 SF",2000,3 MW,,,https://datacenterhawk.com/marketplace/providers/flexential/8851-park-central-drive-suite-b/richmond,3.0,45540.0
Richmond_facility_25,datacenterhawk,QTS · Richmond II DC1,QTS Data Centers,6030 Technology Boulevard,Sandston,,VA,United States,"308,453 SF",,2023,36000.0,,,https://datacenterhawk.com/marketplace/providers/qts/6030-technology-boulevard/richmond-ii-dc1,36.0,308453.0
Richmond_facility_30,datacenterhawk,QTS · RIC5 DC2,QTS,E Williamsburg Road,Sandston,,VA,United States,"500,430 SF","500,430 SF",,"60,000 kW",,,https://datacenterhawk.com/marketplace/providers/qts/e-williamsburg-road/ric5-dc2,60.0,500430.0
Richmond_facility_51,datacenterhawk,CleanArc Data Centers · VA-1-1,CleanArc Data Centers,Bull Church Road,Ruther Glen,,VA,United States,"490,400 SF","490,400 SF",,"135,000 kW",,,https://datacenterhawk.com/marketplace/providers/cleanarc-data-centers/bull-church-road/va-1-1,135.0,490400.0
Pittsburgh_facility_1,datacenterhawk,ark data centers · 161 Armstrong Drive,Involta,161 Armstrong Drive,Freeport,,PA,United States,"39,570 SF","39,570 SF",2017,"1,500 kW",,,https://datacenterhawk.com/marketplace/providers/involta/161-armstrong-drive/138577,1.5,39570.0
Pittsburgh_facility_4,datacenterhawk,DataBank · PIT3,DataBank,35 Summit Park Drive,Pittsburgh,,PA,United States,"90,000 SF","90,000 SF",,"12,000 kW",,,https://datacenterhawk.com/marketplace/providers/databank/35-summit-park-drive/pit3,12.0,90000.0
Pittsburgh_facility_14,datacenterhawk,DataBank · PIT3,DataBank,35 Summit Park Drive,Pittsburgh,,PA,United States,"90,000 SF","90,000 SF",,"12,000 kW",,,https://datacenterhawk.com/marketplace/providers/databank/35-summit-park-drive/pit3,12.0,90000.0
Omaha_facility_3,datacenterhawk,CyrusOne · OCB1,CyrusOne,4700 Gifford Road,Council Bluffs,,IA,United States,"217,000 SF","217,000 SF",2020,"3,000 kW",,,https://datacenterhawk.com/marketplace/providers/cyrusone/4700-gifford-road/ocb1,3.0,217000.0
Omaha_facility_6,datacenterhawk,LightEdge · 1148 American Parkway,LightEdge Solutions,1148 American Parkway,Papillion,,NE,United States,"22,000 SF","22,000 SF",2010,750 kW,,,https://datacenterhawk.com/marketplace/providers/lightedge/1148-american-parkway/150214,0.75,22000.0
Omaha_facility_9,datacenterhawk,TierPoint · MID,TierPoint,11425 South 84th Street,Papillion,,NE,United States,"69,170 SF","69,170 SF",2009,"2,000 kW",,,https://datacenterhawk.com/marketplace/providers/tierpoint/11425-south-84th-street/mid,2.0,69170.0
Omaha_facility_12,datacenterhawk,LightEdge · 1148 American Parkway,LightEdge Solutions,1148 American Parkway,Papillion,,NE,United States,"22,000 SF","22,000 SF",2010,750 kW,,,https://datacenterhawk.com/marketplace/providers/lightedge/1148-american-parkway/150214,0.75,22000.0
Omaha_facility_15,datacenterhawk,TierPoint · MID,TierPoint,11425 South 84th Street,Papillion,,NE,United States,"69,170 SF","69,170 SF",2009,"2,000 kW",,,https://datacenterhawk.com/marketplace/providers/tierpoint/11425-south-84th-street/mid,2.0,69170.0
San Antonio_facility_5,datacenterhawk,CloudHQ · SAT-4,CPS Energy,15355 Lambda Drive,San Antonio,,TX,United States,,"84,000",,"84,000",,,https://datacenterhawk.com/marketplace/providers/cloudhq/15355-lambda-drive/sat-4,84.0,84000.0
San Antonio_facility_16,datacenterhawk,H5 Data Centers · 100 Taylor Street,CPS Energy,100 Taylor Street,San Antonio,,TX,United States,"85,000 SF","85,000 SF",1914,"4,500 kW",,,https://datacenterhawk.com/marketplace/providers/h5-data-centers/100-taylor-street/1035105,4.5,85000.0
San Antonio_facility_21,datacenterhawk,Stream Data Centers · San Antonio III,CPS Energy,11203 Military Drive W #1,San Antonio,,TX,United States,"300,000 SF","300,000 SF",,"160,000 kW",,,https://datacenterhawk.com/marketplace/providers/stream-data-centers/11203-military-drive-w-1/san-antonio-iii,160.0,300000.0
San Antonio_facility_25,datacenterhawk,Stream Data Centers · San Antonio VII,CPS Energy,11203 Military Drive W #5,San Antonio,,TX,United States,"300,000 SF","300,000 SF",,"40,000 kW",,,https://datacenterhawk.com/marketplace/providers/stream-data-centers/11203-military-drive-w-5/san-antonio-vii,40.0,300000.0
San Antonio_facility_30,datacenterhawk,CloudHQ · SAT-4,CPS Energy,15355 Lambda Drive,San Antonio,,TX,United States,,"84,000",,"84,000",,,https://datacenterhawk.com/marketplace/providers/cloudhq/15355-lambda-drive/sat-4,84.0,84000.0
Salt Lake City_facility_10,datacenterhawk,DataBank · SLC4,DataBank,14864 Pony Express RoadBluffdale,Bluffdale,,UT,United States,"40,000 SF",,2018,4500.0,,,https://datacenterhawk.com/marketplace/providers/databank/14864-pony-express-road/slc4,4500.0,40000.0
Salt Lake City_facility_19,datacenterhawk,Flexential · Salt Lake City - Fair Park,Flexential,118 South 1000 West,Salt Lake City,,UT,United States,"22,539 SF","22,539 SF",1996,500 kW,,,https://datacenterhawk.com/marketplace/providers/flexential/118-south-1000-west/salt-lake-city-fair-park,0.5,22539.0
Detroit_facility_5,datacenterhawk,EdgeConneX · DET01,EdgeConneX,"21005 Lahser Road, Bldg 4",Southfield,,MI,United States,"40,800 SF","40,800 SF",2014,"1,000 kW",,,https://datacenterhawk.com/marketplace/providers/edgeconnex/21005-lahser-road-bldg-4/det01,1.0,40800.0
Detroit_facility_12,datacenterhawk,US Signal · 9275 Haggerty Road,US Signal,9275 Haggerty Road,Van Buren Township,,MI,United States,"200,000 SF","200,000 SF",2020,"2,500 kW",,,https://datacenterhawk.com/marketplace/providers/us-signal/9275-haggerty-road/1035253,2.5,200000.0
Detroit_facility_14,datacenterhawk,EdgeConneX · DET01,EdgeConneX,"21005 Lahser Road, Bldg 4",Southfield,,MI,United States,"40,800 SF","40,800 SF",2014,"1,000 kW",,,https://datacenterhawk.com/marketplace/providers/edgeconnex/21005-lahser-road-bldg-4/det01,1.0,40800.0
Cleveland_facility_8,datacenterhawk,H5 Data Centers · CTC,The Illuminating Company,1625 Rockwell Avenue,Cleveland,,OH,United States,"351,000 SF",,1920,5000.0,,,https://datacenterhawk.com/marketplace/providers/h5-data-centers/1625-rockwell-avenue/ctc,5000.0,351000.0
Cleveland_facility_15,datacenterhawk,H5 Data Centers · CTC,The Illuminating Company,1625 Rockwell Avenue,Cleveland,,OH,United States,"351,000 SF",,1920,5000.0,,,https://datacenterhawk.com/marketplace/providers/h5-data-centers/1625-rockwell-avenue/ctc,5000.0,351000.0
Reno_facility_2,datacenterhawk,EdgeCore · RN01,NV Energy,3000 USA Parkway,Sparks,,NV,United States,"750,000 SF","750,000 SF",,"108,000 kW",,,https://datacenterhawk.com/marketplace/providers/edgecore/3000-usa-parkway/rn01,108.0,750000.0
Reno_facility_5,datacenterhawk,PowerHouse Data Centers · Powerhouse Reno,PowerHouse,600 Britain Drive,Sparks,,NV,United States,"900,000 SF","900,000 SF",2025,65 MW,,,https://datacenterhawk.com/marketplace/providers/powerhouse-data-centers/600-britain-drive/powerhouse-reno,65.0,900000.0
Reno_facility_6,datacenterhawk,Switch · THE CITADEL/TAHOE RENO 1,Switch Solar Stations,1 Superloop Circle,Sparks,,NV,United States,"1,363,451 SF",,2016,850 MW,Hyperscale,,https://datacenterhawk.com/marketplace/providers/switch/1-superloop-circle/the-citadel-tahoe-reno-1,850.0,1363451.0
Reno_facility_8,datacenterhawk,Switch · TAHOE RENO 3,Switch,1 Superloop Circle,Sparks,,NV,United States,"935,064 SF","935,064 SF",,850 MW,Hyperscale,Tier 5® Platinum,https://datacenterhawk.com/marketplace/providers/switch/1-superloop-circle/tahoe-reno-3,850.0,935064.0
Reno_facility_9,datacenterhawk,Switch · TAHOE RENO 5,Switch,1 Superloop Circle,Sparks,,NV,United States,"935,064 SF","935,064 SF",,850 MW,Hyperscale,Tier 5® Platinum,https://datacenterhawk.com/marketplace/providers/switch/1-superloop-circle/tahoe-reno-5,850.0,935064.0
Reno_facility_11,datacenterhawk,Switch · TAHOE RENO 4,Switch,Address TBDSparks,,,NV,United States,"935,064 SF","935,064 SF",,850 MW,Hyperscale,,https://datacenterhawk.com/marketplace/providers/switch/address-tbd/tahoe-reno-4,850.0,935064.0
Reno_facility_12,datacenterhawk,Switch · TAHOE RENO 6,Switch,Address TBDSparks,Sparks,,NV,United States,"935,064 SF","935,064 SF",,850 MW,Hyperscale,,https://datacenterhawk.com/marketplace/providers/switch/address-tbd/tahoe-reno-6,850.0,935064.0
Reno_facility_13,datacenterhawk,Switch · TAHOE RENO 8,Switch,Address TBDSparks,,,NV,United States,"610,974 SF","610,974 SF",,850 MW,Hyperscale,,https://datacenterhawk.com/marketplace/providers/switch/address-tbd/tahoe-reno-8,850.0,610974.0
Reno_facility_22,datacenterhawk,Novva · Tahoe Reno,NV Energy,3399 Peru Drive,McCarran,,NV,United States,,"60,000",,"60,000",,"SOC 2, PCI, SOC 1",https://datacenterhawk.com/marketplace/providers/novva/3399-peru-drive/tahoe-reno,60.0,60000.0
Reno_facility_23,datacenterhawk,PowerHouse Data Centers · Powerhouse Reno,PowerHouse,600 Britain Drive,Sparks,,NV,United States,"900,000 SF","900,000 SF",2025,65 MW,,,https://datacenterhawk.com/marketplace/providers/powerhouse-data-centers/600-britain-drive/powerhouse-reno,65.0,900000.0
Reno_facility_24,datacenterhawk,Switch · THE CITADEL/TAHOE RENO 1,Switch Solar Stations,1 Superloop Circle,Sparks,,NV,United States,"1,363,451 SF","1,363,451 SF",2016,850 MW,Hyperscale,,https://datacenterhawk.com/marketplace/providers/switch/1-superloop-circle/the-citadel-tahoe-reno-1,850.0,1363451.0
Reno_facility_25,datacenterhawk,Switch · TAHOE RENO 2,Switch,1 Superloop Circle,Sparks,,NV,United States,"610,974 SF","610,974 SF",2023,850 MW,Hyperscale,,https://datacenterhawk.com/marketplace/providers/switch/1-superloop-circle/tahoe-reno-2,850.0,610974.0
Reno_facility_26,datacenterhawk,Switch · TAHOE RENO 3,Switch,1 Superloop Circle,Sparks,,NV,United States,"935,064 SF","935,064 SF",,850 MW,Hyperscale,Tier 5® Platinum,https://datacenterhawk.com/marketplace/providers/switch/1-superloop-circle/tahoe-reno-3,850.0,935064.0
Reno_facility_27,datacenterhawk,Switch · TAHOE RENO 5,Switch,1 Superloop Circle,Sparks,,NV,United States,"935,064 SF","935,064",,850 MW,Hyperscale,Tier 5® Platinum,https://datacenterhawk.com/marketplace/providers/switch/1-superloop-circle/tahoe-reno-5,850.0,935064.0
Nashville_facility_8,datacenterhawk,Flexential · Nashville - Franklin,Flexential,4600 Carothers Parkway,Franklin,,TN,United States,"80,726 SF","80,726 SF",2016,"3,000 kW",,,https://datacenterhawk.com/marketplace/providers/flexential/4600-carothers-parkway/nashville-franklin,3.0,80726.0
Nashville_facility_11,datacenterhawk,TierPoint · NSH,Middle Tennessee Electric Membership Corp.,311 Eddy Lane,Franklin,,TN,United States,"53,000 SF",,2013,2400.0,,,https://datacenterhawk.com/marketplace/providers/tierpoint/311-eddy-lane/nsh,2400.0,53000.0
Nashville_facility_16,datacenterhawk,Flexential · Nashville - Franklin,Flexential,4600 Carothers Parkway,Franklin,,TN,United States,"80,726 SF","80,726 SF",2016,"3,000 kW",,,https://datacenterhawk.com/marketplace/providers/flexential/4600-carothers-parkway/nashville-franklin,3.0,80726.0
St. Louis_facility_4,datacenterhawk,H5 Data Centers · 710 N Tucker Boulevard,,710 N Tucker Boulevard,St. Louis,,MO,United States,,"36,000 SF",2000,7.24,,,https://datacenterhawk.com/marketplace/providers/h5-data-centers/710-n-tucker-boulevard/116404,7.24,36000.0
St. Louis_facility_10,datacenterhawk,TierPoint · SLL,TierPoint,2300 Locust Street,St. Louis,,MO,United States,"135,800 SF","135,800 SF",1916,"10,000 kW",,,https://datacenterhawk.com/marketplace/providers/tierpoint/2300-locust-street/sll,10.0,135800.0
St. Louis_facility_11,datacenterhawk,TierPoint · SLM,TierPoint,2315 Millpark Drive,Maryland Heights,,MO,United States,"23,000 SF","23,000 SF",2022,"2,175 kW",,,https://datacenterhawk.com/marketplace/providers/tierpoint/2315-millpark-drive/slm,2.175,23000.0
Calgary_facility_6,datacenterhawk,eStruxture · CAL-1,Enmax,7007 54 Street SE,Calgary,,AB,Canada,"65,000 SF","65,000 SF",2009,30kW per cabinet,High-density deployments,"SSAE16, ISAE 3402, SOC 1 Type II, SOC 2 Type II, SOC 3, PCI DSS, HIPAA, Tier III Certified",https://datacenterhawk.com/marketplace/providers/estruxture/7007-54-street-se/cal-1,0.03,65000.0
Calgary_facility_14,datacenterhawk,eStruxture · CAL-1,Enmax,7007 54 Street SE,Calgary,,AB,Canada,"65,000 SF","65,000 SF",2009,30kW per cabinet,High-density,"SSAE16, ISAE 3402, SOC 1 Type II, SOC 2 Type II, SOC 3, PCI DSS, HIPAA, Tier III Certified",https://datacenterhawk.com/marketplace/providers/estruxture/7007-54-street-se/cal-1,0.03,65000.0
Raleigh-Durham_facility_2,datacenterhawk,CyrusOne · DUR1,Duke Energy,2223 NE Creek Parkway,Durham,,NC,United States,"420,000 SF","420,000 SF",2013,"34,500 kW",,,https://datacenterhawk.com/marketplace/providers/cyrusone/2223-ne-creek-parkway/dur1,34.5,420000.0
Tampa_facility_2,datacenterhawk,365 Data Centers · TA1,365 Data Centers,"655 N Franklin Street, Suite 1000",Tampa,,FL,United States,"212,000 SF","212,000 SF",1957,910 kW,,,https://datacenterhawk.com/marketplace/providers/365-data-centers/655-n-franklin-street-suite-1000/ta1,0.91,212000.0
Tampa_facility_7,datacenterhawk,Hivelocity · TPA 1,Hivelocity,"8010 Woodland Center Boulevard, Suite 700",Tampa,,FL,United States,"89,758 SF",,1990,1500.0,,,https://datacenterhawk.com/marketplace/providers/hivelocity/8010-woodland-center-boulevard-suite-700/tpa-1,1500.0,89758.0
Tampa_facility_12,datacenterhawk,Hivelocity · TPA 1,Hivelocity,"8010 Woodland Center Boulevard, Suite 700",Tampa,,FL,United States,"89,758 SF",,1990,1500.0,,,https://datacenterhawk.com/marketplace/providers/hivelocity/8010-woodland-center-boulevard-suite-700/tpa-1,1500.0,89758.0
Las Vegas_facility_7,datacenterhawk,Switch · LAS VEGAS 8,Switch Solar Stations,5225 W Capovilla Avenue,Las Vegas,,NV,United States,"436,248 SF",,2013,"27,500 kW",,,https://datacenterhawk.com/marketplace/providers/switch/5225-w-capovilla-avenue/las-vegas-8,27.5,436248.0
Las Vegas_facility_12,datacenterhawk,Switch · LAS VEGAS 10,Switch,7375 Lindell Road,Las Vegas,,NV,United States,"343,436 SF","343,436 SF",2017,"25,800 kW",,,https://datacenterhawk.com/marketplace/providers/switch/7375-lindell-road/las-vegas-10,25.8,343436.0
Las Vegas_facility_17,datacenterhawk,UnitedLayer · Lone Mountain,UnitedLayer,7135 South Decatur Boulevard,Las Vegas,,NV,United States,,"11,000 sqft",2008,1.44 MW,,,https://datacenterhawk.com/marketplace/providers/unitedlayer/7135-south-decatur-boulevard/lone-mountain,1.44,11000.0
Las Vegas_facility_21,datacenterhawk,Switch · LAS VEGAS 8,Switch Solar Stations,5225 W Capovilla Avenue,Las Vegas,,NV,United States,"436,248 SF",,2013,"27,500 kW",,,https://datacenterhawk.com/marketplace/providers/switch/5225-w-capovilla-avenue/las-vegas-8,27.5,436248.0
Baltimore_facility_7,datacenterhawk,TierPoint · BWI,TierPoint,813 Pinnacle Drive,Linthicum Heights,,MD,United States,"34,560 SF","34,560 SF",2018,"1,000 kW",,,https://datacenterhawk.com/marketplace/providers/tierpoint/813-pinnacle-drive/bwi,1.0,34560.0
Baltimore_facility_13,datacenterhawk,TierPoint · BWI,TierPoint,813 Pinnacle Drive,Linthicum Heights,,MD,United States,"34,560 SF",,2018,"1,000 kW",,,https://datacenterhawk.com/marketplace/providers/tierpoint/813-pinnacle-drive/bwi,1.0,34560.0
Indianapolis_facility_2,datacenterhawk,DataBank · IND1,DataBank,731 W Henry Street,Indianapolis,,IN,United States,"54,000 SF","54,000 SF",1920,"1,100 kW",,,https://datacenterhawk.com/marketplace/providers/databank/731-w-henry-street/ind1,1.1,54000.0
Indianapolis_facility_7,datacenterhawk,Otava · IN1,Carter Validus,505 W Merrill Street,Indianapolis,,IN,United States,"43,724 SF",,2000,3000.0,,,https://datacenterhawk.com/marketplace/providers/otava/505-w-merrill-street/in1,3000.0,43724.0
Indianapolis_facility_16,datacenterhawk,Otava · IN1,Carter Validus,505 W Merrill Street,Indianapolis,,IN,United States,"43,724 SF",,2000,3000.0,,,https://datacenterhawk.com/marketplace/providers/otava/505-w-merrill-street/in1,3000.0,43724.0
Memphis_facility_4,datacenterhawk,Expedient · Germantown,Expedient,3180 Players Lane,Memphis,,TN,United States,"35,000 SF","35,000 SF",1991,750 kW,,,https://datacenterhawk.com/marketplace/providers/expedient/3180-players-lane/germantown,0.75,35000.0
Memphis_facility_6,datacenterhawk,Expedient · Germantown,Expedient,3180 Players Lane,Memphis,,TN,United States,"35,000 SF","35,000 SF",1991,750 kW,,,https://datacenterhawk.com/marketplace/providers/expedient/3180-players-lane/germantown,0.75,35000.0
Oklahoma City_facility_5,datacenterhawk,TierPoint · OKC,TierPoint,4121 Perimeter Center Place,Oklahoma City,,OK,United States,"22,455 SF",,1982,1460.0,,,https://datacenterhawk.com/marketplace/providers/tierpoint/4121-perimeter-center-place/okc,1460.0,22455.0
Oklahoma City_facility_6,datacenterhawk,Tonaquint · 4442 Newcastle Road,Tonaquint,4442 Newcastle Road,Oklahoma City,,OK,United States,"64,942 SF","64,942 SF",,"5,000 kW",,,https://datacenterhawk.com/marketplace/providers/tonaquint/4442-newcastle-road/1093078,5.0,64942.0
Oklahoma City_facility_8,datacenterhawk,TierPoint · OKC,TierPoint,4121 Perimeter Center Place,Oklahoma City,,OK,United States,"22,455 SF",,1982,1460.0,,,https://datacenterhawk.com/marketplace/providers/tierpoint/4121-perimeter-center-place/okc,1460.0,22455.0
Oklahoma City_facility_9,datacenterhawk,Tonaquint · 4442 Newcastle Road,Tonaquint,4442 Newcastle Road,Oklahoma City,,OK,United States,"64,942 SF","64,942 SF",,"5,000 kW",,,https://datacenterhawk.com/marketplace/providers/tonaquint/4442-newcastle-road/1093078,5.0,64942.0
Albuquerque_facility_2,datacenterhawk,"Centersquare · ABQ1-A,B",Public Service Company of New Mexico,400 Tijeras Avenue NW,Albuquerque,,NM,United States,"421,290 SF","421,290 SF",1981,"1,868 kW",,,https://datacenterhawk.com/marketplace/providers/centersquare/400-tijeras-avenue-nw/abq1-a-b,1.868,421290.0
Quincy_facility_4,datacenterhawk,H5 Data Centers · Quincy I,Grant County PUD,1711 M St NE,Quincy,,WA,United States,"231,280 SF",,2008,"25,500 kW",,,https://datacenterhawk.com/marketplace/providers/h5-data-centers/1711-m-st-ne/quincy-i,25.5,231280.0
Quincy_facility_6,datacenterhawk,Sabey Data Centers · SDC Quincy Building B,Grant County PV,2200 M Street NE,Quincy,,WA,United States,"189,000 SF","189,000 SF",2009,"10,800 kW",,,https://datacenterhawk.com/marketplace/providers/sabey-data-centers/2200-m-street-ne/sdc-quincy-building-b,10.8,189000.0
Quincy_facility_17,datacenterhawk,Vantage Data Centers · WA13,Grant County PUD,2117 NE M Street,Quincy,,WA,United States,"512,500 SF","512,500 SF",2023,"12,000 kW",,,https://datacenterhawk.com/marketplace/providers/vantage-data-centers/2117-ne-m-street/wa13,12.0,512500.0
Quincy_facility_19,datacenterhawk,H5 Data Centers · Quincy I,Grant County PUD,1711 M St NE,Quincy,,WA,United States,"231,280 SF",,2008,"25,500 kW",,,https://datacenterhawk.com/marketplace/providers/h5-data-centers/1711-m-st-ne/quincy-i,25.5,231280.0
Quincy_facility_21,datacenterhawk,Sabey Data Centers · SDC Quincy Building B,Grant County PV,2200 M Street NE,Quincy,,WA,United States,"189,000 SF","189,000 SF",2009,"10,800 kW",,,https://datacenterhawk.com/marketplace/providers/sabey-data-centers/2200-m-street-ne/sdc-quincy-building-b,10.8,189000.0
San Diego_facility_4,datacenterhawk,LightEdge · FADC1,SDG&E,8913 Complex Drive,San Diego,,CA,United States,"15,603 SF","15,603 SF",1971,780 kW,,,https://datacenterhawk.com/marketplace/providers/lightedge/8913-complex-drive/fadc1,0.78,15603.0
San Diego_facility_5,datacenterhawk,LightEdge · FADC2,SDG&E,8939 Complex Drive,San Diego,,CA,United States,"42,998 SF","42,998 SF",1973,303 kW,,,https://datacenterhawk.com/marketplace/providers/lightedge/8939-complex-drive/fadc2,0.303,42998.0
San Diego_facility_11,datacenterhawk,LightEdge · FADC1,SDG&E,8913 Complex Drive,San Diego,,CA,United States,"15,603 SF","15,603 SF",1971,780 kW,,,https://datacenterhawk.com/marketplace/providers/lightedge/8913-complex-drive/fadc1,0.78,15603.0
San Diego_facility_12,datacenterhawk,LightEdge · FADC2,SDG&E,8939 Complex Drive,San Diego,,CA,United States,"42,998 SF","42,998 SF",1973,303 kW,,,https://datacenterhawk.com/marketplace/providers/lightedge/8939-complex-drive/fadc2,0.303,42998.0
Jacksonville_facility_1,datacenterhawk,Cologix · JAX1,JEA,421 West Church Street,Jacksonville,,FL,United States,"277,334 SF","277,334 SF",1960,"1,000 kW",,,https://datacenterhawk.com/marketplace/providers/cologix/421-west-church-street/jax1,1.0,277334.0
Des Moines_facility_7,datacenterhawk,LightEdge · 1435 Northridge Circle,LightEdge,1435 Northridge Circle,Altoona,,IA,United States,"30,000 SF","30,000 SF",2006,"2,000 kW",,,https://datacenterhawk.com/marketplace/providers/lightedge/1435-northridge-circle/123106,2.0,30000.0
Des Moines_facility_8,datacenterhawk,OneNeck IT Solutions · 390 N Alices Road,MidAmerican Energy,390 N Alices Road,Waukee,,IA,United States,"20,000 SF","20,000 SF",2009,"1,600 kW",,,https://datacenterhawk.com/marketplace/providers/oneneck-it-solutions/390-n-alices-road/104071,1.6,20000.0
Des Moines_facility_12,datacenterhawk,LightEdge · 1435 Northridge Circle,LightEdge,1435 Northridge Circle,Altoona,,IA,United States,"30,000 SF","30,000 SF",2006,"2,000 kW",,,https://datacenterhawk.com/marketplace/providers/lightedge/1435-northridge-circle/123106,2.0,30000.0
Des Moines_facility_13,datacenterhawk,OneNeck IT Solutions · 390 N Alices Road,MidAmerican Energy,390 N Alices Road,Waukee,,IA,United States,"20,000 SF","20,000 SF",2009,"1,600 kW",,,https://datacenterhawk.com/marketplace/providers/oneneck-it-solutions/390-n-alices-road/104071,1.6,20000.0
Virginia Beach_facility_2,datacenterhawk,Globalinx · 1632 Corporate Landing Parkway,Dominion Virginia Power,1632 Corporate Landing Parkway,Virginia Beach,,VA,United States,"10,750 SF",,1996,540.0,,,https://datacenterhawk.com/marketplace/providers/globalinx/1632-corporate-landing-parkway/145606,540.0,10750.0
Virginia Beach_facility_3,datacenterhawk,PointOne Development Corp. · NAP of Virginia Beach,Dominion Energy,1893 Corporate Landing Pkwy,Virginia Beach,,VA,United States,"70,530 SF","70,530 SF",2022,"12,000 kW",,"ISO, SOC 2, SOC 1",https://datacenterhawk.com/marketplace/providers/pointone-development-corp/1893-corporate-landing-pkwy/nap-of-virginia-beach,12.0,70530.0
Virginia Beach_facility_4,datacenterhawk,Telefónica · 1900 Corporate Landing Pkwy,Telefónica,1900 Corporate Landing Pkwy,Virginia Beach,,VA,United States,"21,239 SF",,2017,1462.0,,,https://datacenterhawk.com/marketplace/providers/telef%C3%B3nica/1900-corporate-landing-pkwy/143707,1462.0,21239.0
Virginia Beach_facility_5,datacenterhawk,Telefónica · 1900 Corporate Landing Pkwy,Telefónica,1900 Corporate Landing Pkwy,Virginia Beach,,VA,United States,"21,239 SF",,2017,1462.0,,,https://datacenterhawk.com/marketplace/providers/telef%C3%B3nica/1900-corporate-landing-pkwy/143707,1462.0,21239.0
Cincinnati_facility_6,datacenterhawk,CyrusOne · CIN6,CyrusOne,7200 Industrial Road,Florence,,KY,United States,"143,000 SF","143,000 SF",1998,"9,000 kW",,,https://datacenterhawk.com/marketplace/providers/cyrusone/7200-industrial-road/cin6,9.0,143000.0
Cincinnati_facility_9,datacenterhawk,DartPoints · 4270 Ivy Pointe Blvd.,DartPoints,4270 Ivy Pointe Blvd.,Cincinnati,,OH,United States,"2,887 SF","2,887 SF",2008,166 kW,,,https://datacenterhawk.com/marketplace/providers/dartpoints/4270-ivy-pointe-blvd/1031833,0.166,2887.0
Cincinnati_facility_10,datacenterhawk,Flexential · Cincinnati,Flexential,5307 Muhlhauser Road,West Chester,,OH,United States,"43,551 SF",,2007,3400.0,,,https://datacenterhawk.com/marketplace/providers/flexential/5307-muhlhauser-road/cincinnati,3400.0,43551.0
Cincinnati_facility_11,datacenterhawk,H5 Data Centers · 360 Gest Street,Duke Energy,360 Gest Street,Cincinnati,,OH,United States,"79,825 SF","79,825 SF",1988,"3,991 kW",,,https://datacenterhawk.com/marketplace/providers/h5-data-centers/360-gest-street/143613,3.991,79825.0
Cincinnati_facility_15,datacenterhawk,CyrusOne · CIN6,CyrusOne,7200 Industrial Road,Florence,,KY,United States,"143,000 SF","143,000 SF",1998,"9,000 kW",,,https://datacenterhawk.com/marketplace/providers/cyrusone/7200-industrial-road/cin6,9.0,143000.0
Cincinnati_facility_18,datacenterhawk,DartPoints · 4270 Ivy Pointe Blvd.,DartPoints,4270 Ivy Pointe Blvd.,Cincinnati,,OH,United States,"2,887 SF","2,887 SF",2008,166 kW,,,https://datacenterhawk.com/marketplace/providers/dartpoints/4270-ivy-pointe-blvd/1031833,0.166,2887.0
Colorado Springs_facility_5,datacenterhawk,T5 Data Centers · T5@Colorado Springs DC 2,Colorado Springs Utilities,3819 Janitell Road,Colorado Springs,,CO,United States,"65,000 SF","65,000 SF",2021,"6,800 kW",,"FISMAS, ISO, NIST",https://datacenterhawk.com/marketplace/providers/t5-data-centers/3819-janitell-road/t5-colorado-springs-dc-2,6.8,65000.0
Colorado Springs_facility_6,datacenterhawk,T5 Data Centers · T5@Colorado Springs,Colorado Springs Utilities,Janitell RoadColorado Springs,Colorado Springs,,CO,United States,"912,000 SF","912,000 SF",,"81,600 kW",,"SOC 1, PCI, SSAE-16",https://datacenterhawk.com/marketplace/providers/t5-data-centers/janitell-road/t5-colorado-springs,81.6,912000.0
Colorado Springs_facility_8,datacenterhawk,T5 Data Centers · T5@Colorado Springs DC 2,Colorado Springs Utilities,3819 Janitell Road,Colorado Springs,,CO,United States,"65,000 SF","65,000 SF",2021,"6,800 kW",,"FISMAS, ISO, NIST",https://datacenterhawk.com/marketplace/providers/t5-data-centers/3819-janitell-road/t5-colorado-springs-dc-2,6.8,65000.0
Colorado Springs_facility_9,datacenterhawk,T5 Data Centers · T5@Colorado Springs,Colorado Springs Utilities,Janitell Road,Colorado Springs,,CO,United States,"912,000 SF","912,000 SF",,"81,600 kW",,"SOC 1, PCI, SSAE-16",https://datacenterhawk.com/marketplace/providers/t5-data-centers/janitell-road/t5-colorado-springs,81.6,912000.0
Tulsa_facility_1,datacenterhawk,Compass Datacenters · Tulsa I,TierPoint/Compass,12151 E State Farm Boulevard S,Tulsa,,OK,United States,"60,000 SF","60,000 SF",2017,"2,000 kW",,,https://datacenterhawk.com/marketplace/providers/compass-datacenters/12151-e-state-farm-boulevard-s/tulsa-i,2.0,60000.0
Tulsa_facility_3,datacenterhawk,TierPoint · TL2,TierPoint/Compass,12151 E State Farm Boulevard,Tulsa,,OK,United States,"60,000 SF","60,000 SF",2018,"1,600 kW",,,https://datacenterhawk.com/marketplace/providers/tierpoint/12151-e-state-farm-boulevard/tl2,1.6,60000.0
Louisville_facility_2,datacenterhawk,Flexential · Louisville - East,Flexential,2101 Nelson Miller Parkway,Louisville,,KY,United States,"33,588 SF","33,588 SF",1982,"1,458 kW",,,https://datacenterhawk.com/marketplace/providers/flexential/2101-nelson-miller-parkway/louisville-east,1.458,33588.0
Orlando_facility_1,datacenterhawk,"Atlantic.Net · 440 West Kennedy Boulevard, Suite 3",Eaton,"440 West Kennedy Boulevard, Suite 3",Orlando,,FL,United States,"116,742 SF",,1985,2500.0,,,https://datacenterhawk.com/marketplace/providers/atlantic-net/440-west-kennedy-boulevard-suite-3/110688,2500.0,116742.0
Grand Rapids_facility_2,datacenterhawk,Switch · GRAND RAPIDS 2,Switch,6100 E Paris Ave S,Grand Rapids,,MI,United States,"471,248 SF",,,110 MW,Hyperscale,Tier 5® Platinum,https://datacenterhawk.com/marketplace/providers/switch/6100-e-paris-ave-s/grand-rapids-2,110.0,471248.0
Grand Rapids_facility_3,datacenterhawk,Switch · PYRAMID Data Center,Consumers Energy,6100 E Paris Ave SE,Grand Rapids,,MI,United States,"660,000 SF","660,000 SF",1989,110 MW,Hyperscale,Tier 5® Platinum,https://datacenterhawk.com/marketplace/providers/switch/6100-e-paris-ave-se/pyramid-data-center,110.0,660000.0
Grand Rapids_facility_4,datacenterhawk,Switch · GRAND RAPIDS 1,Switch,6100 E Paris Avenue SE,Grand Rapids,,MI,United States,"312,000 SF",,2024,110 MW,Tier 5® Platinum,,https://datacenterhawk.com/marketplace/providers/switch/6100-e-paris-avenue-se/grand-rapids-1,110.0,312000.0
Grand Rapids_facility_7,datacenterhawk,Switch · GRAND RAPIDS 1,Switch,6100 E Paris Avenue SE,Grand Rapids,,MI,United States,"312,000 SF",,2024,110 MW,Tier 5® Platinum,,https://datacenterhawk.com/marketplace/providers/switch/6100-e-paris-avenue-se/grand-rapids-1,110.0,312000.0
Stamford_facility_2,datacenterhawk,CyrusOne · NYM5,CyrusOne,6 Norden Place,Norwalk,,CT,United States,"168,000 SF","168,000 SF",2013,"2,000 kW",,,https://datacenterhawk.com/marketplace/providers/cyrusone/6-norden-place/nym5,2.0,168000.0
Stamford_facility_3,datacenterhawk,Digital Realty · HVN10,Digital Realty,80 Merritt Boulevard,Trumbull,,CT,United States,"228,000 SF","228,000 SF",1960,"1,200 kW",,,https://datacenterhawk.com/marketplace/providers/digital-realty/80-merritt-boulevard/hvn10,1.2,228000.0
Bend_facility_1,datacenterhawk,Cascade Divide · 207 SW Columbia Street,Cascade Divide,207 SW Columbia Street,Bend,,OR,United States,"12,475 SF","12,475 SF",2012,750 kW,,,https://datacenterhawk.com/marketplace/providers/cascade-divide/207-sw-columbia-street/1060739,0.75,12475.0
New Haven_facility_1,datacenterhawk,Gotspace Data · Wallingford Site 2,Gotspace Data,North Farms Road,Wallingford,,CT,United States,,"192,000",,"192,000",,,https://datacenterhawk.com/marketplace/providers/gotspace-data/north-farms-road/wallingford-site-2,192.0,192000.0
Quebec City_facility_1,datacenterhawk,Qscale · Q01,Qscale,2280 Rue Albert-Dion,Lévis,,QC,Canada,"930,000 SF","930,000 SF",2022,12 MW,,,https://datacenterhawk.com/marketplace/providers/qscale/2280-rue-albert-dion/q01,12.0,930000.0
McAllen_facility_2,datacenterhawk,MDC Data Centers · MCA1,MDC Data Centers,"200 South 10th Street, Suite 702",McAllen,,TX,United States,"209,000 SF",,1978,200 kW,,,https://datacenterhawk.com/marketplace/providers/mdc-data-centers/200-south-10th-street-suite-702/mca1,0.2,209000.0
McAllen_facility_3,datacenterhawk,MDC Data Centers · MCA2,MDC Data Centers,422 South 11th Street,McAllen,,TX,United States,"16,000 SF","16,000 SF",1990,500 kW,,,https://datacenterhawk.com/marketplace/providers/mdc-data-centers/422-south-11th-street/mca2,0.5,16000.0
South Bend_facility_2,datacenterhawk,Data Realty · 1440 Ignition Drive S,AEP,1440 Ignition Drive S,South Bend,,IN,United States,"48,000 SF","48,000 SF",2012,"2,400 kW",,,https://datacenterhawk.com/marketplace/providers/data-realty/1440-ignition-drive-s/191468,2.4,48000.0
Tucson_facility_2,datacenterhawk,TECfusions · 3701 E Columbia Street,Aphorio Carter,3701 E Columbia Street,Tucson,,AZ,United States,"133,452 SF","133,452 SF",,"18,000 kW",,,https://datacenterhawk.com/marketplace/providers/tecfusions/3701-e-columbia-street/1086824,18.0,133452.0
Cedar Rapids_facility_6,datacenterhawk,QTS · DC5,QTS,4310 76th Avenue SW,Cedar Rapids,,IA,United States,,"496,000",,"496,000",,,https://datacenterhawk.com/marketplace/providers/qts/4310-76th-avenue-sw/dc5,496.0,496000.0
Cedar Rapids_facility_13,datacenterhawk,QTS · DC5,QTS,4310 76th Avenue SW,Cedar Rapids,,IA,United States,,"496,000",,"496,000",,,https://datacenterhawk.com/marketplace/providers/qts/4310-76th-avenue-sw/dc5,496.0,496000.0
Birmingham_facility_1,datacenterhawk,C Spire · 200 Summit Parkway,Emerson Network Power,200 Summit Parkway,Birmingham,,AL,United States,"20,700 SF","20,700 SF",1981,650 kW,,,https://datacenterhawk.com/marketplace/providers/c-spire/200-summit-parkway/138134,0.65,20700.0
Birmingham_facility_3,datacenterhawk,DC Blox · BHM1,DC Blox,433 6th Street South,Birmingham,,AL,United States,"31,000 SF",,2019,"48,000 kW",,,https://datacenterhawk.com/marketplace/providers/dc-blox/433-6th-street-south/bhm1,48.0,31000.0
Asheville_facility_1,datacenterhawk,"DartPoints · 100 Technology Drive, Suite C",DartPoints,"100 Technology Drive, Suite C",Asheville,,NC,United States,"23,000 SF",,2003,1120.0,,,https://datacenterhawk.com/marketplace/providers/dartpoints/100-technology-drive-suite-c/1030956,1120.0,23000.0
Huntsville_facility_1,datacenterhawk,DC Blox · HSV1,DC Blox,333 Diamond Drive NW,Huntsville,,AL,United States,"13,000 SF","13,000 SF",2018,"1,500 kW",,,https://datacenterhawk.com/marketplace/providers/dc-blox/333-diamond-drive-nw/hsv1,1.5,13000.0
El Paso_facility_2,datacenterhawk,MDC Data Centers · ELP1,MDC Data Centers,11455 Cedar Oak Drive,El Paso,,TX,United States,"10,169 SF","10,169 SF",1989,500 kW,,,https://datacenterhawk.com/marketplace/providers/mdc-data-centers/11455-cedar-oak-drive/elp1,0.5,10169.0
Temple_facility_2,datacenterhawk,Rowan Digital Infrastructure · Moriah,Birch Infrastructure and Quinbrook Infrastructure Partners,2810 Bob White Road,Temple,,TX,United States,"81,000 SF","81,000 SF",2022,"10,000 kW",,,https://datacenterhawk.com/marketplace/providers/rowan-digital-infrastructure/2810-bob-white-road/moriah,10.0,81000.0
Boardman_facility_3,datacenterhawk,Sabey Data Centers · SDC Umatilla Building B,Sabey Data Centers,Wanapa Road,Umatilla,,OR,United States,"306,440 SF","306,440 SF",,"48,000 kW",,,https://datacenterhawk.com/marketplace/providers/sabey-data-centers/wanapa-road/sdc-umatilla-building-b,48.0,306440.0
Lakeland_facility_1,datacenterhawk,Cologix · LAK1,Lakeland Electric,2850 Interstate Drive,Lakeland,,FL,United States,"105,000 SF","105,000 SF",2013,"1,528 kW",,,https://datacenterhawk.com/marketplace/providers/cologix/2850-interstate-drive/lak1,1.528,105000.0
Culpeper_facility_4,datacenterhawk,Equinix · CU4 (Bulding D),Equinix,18155 Technology Drive,Culpeper,,VA,United States,"117,374 SF",,2015,"2,500 kW",,,https://datacenterhawk.com/marketplace/providers/equinix/18155-technology-drive/cu4-bulding-d,2.5,117374.0
Culpeper_facility_5,datacenterhawk,Equinix · CU4 (Bulding D),Equinix,18155 Technology Drive,Culpeper,,VA,United States,"117,374 SF",,2015,"2,500 kW",,,https://datacenterhawk.com/marketplace/providers/equinix/18155-technology-drive/cu4-bulding-d,2.5,117374.0
"Columbus, IN_facility_1",datacenterhawk,DartPoints · 2425 Technology Boulevard,DartPoints,2425 Technology Boulevard,Columbus,,IN,United States,"86,400 SF",,2008,"4,000 kW",,,https://datacenterhawk.com/marketplace/providers/dartpoints/2425-technology-boulevard/126228,4.0,86400.0
Duluth_facility_1,datacenterhawk,ark data centers · Duluth II,Involta,3401 Technology Drive,Duluth,,MN,United States,"26,000 SF","26,000 SF",2012,"1,000 kW",,,https://datacenterhawk.com/marketplace/providers/involta/3401-technology-drive/duluth-ii,1.0,26000.0
Provo_facility_1,datacenterhawk,Ace Data Centers · 1950 S 950 East,Ace Data Centers,1950 S 950 East,Provo,,UT,United States,"44,794 SF",,1996,850 kW,,,https://datacenterhawk.com/marketplace/providers/ace-data-centers/1950-s-950-east/139321,0.85,44794.0
Palm Bay_facility_1,datacenterhawk,SD Data Center · 8635 Holiday Springs Road,SD Data Center,8635 Holiday Springs Road,Melbourne,,FL,United States,"24,665 SF","24,665 SF",2013,"1,000 kW",,,https://datacenterhawk.com/marketplace/providers/sd-data-center/8635-holiday-springs-road/139864,1.0,24665.0
Sebastian_facility_1,datacenterhawk,Data Shelter · 2299 S Rock Road,Data Shelter LLC,2299 S Rock Road,Fort Pierce,,FL,United States,"17,000 SF","17,000 SF",1964,850 kW,,,https://datacenterhawk.com/marketplace/providers/data-shelter/2299-s-rock-road/146584,0.85,17000.0
Columbia_facility_1,datacenterhawk,DartPoints · 1000 Catawba Street,DartPoints,1000 Catawba Street,Columbia,,SC,United States,"15,000 SF","15,000 SF",2010,500 kW,,,https://datacenterhawk.com/marketplace/providers/dartpoints/1000-catawba-street/1031840,0.5,15000.0
Norwich_facility_1,datacenterhawk,Gotspace Data · Griswold Site 1,Gotspace Data,Barber Road,Griswold,,CT,United States,"673,574 SF","673,574 SF",,"80,000 kW",,,https://datacenterhawk.com/marketplace/providers/gotspace-data/barber-road/griswold-site-1,80.0,673574.0
Groton_facility_2,datacenterhawk,Gotspace Data · Groton North,Gotspace Data,N RoadGroton,Groton,,CT,United States,,"150,000",2021,16-32 MW,Hyperscale,,https://datacenterhawk.com/marketplace/providers/gotspace-data/n-road/groton-north,32.0,150000.0
Boydton_facility_1,datacenterhawk,TECfusions · 250 Burlington Drive,Peraton,250 Burlington Drive,Clarksville,,VA,United States,"195,965 SF","195,965 SF",,"78,500 kW",,,https://datacenterhawk.com/marketplace/providers/tecfusions/250-burlington-drive/1086828,78.5,195965.0
Eagle Pass_facility_1,datacenterhawk,MDC Data Centers · EGP1,MDC Data Centers,500 Bliss Street,Eagle Pass,,TX,United States,"5,208 SF","5,208 SF",,500 kW,,,https://datacenterhawk.com/marketplace/providers/mdc-data-centers/500-bliss-street/egp1,0.5,5208.0
Jackson_facility_1,datacenterhawk,Compass Datacenters · JAN I,Mississippi Power,Sweet Gum Bottom Road,Meridian,,MS,United States,,"10,000 SF",,1200 kW,,Tier 3 Designed and Certified by the Uptime Institute,https://datacenterhawk.com/marketplace/providers/compass-datacenters/sweet-gum-bottom-road/jan-i,1.2,10000.0
Ontario_facility_1,datacenterhawk,Hut 8 · GTA1 - Mississauga,Hut8,"4701 Tahoe Blvd, Suite 201",Mississauga,,ON,Canada,"318,297 SF","318,297 SF",2007,"1,700 kW",,,https://datacenterhawk.com/marketplace/providers/hut8/4701-tahoe-blvd-suite-201/gta1-mississauga,1.7,318297.0
