unique_key,source,Name,Provider,StreetAddress,City,ZipCode,State,Country,Whitespace,Area,YearBuilt,Power,Scale,Certifications,URL,Power_Standardized,Area_Standardized
Virginia_Ashburn_https://www.datacentermap.com/usa/virginia/ashburn/43830-devin-shafron-dr/,datacentermap,43830 Devin Shafron Drive (IAD24),Digital Realty,43830 Devin Shafron Drive,Ashburn,20147,Virginia,USA,"57,700 sq.f.","113,300 sq.f.",2011,6.8 MW,,"Tier 3, DSS, PCI Certified, ISO27001 Certified, LEED Silver, ISO9001 Certified, ISO14001 Certified, SOC 1 Type II Certified, SOC 2 Type II Certified, SOC 3 Type 2 Certified",https://www.datacentermap.com/usa/virginia/ashburn/43830-devin-shafron-dr/,6.8,113300.0
Virginia_Ashburn_https://www.datacentermap.com/usa/virginia/ashburn/ashburn-wdc1/,datacentermap,Centersquare Ashburn Campus,Evoque,21561-21571 Beaumeade Circle,Ashburn,20147,Virginia,USA,"164,453 sq.f.","164,453 sq.f.",,10 MW,Enterprise,"DSS PCI Certified, ISAE3402 Type 2 Certified, SOC 1 Type II Certified, SOC 2 Type II Certified, SOC 3 Type 1 Certified",https://www.datacentermap.com/usa/virginia/ashburn/ashburn-wdc1/,10.0,164453.0
Virginia_Ashburn_https://www.datacentermap.com/usa/virginia/ashburn/44100-digital-loudoun-plaza/,datacentermap,44100 Digital Loudoun Plaza (IAD38),Digital Realty,44100 Digital Loudoun Plaza,Ashburn,20147,Virginia,USA,"115,100 sq.f.","226,000 sq.f.",,16.9 MW,,"DSS, PCI Certified, ISO27001 Certified, HIPAA, ISO9001 Certified, ISO14001 Certified, SOC 1 Type II Certified, SOC 2 Type II Certified, SOC 3 Type 2 Certified, NIST 800-53 Security",https://www.datacentermap.com/usa/virginia/ashburn/44100-digital-loudoun-plaza/,16.9,226000.0
Virginia_Ashburn_https://www.datacentermap.com/usa/virginia/ashburn/44274-round-table-plaza-bldg-l/,datacentermap,"44274 Round Table Plaza, Bldg L (IAD39)",Digital Realty,44274 Round Table Plaza,Ashburn,20147,Virginia,USA,"1,057,000 sq.f.","469,600 sq.f.",2017,96.3 MW,,"DSS PCI Certified, ISO27001 Certified, ISO9001 Certified, ISO14001 Certified, SOC 2 Type II Certified, SOC 3 Type 2 Certified",https://www.datacentermap.com/usa/virginia/ashburn/44274-round-table-plaza-bldg-l/,96.3,1057000.0
Virginia_Ashburn_https://www.datacentermap.com/usa/virginia/ashburn/44461-chilum-place/,datacentermap,44461 Chilum Place (ACC6),Digital Realty,44461 Chilum Place,Ashburn,20147,Virginia,USA,"222,000 sq.f.","135,100 sq.f.",,26 MW,,"DSS, PCI Certified, ISO27001 Certified, LEED Silver, SOC 1 Type II Certified, SOC 2 Type II Certified, SOC 3 Type 2 Certified",https://www.datacentermap.com/usa/virginia/ashburn/44461-chilum-place/,26.0,222000.0
Virginia_Ashburn_https://www.datacentermap.com/usa/virginia/ashburn/cologix-ash1-s/,datacentermap,Cologix ASH1-S,Cologix,21745 Beaumeade Circle,Ashburn,20147,Virginia,USA,"455,000 sq.f.","455,000 sq.f.",,120 MW,Hyperscale,Tier 3,https://www.datacentermap.com/usa/virginia/ashburn/cologix-ash1-s/,120.0,455000.0
Virginia_Ashburn_https://www.datacentermap.com/usa/virginia/ashburn/21625-gresham-drive/,datacentermap,21625 Gresham Drive (ACC7),Digital Realty,21625 Gresham Drive,Ashburn,20147,Virginia,USA,"259,200 sq.f.","446,000 sq.f.",,41.6 MW,,"DSS, PCI Certified, ISO27001 Certified, LEED Gold, SOC 1 Type II Certified, SOC 3 Type 2 Certified",https://www.datacentermap.com/usa/virginia/ashburn/21625-gresham-drive/,41.6,446000.0
Virginia_Ashburn_https://www.datacentermap.com/usa/virginia/ashburn/43940-digital-loudoun-plaza/,datacentermap,44060 Digital Loudoun Plaza (IAD37),Digital Realty,"44060 Digital Loudoun Plaza, Building G",Ashburn,20147,Virginia,USA,"169,200 sq.f.","284,000 sq.f.",,19.8 MW,,"DSS PCI Certified, ISO27001 Certified, ISO9001 Certified, ISO14001 Certified, ISO50001 Certified, SOC 1 Type II Certified, SOC 2 Type II Certified, SOC 3 Type 2 Certified",https://www.datacentermap.com/usa/virginia/ashburn/43940-digital-loudoun-plaza/,19.8,284000.0
Virginia_Ashburn_https://www.datacentermap.com/usa/virginia/ashburn/44520-hastings-acc3/,datacentermap,44520 Hastings (ACC3),Digital Realty,44520 Hastings Dr,Ashburn,20147,Virginia,USA,"146,999 sq.ft.","85,300 sq.ft.",,13.9 MW,,ISO27001 Certified,https://www.datacentermap.com/usa/virginia/ashburn/44520-hastings-acc3/,13.9,146999.0
Virginia_Ashburn_https://www.datacentermap.com/usa/virginia/ashburn/44490-chillum-acc2/,datacentermap,44490 Chillum (ACC2),Digital Realty,44490 Chillum Place,Ashburn,20147,Virginia,USA,"56,800 sq.f.",,,10.4 MW,,ISO27001 Certified,https://www.datacentermap.com/usa/virginia/ashburn/44490-chillum-acc2/,10.4,56800.0
Virginia_Ashburn_https://www.datacentermap.com/usa/virginia/ashburn/21745-sir-timothy-acc9/,datacentermap,21745 Sir Timothy (ACC9),Digital Realty,21745 Sir Timothy Dr,Ashburn,20147,Virginia,USA,"185,500 sq.f.",,,28.8 MW,,"DSS PCI Certified, ISO27001 Certified, SOC 1 Type II Certified, SOC 2 SOC 3 Type 2 Certified",https://www.datacentermap.com/usa/virginia/ashburn/21745-sir-timothy-acc9/,28.8,185500.0
Virginia_Ashburn_https://www.datacentermap.com/usa/virginia/ashburn/44372-round-table-plaza-bldg-m/,datacentermap,"44372 Round Table Plaza, Bldg M (IAD40)",Digital Realty,44372 Round Table Plaza,Ashburn,20147,Virginia,USA,"69,600 sq.f.","69,600 sq.f.",2017,24 MW,,"DSS PCI Certified, ISO27001 Certified, ISO9001 Certified, ISO14001 Certified, SOC 2 Type II Certified, SOC 3 Type 2 Certified",https://www.datacentermap.com/usa/virginia/ashburn/44372-round-table-plaza-bldg-m/,24.0,69600.0
Virginia_Ashburn_https://www.datacentermap.com/usa/virginia/ashburn/21744-sir-timothy-acc10/,datacentermap,21744 Sir Timothy (ACC10),Digital Realty,21744 Sir Timothy Dr,Ashburn,20147,Virginia,USA,"174,800 sq.f.",,,27 MW,,"DSS PCI Certified, ISO27001 Certified, SOC 1 Type II Certified, SOC 2 Type II Certified, SOC 3 Type 2 Certified",https://www.datacentermap.com/usa/virginia/ashburn/21744-sir-timothy-acc10/,27.0,174800.0
Virginia_Ashburn_https://www.datacentermap.com/usa/virginia/ashburn/43915-devin-shafron-drive/,datacentermap,43881 Devin Shafron Drive (IAD12),Digital Realty,43881 Devin Shafron Drive,Ashburn,20147,Virginia,USA,"57,100 sq.f.","180,000 sq.f.",2001,9 MW,,DSS PCI Certified ISO27001 Certified ISO9001 Certified ISO14001 Certified SOC 2 Type II Certified SOC 3 Type 2 Certified,https://www.datacentermap.com/usa/virginia/ashburn/43915-devin-shafron-drive/,9.0,180000.0
Virginia_Ashburn_https://www.datacentermap.com/usa/virginia/ashburn/43881-devin-shafron-drive/,datacentermap,43940 Digital Loudoun Plaza (IAD35),Digital Realty,43940 Digital Loudoun Plaza,Ashburn,20147,Virginia,USA,"223,800 sq.f.","392,000 sq.f.",2013,26.4 MW,,"DSS, PCI Certified, ISO27001 Certified, LEED Silver, ISO9001 Certified, ISO14001 Certified, SOC 1 Type II Certified, SOC 2 Type II Certified, SOC 3 Type 2 Certified",https://www.datacentermap.com/usa/virginia/ashburn/43881-devin-shafron-drive/,26.4,392000.0
Virginia_Ashburn_https://www.datacentermap.com/usa/virginia/ashburn/44540-round-table-plaza-iad73/,datacentermap,44540 Round Table Plaza (IAD73),Digital Realty,44540 Round Table Plz,Ashburn,20147,Virginia,USA,"69,700 sq.f.",,,16 MW,,"ISO27001 Certified, ISO9001 Certified, ISO14001 Certified",https://www.datacentermap.com/usa/virginia/ashburn/44540-round-table-plaza-iad73/,16.0,69700.0
Virginia_Ashburn_https://www.datacentermap.com/usa/virginia/ashburn/22124-broderick-drive-r/,datacentermap,"22124 Broderick Drive, Bldg R (IAD42)",Digital Realty,22124 Broderick Drive (Bldg R),Ashburn,20147,Virginia,USA,"208,200 sq.f.","208,200 sq.f.",2021,48 MW,,DSS PCI Certified ISO27001 Certified ISO9001 Certified ISO14001 Certified SOC 2 Type II Certified SOC 3 Type 2 Certified,https://www.datacentermap.com/usa/virginia/ashburn/22124-broderick-drive-r/,48.0,208200.0
Virginia_Ashburn_https://www.datacentermap.com/usa/virginia/ashburn/ntt-ashburn-va3/,datacentermap,NTT Ashburn VA3,NTT Global Data Centers,21583 Megawatt Drive,Ashburn,20147,Virginia,USA,"112,000 sq.f.","245,000 sq. ft.",,16 MW,,"DSS PCI Certified, ISO27001 Certified, LEED Gold, HIPAA, SOC 1 Type II Certified, SOC 2 Type II Certified, NIST 800-53 Certified",https://www.datacentermap.com/usa/virginia/ashburn/ntt-ashburn-va3/,16.0,245000.0
Virginia_Ashburn_https://www.datacentermap.com/usa/virginia/ashburn/ragingwire-ashburn/,datacentermap,NTT Ashburn VA1,NTT Global Data Centers,44664 Guilford Drive,Ashburn,20147,Virginia,USA,"64,723 sq.f.","150,000 sq. ft.",2000,12.6 MW,,"Tier 4, DSS, PCI Certified, ISO27001 Certified, SAS70 Type 2 Certified, LEED Gold, HIPAA, SOC 1 Type II Certified, SOC 2 Type II Certified, NIST 800-53 Certified",https://www.datacentermap.com/usa/virginia/ashburn/ragingwire-ashburn/,12.6,150000.0
Virginia_Ashburn_https://www.datacentermap.com/usa/virginia/ashburn/ntt-ashburn-va2/,datacentermap,NTT Ashburn VA2,NTT Global Data Centers,44610 Guilford Drive,Ashburn,20147,Virginia,USA,"70,000 sq.f.","140,000 sq. ft.",,14 MW,,"DSS PCI Certified, ISO27001 Certified, LEED Gold, HIPAA, SOC 1 Type II Certified, SOC 2 Type II Certified, NIST 800-53 Certified",https://www.datacentermap.com/usa/virginia/ashburn/ntt-ashburn-va2/,14.0,140000.0
Virginia_Ashburn_https://www.datacentermap.com/usa/virginia/ashburn/element-critical-va1/,datacentermap,Element Critical Northern Virginia,Element Critical,7990 Quantum Dr,Vienna,22182,Virginia,USA,"200,000 sq.f.","70,000 sq.f.",,10 MW,,"Tier 3, DSS, PCI Certified, ISO27001 Certified, HIPAA, SOC 1 Type II Certified, SOC 2 Type II Certified",https://www.datacentermap.com/usa/virginia/ashburn/element-critical-va1/,10.0,200000.0
Virginia_Ashburn_https://www.datacentermap.com/usa/virginia/ashburn/h5dc-ashburn/,datacentermap,H5 Data Centers Ashburn,H5 Data Centers,21800 Beaumeade Cir,Ashburn,20147,Virginia,USA,"255,000 sq.f.","70,000 sq.f.",,20 MW,Enterprise,"Tier 3, ISO27001 Certified, SOC 2 Type II Certified",https://www.datacentermap.com/usa/virginia/ashburn/h5dc-ashburn/,20.0,255000.0
Virginia_Ashburn_https://www.datacentermap.com/usa/virginia/ashburn/aligned-iad-02/,datacentermap,Aligned IAD-02,Aligned Data Centers,21821 Uunet Drive,Ashburn,20147,Virginia,USA,"438,460 sq.f.","283,023 sq.f.",2020,120 MW,,"DSS, PCI Compliant, ISO27001 Certified, HIPAA, FISMA Certified, SOC 1 Type II Certified, SOC 2 Type II Certified, HITECH, NIST 800-53 Certified",https://www.datacentermap.com/usa/virginia/ashburn/aligned-iad-02/,120.0,438460.0
Virginia_Ashburn_https://www.datacentermap.com/usa/virginia/ashburn/aligned-iad-01/,datacentermap,Aligned IAD-01,Aligned Data Centers,21890 Uunet Drive,Ashburn,20147,Virginia,USA,"370,000 sq.f.","370,000 sq.f.",2019,60 MW,,"DSS, PCI Compliant, ISO27001 Certified, HIPAA, FISMA Certified, SOC 1 Type II Certified, SOC 2 Type II Certified, HITECH, NIST 800-53 Certified",https://www.datacentermap.com/usa/virginia/ashburn/aligned-iad-01/,60.0,370000.0
Virginia_Ashburn_https://www.datacentermap.com/usa/virginia/ashburn/att-21571-beaumeade/,datacentermap,Centersquare - Ashburn IAD4-A,Centersquare,21571 Beaumeade Circle,Ashburn,20147,Virginia,USA,"98,387 sq.f.","51,400 sq.f.",,1.5 MW,,"Tier 3, DSS, PCI Certified, ISO27001 Certified, ISAE3402 Type 2 Certified, SOC 1 Type I Certified, SOC 2 Type I Certified, SOC 3 Type 2 Certified",https://www.datacentermap.com/usa/virginia/ashburn/att-21571-beaumeade/,1.5,98387.0
Virginia_Ashburn_https://www.datacentermap.com/usa/virginia/ashburn/qts-ash3-dc1/,datacentermap,QTS Ashburn 3 DC1,QTS Data Centers,22291 Shellhorn Road,Ashburn,20147,Virginia,USA,"300,000 sq.f.","195,000 sq.f.",,42 MW,,"DSS, PCI Certified, ISO27001 Certified, ISO22301 Certified, SOC 1 Type II Certified, SOC 2 Type II Certified",https://www.datacentermap.com/usa/virginia/ashburn/qts-ash3-dc1/,42.0,300000.0
Virginia_Ashburn_https://www.datacentermap.com/usa/virginia/ashburn/deft-iad1-ashburn/,datacentermap,Deft Ashburn,Deft,43830 Devin Shafron Dr,Ashburn,20147,Virginia,USA,"113,300 sq.f.","113,300 sq.f.",,"10,000 kW",,"LEED Silver, SOC2, SOC3, PCI-DSS, ISO 9001, ISO 14001, ISO 27001",https://www.datacentermap.com/usa/virginia/ashburn/deft-iad1-ashburn/,10.0,113300.0
Virginia_Ashburn_https://www.datacentermap.com/usa/virginia/ashburn/edgecore-ashburn-as01/,datacentermap,EdgeCore Ashburn AS01,EdgeCore,45865 Maries Road,Sterling,20166,Virginia,USA,"348,000 sq.f.",,,72 MW,,,https://www.datacentermap.com/usa/virginia/ashburn/edgecore-ashburn-as01/,72.0,348000.0
Virginia_Ashburn_https://www.datacentermap.com/usa/virginia/ashburn/databank-iad3/,datacentermap,DataBank IAD3 - Ashburn Campus,DataBank,21630 Red Rum Drive,Ashburn,20147,Virginia,USA,"218,920 sq.f.",,,40 MW,,"DSS, PCI Compliant, ISO27001 Certified, HIPAA, SSAE 18 Audited",https://www.datacentermap.com/usa/virginia/ashburn/databank-iad3/,40.0,218920.0
Virginia_Ashburn_https://www.datacentermap.com/usa/virginia/ashburn/qts-ash3-dc2/,datacentermap,QTS Ashburn 3 DC2,QTS Data Centers,22271 Shellhorn Road,Ashburn,20147,Virginia,USA,"300,000 sq.f.","195,000 sq.f.",,42 MW,,"DSS PCI Certified, ISO27001 Certified, ISO22301 Certified, SOC 1 Type II Certified, SOC 2 Type II Certified",https://www.datacentermap.com/usa/virginia/ashburn/qts-ash3-dc2/,42.0,300000.0
Virginia_Ashburn_https://www.datacentermap.com/usa/virginia/ashburn/remington-technology-park/,datacentermap,Remington Technology Park,PointOne,6980 Helm Dr,Ashburn,22734,Virginia,USA,,234-acre site,,425 MW,Hyperscale,,https://www.datacentermap.com/usa/virginia/ashburn/remington-technology-park/,425.0,234.0
Virginia_Ashburn_https://www.datacentermap.com/usa/virginia/ashburn/powerhouse-abx1/,datacentermap,CyrusOne NVA14,CyrusOne Data Centers,21529 Beaumeade Circle,Ashburn,20147,Virginia,USA,435600 sq.f.,"265,850 sq.f.",2023,60 MW,,,https://www.datacentermap.com/usa/virginia/ashburn/powerhouse-abx1/,60.0,435600.0
Virginia_Ashburn_https://www.datacentermap.com/usa/virginia/ashburn/compass-loudoun-county-i/,datacentermap,Compass Loudoun County I - Campus,Compass Datacenters,Thunderball Dr,Ashburn,20148,Virginia,USA,"625,000","625,000",,79 MW,,,https://www.datacentermap.com/usa/virginia/ashburn/compass-loudoun-county-i/,79.0,625000.0
Virginia_Ashburn_https://www.datacentermap.com/usa/virginia/ashburn/stack-infrastructure-nva06/,datacentermap,STACK Infrastructure NVA06,STACK INFRASTRUCTURE,19275 Compass Creek Pkwy,Leesburg,20175,Virginia,USA,"620,000 sq.f.","620,000 sq.f.",,72 MW,Hyperscale,,https://www.datacentermap.com/usa/virginia/ashburn/stack-infrastructure-nva06/,72.0,620000.0
Virginia_Ashburn_https://www.datacentermap.com/usa/virginia/ashburn/cloudhq-lc4/,datacentermap,CloudHQ LC4,CloudHQ,22210 Loudoun County Parkway,Ashburn,20147,Virginia,USA,"1,580,560","146,838",2024,180 MW,,,https://www.datacentermap.com/usa/virginia/ashburn/cloudhq-lc4/,180.0,1580560.0
Virginia_Ashburn_https://www.datacentermap.com/usa/virginia/ashburn/43790-devin-shafron-dr/,datacentermap,43790 Devin Shafron Dr,Menlo Equities,43790 Devin Shafron Dr,Ashburn,20147,Virginia,USA,"152,138 sq.f.","152,138 sq.f.",2011,230 MW,,,https://www.datacentermap.com/usa/virginia/ashburn/43790-devin-shafron-dr/,230.0,152138.0
Virginia_Ashburn_https://www.datacentermap.com/usa/virginia/ashburn/ashburn2/,datacentermap,STACK Infrastructure NVA01A,STACK INFRASTRUCTURE,22080 Pacific Blvd.,Sterling,20166,Virginia,USA,"180,000 sq.f.",,,17 MW,,"DSS, PCI Compliant, ISO27001 Certified, HIPAA, SSAE 18 Audited, HITECH",https://www.datacentermap.com/usa/virginia/ashburn/ashburn2/,17.0,180000.0
Virginia_Ashburn_https://www.datacentermap.com/usa/virginia/ashburn/cloudhq-lc2/,datacentermap,CloudHQ LC2,CloudHQ,44621 Waxpool Rd,Ashburn,20147,Virginia,USA,"580,000 square feet","53,883 square meters",2019,88 MW,,,https://www.datacentermap.com/usa/virginia/ashburn/cloudhq-lc2/,88.0,580000.0
Virginia_Ashburn_https://www.datacentermap.com/usa/virginia/ashburn/cloudhq-lc1/,datacentermap,CloudHQ LC1,CloudHQ,21955 Loudoun County Pkwy,Ashburn,20147,Virginia,USA,"998,400 square feet","92,754 square meters",2018,144 MW,,,https://www.datacentermap.com/usa/virginia/ashburn/cloudhq-lc1/,144.0,998404.0
Virginia_Ashburn_https://www.datacentermap.com/usa/virginia/ashburn/cloudhq-lc3/,datacentermap,CloudHQ LC3,CloudHQ,"CloudHQ, within the Ashburn Data Center Valley, 20147 Ashburn",Ashburn,20147,Virginia,USA,"580,000 square feet","53,883 square meters",,96 MW,,,https://www.datacentermap.com/usa/virginia/ashburn/cloudhq-lc3/,96.0,580000.0
Virginia_Ashburn_https://www.datacentermap.com/usa/virginia/ashburn/cloudhq-lc13/,datacentermap,CloudHQ LC13,CloudHQ,"CloudHQ, 20147 Ashburn",Ashburn,20147,Virginia,USA,"835,849 square feet","77,652 square meters",,108 MW,,,https://www.datacentermap.com/usa/virginia/ashburn/cloudhq-lc13/,108.0,835849.0
Virginia_Reston_https://www.datacentermap.com/usa/virginia/reston/1780-business-center/,datacentermap,1780 Business Center Drive (VA3),Digital Realty,1780 Business Center Drive,Reston,20190,Virginia,USA,"256,000 sq.f.","146,500 sq.f.",,13 MW,,"DSS PCI Certified, ISO27001 Certified, SOC 1 Type II Certified, SOC 2 Type II Certified, SOC 3 Type 2 Certified",https://www.datacentermap.com/usa/virginia/reston/1780-business-center/,13.0,256000.0
Virginia_Richmond_https://www.datacentermap.com/usa/virginia/richmond/flexential-richmond/,datacentermap,Flexential Richmond Data Center,Flexential,8801 Park Central Drive,Richmond,23227,Virginia,USA,"28,594 sq.f.",,,2.8 MW,,"ISO27001 Certified, SOC 1 Type II Certified, SOC 2 Type II Certified, SOC 3 Type 2 Certified, NIST 800-53 Certified",https://www.datacentermap.com/usa/virginia/richmond/flexential-richmond/,2.8,28594.0
Virginia_Richmond_https://www.datacentermap.com/usa/virginia/richmond/digital-drive/,datacentermap,Digital Drive,,"Chirisa within directly adjacent to CTPâ€™s existing Richmond technology campus, 23836 Chester",Richmond,23836,Virginia,USA,,"600,000",2026,300MW,Enterprise,,https://www.datacentermap.com/usa/virginia/richmond/digital-drive/,300.0,600000.0
Virginia_Richmond_https://www.datacentermap.com/usa/virginia/richmond/edgeconnex-edcric01/,datacentermap,EdgeConneX Richmond - EDCRIC01,EdgeConneX,1450 E Parham Rd,Richmond,23228,Virginia,USA,"16,279 sq.f.","6,797 sq.f.",,0.5 MW,,"Tier 3, DSS, PCI Compliant, ISO27001 Certified, HIPAA, SOC 2 Type II Certified",https://www.datacentermap.com/usa/virginia/richmond/edgeconnex-edcric01/,0.5,16279.0
Virginia_Richmond_https://www.datacentermap.com/usa/virginia/richmond/qts-richmond/,datacentermap,"QTS Richmond 1 DC1, DC2, DC3","QTS Realty Trust, Inc.",6000 Technology Blvd,Richmond,23150,Virginia,USA,"1,300,000 sq.f.","1,300,000 sq.f.",,105 MW,Hyperscale,"DSS, PCI Compliant, ISO27001 Certified, LEED Gold, FISMA Certified, SOC 1 Type II Certified, SOC 2 Type II Certified",https://www.datacentermap.com/usa/virginia/richmond/qts-richmond/,105.0,1300000.0
Virginia_Richmond_https://www.datacentermap.com/usa/virginia/richmond/chirisa-technology-park-richmond/,datacentermap,Chirisa Richmond Technology Park,,"Chirisa, 1401 Meadowville Technology Parkway, 23836 Chester",Richmond,23836,Virginia,USA,3833280 sq.f.,,,80 kW,,,https://www.datacentermap.com/usa/virginia/richmond/chirisa-technology-park-richmond/,0.08,3833280.0
Virginia_Richmond_https://www.datacentermap.com/usa/virginia/richmond/tecfusions-clarksville/,datacentermap,TECfusions Clarksville,TECfusions,250 Burlington Dr,Clarksville,23927,Virginia,USA,"195,000 sq.f.","195,000 sq.f.",,220 MW,,,https://www.datacentermap.com/usa/virginia/richmond/tecfusions-clarksville/,220.0,195000.0
Virginia_Norfolk_https://www.datacentermap.com/usa/virginia/norfolk/solutrix-norfolk-square/,datacentermap,Solutrix Norfolk Square,"Solutrix, LLC","Solutrix, LLC within Near Norfolk Intl. Airport",Norfolk,23502,Virginia,USA,450 sq.f.,"3,000 sq.f.",,0.8 MW,,"DSS, PCI, ISO27001, FedRAMP, SAS70, ISAE3402, LEED, HIPAA, EN50600, ISO9001, ISO14001, ISO22301, ISO27017, ISO27018, ISO45001, ISO50001, FISMA, FIPS140, NO EU-US Privacy Shield, SOC 1, SOC 2, SOC 3, SSAE 18, SSAE 16, HITECH, DIACAP, EHNAC, Cloud-Enabled, SOX, NIST 800-53, BREEAM Certificaton",https://www.datacentermap.com/usa/virginia/norfolk/solutrix-norfolk-square/,0.8,3000.0
Virginia_Norfolk_https://www.datacentermap.com/usa/virginia/norfolk/edcnor01/,datacentermap,EdgeConneX Norfolk - EDCNOR01,EdgeConneX,3800 Village Ave,Norfolk,23502,Virginia,USA,"19,619 sq.f.","4,623 sq.f.",,0.75 MW,,"Tier Design Tier 3, DSS, PCI Compliant, ISO27001 Certified, HIPAA, SOC 2 Type II Certified",https://www.datacentermap.com/usa/virginia/norfolk/edcnor01/,0.75,19619.0
Virginia_Manassas_https://www.datacentermap.com/usa/virginia/manassas/iron-mountain-va-1/,datacentermap,Iron Mountain Data Centers VA-1,,"Iron Mountain Data Centers, 11680 Hayden Road",Manassas,20109,Virginia,USA,"165,230 sq.f.","165,230 sq.f.",2017,13 MW,,"Tier 3, DSS, PCI Certified, ISO27001 Certified, HIPAA, ISO9001 Certified, ISO14001 Certified, ISO22301 Certified, SOC 2 Type II Certified, SOC 3 Type 1 Certified, NIST 800-53 Certified",https://www.datacentermap.com/usa/virginia/manassas/iron-mountain-va-1/,13.0,165230.0
Virginia_Manassas_https://www.datacentermap.com/usa/virginia/manassas/iron-mountain-va-2/,datacentermap,Iron Mountain Data Centers VA-2,Iron Mountain Data Centers,11660 Hayden Road,Manassas,20109,Virginia,USA,,"221,500 sq.f.",2019,36 MW,Hyperscale,"Tier 3, DSS, PCI Certified, ISO27001 Certified, HIPAA, ISO9001 Certified, ISO14001 Certified, ISO22301 Certified, SOC 2 Type II Certified, SOC 3 Type 1 Certified, NIST 800-53 Certified",https://www.datacentermap.com/usa/virginia/manassas/iron-mountain-va-2/,36.0,221500.0
Virginia_Manassas_https://www.datacentermap.com/usa/virginia/manassas/iron-mountain-va-6/,datacentermap,Iron Mountain Data Centers VA-6,Iron Mountain Data Centers,11891 Sudley Manor Road,Manassas,20109,Virginia,USA,"230,000 sq.f.","230,000 sq.f.",,32 MW,Multi-tenant,"DSS PCI Certified, ISO27001 Certified, FedRAMP Authorized, HIPAA, ISO9001 Certified, ISO14001 Certified, ISO22301 Certified, ISO50001 Certified, FISMA Certified, SOC 2 Type II Certified, SOC 3 Type 1 Certified, NIST 800-53 Certified",https://www.datacentermap.com/usa/virginia/manassas/iron-mountain-va-6/,32.0,230000.0
Virginia_Manassas_https://www.datacentermap.com/usa/virginia/manassas/iron-mountain-va-7/,datacentermap,Iron Mountain Data Centers VA-7,Iron Mountain Data Centers,8330 Bethlehem Road,Manassas,20109,Virginia,USA,,"2,000,000 ft2",,36 MW,,,https://www.datacentermap.com/usa/virginia/manassas/iron-mountain-va-7/,36.0,2000000.0
Virginia_Manassas_https://www.datacentermap.com/usa/virginia/manassas/evoswitch-wdc-1/,datacentermap,EvoSwitch Manassas (WDC1),,EvoSwitch 9651 Hornbaker Road,Manassas,20109,Virginia,USA,"235,000 sq.f.",,2011,20 MW,,Tier 3 DSS PCI Certified ISO27001 Certified LEED Certified,https://www.datacentermap.com/usa/virginia/manassas/evoswitch-wdc-1/,20.0,235000.0
Virginia_Manassas_https://www.datacentermap.com/usa/virginia/manassas/stack-infrastructure-nva05a/,datacentermap,STACK Infrastructure NVA05A,STACK INFRASTRUCTURE,9101 Freedom Center Blvd,Manassas,20110,Virginia,USA,"262,000 sq.f.","262,000 sq.f.",,36 MW,,"DSS PCI Compliant, ISO27001 Certified, ISAE3402, HIPAA, SSAE 18 Audited, HITECH",https://www.datacentermap.com/usa/virginia/manassas/stack-infrastructure-nva05a/,36.0,262000.0
Virginia_Manassas_https://www.datacentermap.com/usa/virginia/manassas/qts-manassas5/,datacentermap,QTS Manassas DC5,QTS Data Centers,9301 Freedom Center Boulevard,Manassas,20110,Virginia,USA,"154,000 sq.f.","310,000 sq.f.",,42 MW,,,https://www.datacentermap.com/usa/virginia/manassas/qts-manassas5/,42.0,310000.0
Virginia_Manassas_https://www.datacentermap.com/usa/virginia/manassas/cloudhq-mdc-campus/,datacentermap,CloudHQ MDC Campus,CloudHQ,10100 Harry J Parrish Boulevard,Manassas,20110,Virginia,USA,"127,000 sq.f.","599,198 square feet",,84 MW,,,https://www.datacentermap.com/usa/virginia/manassas/cloudhq-mdc-campus/,84.0,599198.0
Virginia_Manassas_https://www.datacentermap.com/usa/virginia/manassas/stack-infrastructure-nva05b/,datacentermap,STACK Infrastructure NVA05B,STACK INFRASTRUCTURE,STACK INFRASTRUCTURE Freedom Center Blvd,Manassas,20110,Virginia,USA,"340,000 sq.f.","340,000 sq.f.",,48 MW,Hyperscale,,https://www.datacentermap.com/usa/virginia/manassas/stack-infrastructure-nva05b/,48.0,340000.0
Virginia_Manassas_https://www.datacentermap.com/usa/virginia/manassas/cloudhq-mcc4/,datacentermap,CloudHQ MCC4,CloudHQ,10849 Airman Avenue,Manassas,20110,Virginia,USA,"382,538 square feet / 35,539 square meters","382,538",,60 MW,,,https://www.datacentermap.com/usa/virginia/manassas/cloudhq-mcc4/,60.0,382538.0
Virginia_Manassas_https://www.datacentermap.com/usa/virginia/manassas/cloudhq-mcc6/,datacentermap,CloudHQ MCC6,CloudHQ,10900 Airman Avenue,Manassas,20110,Virginia,USA,"139,000 sq.f.","320,300 square feet / 29,757 square meters",2022,60 MW,,,https://www.datacentermap.com/usa/virginia/manassas/cloudhq-mcc6/,60.0,320300.0
Virginia_Manassas_https://www.datacentermap.com/usa/virginia/manassas/cloudhq-mcc5/,datacentermap,CloudHQ MCC5,CloudHQ,10951 Airman Avenue,Manassas,20110,Virginia,USA,"363,993 square feet","33,816 square meters",,60 MW,,,https://www.datacentermap.com/usa/virginia/manassas/cloudhq-mcc5/,60.0,363995.0
Virginia_Manassas_https://www.datacentermap.com/usa/virginia/manassas/cloudhq-mcc2/,datacentermap,CloudHQ MCC2,CloudHQ,10100 Harry J Parish Boulevard,Manassas,20110,Virginia,USA,"392,565 sq.f.","341,803 sq.f.",2018,64 MW,,,https://www.datacentermap.com/usa/virginia/manassas/cloudhq-mcc2/,64.0,392565.0
Virginia_Manassas_https://www.datacentermap.com/usa/virginia/manassas/prp-7816-bethlehem/,datacentermap,PRP - 7816 Bethlehem,PRP Real Estate Investment,7816 Bethlehem Rd,Manassas,20109,Virginia,USA,,"746,070",,150MW,Hyperscale,,https://www.datacentermap.com/usa/virginia/manassas/prp-7816-bethlehem/,150.0,746070.0
Virginia_Vienna_https://www.datacentermap.com/usa/virginia/vienna-virginia/8100-boone-boulevard/,datacentermap,8100 Boone Boulevard,Digital Realty,8100 Boone Boulevard,Vienna,22182,Virginia,USA,"10,935 sq.f.","10,935 sq.f.",,0.4 MW,,,https://www.datacentermap.com/usa/virginia/vienna-virginia/8100-boone-boulevard/,0.4,10935.0
Virginia_Vienna_https://www.datacentermap.com/usa/virginia/vienna-virginia/databank-iad2/,datacentermap,DataBank IAD2 - McLean,DataBank,1764A Old Meadow Lane,McLean,22102,Virginia,USA,"40,685 sq.f.",,,2.7 MW,,DSS PCI Compliant ISO27001 Certified HIPAA FISMA Certified SSAE 18 Audited,https://www.datacentermap.com/usa/virginia/vienna-virginia/databank-iad2/,2.7,40685.0
Virginia_Sterling_https://www.datacentermap.com/usa/virginia/sterling/cyrusone-nva9/,datacentermap,CyrusOne NVA9 - Sterling,CyrusOne Data Centers,43290 Old Ox Road,Sterling,20166,Virginia,USA,"700,000 sq ft","400,000 sq ft",,135 MW,,"DSS PCI Compliant, ISO27001 Certified, HIPAA, FISMA Certified, SOC 1 Type II Certified, SOC 2 Type II Certified, SSAE 18 Audited, HITECH",https://www.datacentermap.com/usa/virginia/sterling/cyrusone-nva9/,135.0,700000.0
Virginia_Sterling_https://www.datacentermap.com/usa/virginia/sterling/cyrusone-nva8/,datacentermap,CyrusOne NVA8 - Sterling,CyrusOne Data Centers,45905 Maries Road,Sterling,20166,Virginia,USA,"154,230 sq.f.","100,341 sq.f.",,24 MW,,"DSS PCI Compliant, ISO27001 Certified, HIPAA, FISMA Certified, SOC 1 Type II Certified, SOC 2 Type II Certified, SSAE 18 Audited, HITECH",https://www.datacentermap.com/usa/virginia/sterling/cyrusone-nva8/,24.0,154230.0
Virginia_Sterling_https://www.datacentermap.com/usa/virginia/sterling/cyrusone-nva1-3-campus/,datacentermap,CyrusOne Virginia Campus,CyrusOne Data Centers,21111 Ridgetop Circle,Sterling,20166,Virginia,USA,"420,000 sq.f.","420,000 sq.f.",,1 kW/sq.f.,,"DSS PCI Compliant, ISO27001 Certified, HIPAA FISMA Certified, SOC 1 Type II Certified, SOC 2 Type II Certified, SSAE 18 Audited, HITECH",https://www.datacentermap.com/usa/virginia/sterling/cyrusone-nva1-3-campus/,0.001,420000.0
Virginia_Sterling_https://www.datacentermap.com/usa/virginia/sterling/cyrusone-nva4/,datacentermap,CyrusOne NVA4 - Sterling,CyrusOne Data Centers,22811 International Drive,Sterling,20116,Virginia,USA,"128,715 sq.f.","28,715 sq.f.",,12.6 MW,,,https://www.datacentermap.com/usa/virginia/sterling/cyrusone-nva4/,12.6,128715.0
Virginia_Sterling_https://www.datacentermap.com/usa/virginia/sterling/qts-ashburn-moran/,datacentermap,QTS Ashburn-Moran DC2,QTS Data Centers,44874 Moran Road,Sterling,20166,Virginia,USA,"26,820 sq.f.","87,000 sq.f.",,6 MW,,"DSS PCI Certified, ISO27001 Certified, LEED Silver, FISMA Certified, SOC 1 Type II Certified, SOC 2 Type II Certified, SSAE 18 Audited",https://www.datacentermap.com/usa/virginia/sterling/qts-ashburn-moran/,6.0,87000.0
Virginia_Sterling_https://www.datacentermap.com/usa/virginia/sterling/skybox-nova-one/,datacentermap,Skybox Nova One,Skybox Datacenters,22675 Dulles Summit,Sterling,20166,Virginia,USA,"210,500 sq.f.","210,500 sq.f.",,30 MW,,LEED Certified,https://www.datacentermap.com/usa/virginia/sterling/skybox-nova-one/,30.0,210500.0
Virginia_Sterling_https://www.datacentermap.com/usa/virginia/sterling/cyxtera-iad3a/,datacentermap,Centersquare - Sterling IAD3-A,Cyxtera,22995 Wilder Ct,Sterling,20166,Virginia,USA,"43,308 sq.f.","31,470 sq.f.",,2 MW,,"Tier 3, DSS PCI Certified, ISO27001 Certified, ISAE3402 Type 2 Certified, SOC 1 Type II Certified, SOC 2 Type II Certified, SSAE 18 Audited, NIST 800-53 Certified",https://www.datacentermap.com/usa/virginia/sterling/cyxtera-iad3a/,2.0,43308.0
Virginia_Sterling_https://www.datacentermap.com/usa/virginia/sterling/cyxtera-iad1c/,datacentermap,Centersquare - Sterling IAD1-C,Cyxtera,21110 Ridgetop Circle,Sterling,20166,Virginia,USA,"60,672 sq.f.","44,475 sq.f.",,4.8 MW,,"Tier 3, DSS PCI Certified, ISO27001 Certified, ISAE3402 Type 2 Certified, SOC 1 Type II Certified, SOC 2 Type II Certified, SSAE 18 Audited, NIST 800-53 Certified",https://www.datacentermap.com/usa/virginia/sterling/cyxtera-iad1c/,4.8,60672.0
Virginia_Sterling_https://www.datacentermap.com/usa/virginia/sterling/cyxtera-iad2a/,datacentermap,Centersquare - Sterling IAD2-A,Cyxtera,22810 International Dr,Sterling,20166,Virginia,USA,"37,298 sq.f.","26,770 sq.f.",,2 MW,,"Tier 3, DSS PCI Certified, ISO27001 Certified, ISAE3402 Type 2 Certified, SOC 1 Type II Certified, SOC 2 Type II Certified, SSAE 18 Audited, NIST 800-53 Certified",https://www.datacentermap.com/usa/virginia/sterling/cyxtera-iad2a/,2.0,37298.0
Virginia_Sterling_https://www.datacentermap.com/usa/virginia/sterling/edgecore-ashburn-as02/,datacentermap,EdgeCore Ashburn AS02,EdgeCore Digital Infrastructure,1501 Moran Rd,Sterling,20166,Virginia,USA,"260,000 sq.f.","260,000 sq.f.",,42 MW,,,https://www.datacentermap.com/usa/virginia/sterling/edgecore-ashburn-as02/,42.0,260000.0
Virginia_Sterling_https://www.datacentermap.com/usa/virginia/sterling/vantage-va1-campus/,datacentermap,Vantage VA1 - Ashburn I Campus,Vantage Data Centers,"Vantage Data Plaza, 20166 Sterling",Sterling,,Virginia,USA,"1,700,000 sq.f.",,,206 MW,,,https://www.datacentermap.com/usa/virginia/sterling/vantage-va1-campus/,206.0,1700000.0
Virginia_Sterling_https://www.datacentermap.com/usa/virginia/sterling/vantage-va2-campus/,datacentermap,Vantage VA2 - Ashburn II Campus,Vantage Data Centers,22318 Glenn Drive,Sterling,20164,Virginia,USA,"800,000 sq.f.","800,000 sq.f.",,96 MW,,,https://www.datacentermap.com/usa/virginia/sterling/vantage-va2-campus/,96.0,800000.0
Virginia_Sterling_https://www.datacentermap.com/usa/virginia/sterling/qts-ashburn/,datacentermap,QTS Ashburn 1 DC1,QTS Data Centers,22271 Broderick Drive,Sterling,20166,Virginia,USA,"172,000 sq.f.","427,320 sq.f.",,36 MW,Hyperscale,"DSS PCI Certified, ISO27001 Certified, LEED Certified, FISMA Certified, SOC 1 Type II Certified, SOC 2 Type II Certified",https://www.datacentermap.com/usa/virginia/sterling/qts-ashburn/,36.0,427320.0
Virginia_Sterling_https://www.datacentermap.com/usa/virginia/sterling/cyxtera-iad2b/,datacentermap,Centersquare - Sterling IAD2-B,Cyxtera,22860 International Dr,Sterling,20166,Virginia,USA,"32,439 sq.f.","44,770 sq.f.",,6 MW,,"Tier 3, DSS PCI Certified, ISO27001 Certified, ISAE3402 Type 2 Certified, SOC 1 Type II Certified, SOC 2 Type II Certified, SSAE 18 Audited, NIST 800-53 Certified",https://www.datacentermap.com/usa/virginia/sterling/cyxtera-iad2b/,6.0,44770.0
Virginia_Sterling_https://www.datacentermap.com/usa/virginia/sterling/cyxtera-iad1b/,datacentermap,Centersquare - Sterling IAD1-B,Cyxtera,Centersquare 45845 Nokes Blvd,Sterling,20166,Virginia,USA,"82,621 sq.f.","60,908 sq.f.",,4.8 MW,,"Tier 3, DSS PCI Certified, ISO27001 Certified, ISAE3402 Type 2 Certified, SOC 1 Type II Certified, SOC 2 Type II Certified, SSAE 18 Audited, NIST 800-53 Certified",https://www.datacentermap.com/usa/virginia/sterling/cyxtera-iad1b/,4.8,82621.0
Virginia_Sterling_https://www.datacentermap.com/usa/virginia/sterling/stack-infrastructure-nva04-campus/,datacentermap,STACK Infrastructure NVA04 Campus,STACK INFRASTRUCTURE,"STACK INFRASTRUCTURE, Shellhorn Road, 20166 Sterling",Sterling,,Virginia,USA,3484800 sq.f.,1 million square feet,,72MW,,,https://www.datacentermap.com/usa/virginia/sterling/stack-infrastructure-nva04-campus/,72.0,3484800.0
Virginia_Sterling_https://www.datacentermap.com/usa/virginia/sterling/stack-infrastructure-nva04a/,datacentermap,STACK Infrastructure NVA04A,STACK INFRASTRUCTURE,22275 Lockridge Rd,Sterling,20166,Virginia,USA,3484800 sq.f.,1 million square feet,,72MW,,,https://www.datacentermap.com/usa/virginia/sterling/stack-infrastructure-nva04a/,72.0,3484800.0
Virginia_Sterling_https://www.datacentermap.com/usa/virginia/sterling/stack-infrastructure-nva04b/,datacentermap,STACK Infrastructure NVA04B,STACK INFRASTRUCTURE,22285 Lockridge Rd,Sterling,20166,Virginia,USA,3484800 sq.f.,1 million square feet,,72MW,,,https://www.datacentermap.com/usa/virginia/sterling/stack-infrastructure-nva04b/,72.0,3484800.0
Virginia_Chantilly_https://www.datacentermap.com/usa/virginia/chantilly/ati-dc2/,datacentermap,ATI DC-1,ATI Solutions Inc.,4227 Lafayette Center Drive,Chantilly,20151,Virginia,USA,"3,000 sq.f.","3,000 sq.f.",,2 MW,,"Tier 3, SAS70 Type 2 Certified",https://www.datacentermap.com/usa/virginia/chantilly/ati-dc2/,2.0,3000.0
Virginia_Herndon_https://www.datacentermap.com/usa/virginia/herndon/dulles-exchange/,datacentermap,365 Data Centers - Herndon,,"365 Data Centers, 13873 Park Center Road, 20171 Herndon",Herndon,,Virginia,USA,"12,000 sq.f.",,2012,0.83 MW,,"DSS, PCI Compliant, HIPAA",https://www.datacentermap.com/usa/virginia/herndon/dulles-exchange/,0.83,12000.0
Virginia_Lexington_https://www.datacentermap.com/usa/virginia/lexington-va/rap-data-center/,datacentermap,Rockbridge Area Network Authority - RAP Data Center,Rockbridge Area Network Authority,150 S Main Street,Lexington,24450,Virginia,USA,,"12,400 square feet",2014,0.1 MW,,,https://www.datacentermap.com/usa/virginia/lexington-va/rap-data-center/,0.1,12400.0
Virginia_Gainesville_https://www.datacentermap.com/usa/virginia/gainesville-va/corscale-gainesville-bldg-1/,datacentermap,Corscale Gainesville - Bldg 1,Corscale,13760 University Blvd,Gainesville,20109,Virginia,USA,"482,223 sq.f.","230,000 sq.f.",,72 MW,,"DSS, PCI Certified, ISO27001 Certified, LEED Certified, FISMA Certified, SOC 1 Type II Certified, SOC 2 Type II Certified",https://www.datacentermap.com/usa/virginia/gainesville-va/corscale-gainesville-bldg-1/,72.0,482223.0
Virginia_Gainesville_https://www.datacentermap.com/usa/virginia/gainesville-va/john-marshall-commons-tech-park/,datacentermap,John Marshall Commons Tech Park,The BlackChamber Group,"The BlackChamber Group, Catharpin Road / John Marshall",Gainesville,20155,Virginia,USA,989684 sq.f.,No data supplied by The BlackChamber Group,,80 MW,No data supplied by The BlackChamber Group,No data supplied by The BlackChamber Group,https://www.datacentermap.com/usa/virginia/gainesville-va/john-marshall-commons-tech-park/,80.0,989684.0
Virginia_Dulles_https://www.datacentermap.com/usa/virginia/dulles/22262-cloud-plz/,datacentermap,22262 Cloud Plz,Sentinel Datacenters,22262 Cloud Plaza,Dulles,20166,Virginia,USA,2831400 sq.f.,"238,000 sq.f.",2019,46 MW,,,https://www.datacentermap.com/usa/virginia/dulles/22262-cloud-plz/,46.0,2831400.0
Virginia_Harrisonburg_https://www.datacentermap.com/usa/virginia/harrisonburg/qts-harrisonburg/,datacentermap,QTS Harrisonburg,"QTS Realty Trust, Inc.",1175 N Main St,Harrisonburg,22802,Virginia,USA,"10,000 sq. ft.","10,000 sq. ft.",,40 MW,Hyperscale,Uptime Institute's Tier III Data Center,https://www.datacentermap.com/usa/virginia/harrisonburg/qts-harrisonburg/,40.0,10000.0
Virginia_Bristow_https://www.datacentermap.com/usa/virginia/bristow/digital-realty-va4/,datacentermap,8217 Linton Hall Rd (VA4),Digital Realty,8217 Linton Hall Rd,Bristow,20136,Virginia,USA,"90,000 sq.f.","227,465 sq.f.",,9.6 MW,,,https://www.datacentermap.com/usa/virginia/bristow/digital-realty-va4/,9.6,227465.0
Virginia_Bristow_https://www.datacentermap.com/usa/virginia/bristow/stack-infrastructure-nva02-campus/,datacentermap,STACK Infrastructure NVA02 Campus,STACK INFRASTRUCTURE,"STACK INFRASTRUCTURE, Hornbaker Rd / Linton Hall Rd",Bristow,20109,Virginia,USA,"2,300,000 sq.f.","2,300,000 sq.f.",,420 MW,,DSS PCI Certified HIPAA ISO9001 Certified SSAE 18 Audited HITECH,https://www.datacentermap.com/usa/virginia/bristow/stack-infrastructure-nva02-campus/,420.0,2300000.0
Virginia_Bristow_https://www.datacentermap.com/usa/virginia/bristow/stack-infrastructure-nva02d/,datacentermap,STACK Infrastructure NVA02D,STACK INFRASTRUCTURE,9590 Hornbaker Rd,Bristow,20109,Virginia,USA,"280,000 sq.f.","280,000 sq.f.",,36 MW,,,https://www.datacentermap.com/usa/virginia/bristow/stack-infrastructure-nva02d/,36.0,280000.0
Virginia_Bristow_https://www.datacentermap.com/usa/virginia/bristow/stack-infrastructure-nva02e/,datacentermap,STACK Infrastructure NVA02E,STACK INFRASTRUCTURE,9604 Hornbaker Rd,Bristow,20109,Virginia,USA,"280,000 sq.f.","280,000 sq.f.",,36 MW,,,https://www.datacentermap.com/usa/virginia/bristow/stack-infrastructure-nva02e/,36.0,280000.0
Virginia_Bristow_https://www.datacentermap.com/usa/virginia/bristow/stack-infrastructure-nva02a/,datacentermap,STACK Infrastructure NVA02A,STACK INFRASTRUCTURE,9750 Hornbaker Rd,Bristow,20109,Virginia,USA,"227,000 sq.f.","227,000 sq.f.",,40 MW,,,https://www.datacentermap.com/usa/virginia/bristow/stack-infrastructure-nva02a/,40.0,227000.0
Virginia_Bristow_https://www.datacentermap.com/usa/virginia/bristow/stack-infrastructure-nva02b/,datacentermap,STACK Infrastructure NVA02B,STACK INFRASTRUCTURE,9720 Hornbaker Rd,Bristow,20109,Virginia,USA,"227,000 sq.f.","227,000 sq.f.",,40 MW,,No data supplied by STACK INFRASTRUCTURE,https://www.datacentermap.com/usa/virginia/bristow/stack-infrastructure-nva02b/,40.0,227000.0
Virginia_Bristow_https://www.datacentermap.com/usa/virginia/bristow/stack-infrastructure-nva02c/,datacentermap,STACK Infrastructure NVA02C,STACK INFRASTRUCTURE,9730 Hornbaker Rd,Bristow,20109,Virginia,USA,"15,000 sq.f.","15,000 sq.f.",,2 MW,,,https://www.datacentermap.com/usa/virginia/bristow/stack-infrastructure-nva02c/,2.0,15000.0
Virginia_Culpeper_https://www.datacentermap.com/usa/virginia/culpeper/databank-iad5-culpeper/,datacentermap,Databank IAD5 - Culpeper,DataBank,14601 Germanna Hwy,Culpeper,22701,Virginia,USA,"180,000 sq.f.","180,000 sq.f.",,40 MW,"Enterprise, Hyperscale, Artificial Intelligence",,https://www.datacentermap.com/usa/virginia/culpeper/databank-iad5-culpeper/,40.0,180000.0
Virginia_Culpeper_https://www.datacentermap.com/usa/virginia/culpeper/edgecore-culpeper-cp03/,datacentermap,EdgeCore Culpeper CP03,EdgeCore,"EdgeCore, within Culpeper Technology Zone (CTZ), 22701 Culpeper",Culpeper,,Virginia,USA,5227200 sq.f.,1.4 million square feet,,72 MW,Hyperscale,,https://www.datacentermap.com/usa/virginia/culpeper/edgecore-culpeper-cp03/,72.0,5227200.0
Texas_Dallas_https://www.datacentermap.com/usa/texas/dallas/2323-bryan-street/,datacentermap,2323 Bryan Street (DFW10),Digital Realty,2323 Bryan Street,Dallas,75201,Texas,USA,"40,100 sq.f.","477,000 sq.f.",1982,3.8 MW,,"Tier 3, DSS, PCI Certified, ISO27001 Certified, SOC 2 Type II Certified, SOC 3 Type 2 Certified",https://www.datacentermap.com/usa/texas/dallas/2323-bryan-street/,3.8,477000.0
Texas_Dallas_https://www.datacentermap.com/usa/texas/dallas/tel-x-dallas2/,datacentermap,8435 Stemmons Freeway (DFW36),Digital Realty,8435 Stemmons Freeway,Dallas,75247,Texas,USA,"11,000 sq.f.","35,000 sq.f.",1971,1.2 MW,,"DSS PCI Certified, ISO27001, HIPAA, SOC 2 Type II Certified, SOC 3 Type 2 Certified, NIST 800-53",https://www.datacentermap.com/usa/texas/dallas/tel-x-dallas2/,1.2,35000.0
Texas_Dallas_https://www.datacentermap.com/usa/texas/dallas/1232-alma/,datacentermap,1232 Alma Road (DFW16),Digital Realty,1232 Alma Road,Dallas,75081,Texas,USA,"49,900 sq.f.","105,726 sq.f.",1967,6.7 MW,,"DSS PCI Certified, ISO27001 Certified, LEED Silver, ISO9001 Certified, ISO14001 Certified, SOC 2 Type II Certified, SOC 3 Type 2 Certified",https://www.datacentermap.com/usa/texas/dallas/1232-alma/,6.7,105726.0
Texas_Dallas_https://www.datacentermap.com/usa/texas/dallas/4025-midway/,datacentermap,4025 Midway Rd (DFW11),Digital Realty,4025 Midway Rd,Dallas,75007,Texas,USA,"100,000 sq.f.","48,500 sq.f.",2000,4.4 MW,,"Tier 3, DSS PCI Certified, SOC 2 Type II Certified, SOC 3 Type 2 Certified",https://www.datacentermap.com/usa/texas/dallas/4025-midway/,4.4,100000.0
Texas_Dallas_https://www.datacentermap.com/usa/texas/dallas/850-e-collins-boulevard/,datacentermap,850 E. Collins Boulevard (DFW28),Digital Realty,850 E. Collins Boulevard,Dallas,75081,Texas,USA,"121,000 sq.f.","60,500 sq.f.",2012,6.8 MW,,"DSS, PCI Certified, ISO27001 Certified, HIPAA, ISO9001 Certified, ISO14001 Certified, SOC 1 Type II Certified, SOC 2 Type II Certified, SOC 3 Type 2 Certified, NIST 800-53 Security",https://www.datacentermap.com/usa/texas/dallas/850-e-collins-boulevard/,6.8,121000.0
Texas_Dallas_https://www.datacentermap.com/usa/texas/dallas/1210-integrity-drive/,datacentermap,1210 Integrity Drive (DFW18),Digital Realty,1210 Integrity Drive,Dallas,75081,Texas,USA,"458,500 sq.f.","227,800 sq.f.",2014,36 MW,,"DSS PCI Certified, ISO27001 Certified, ISO9001 Certified, ISO14001 Certified, SOC 2 Type II Certified, SOC 3 Type 2 Certified",https://www.datacentermap.com/usa/texas/dallas/1210-integrity-drive/,36.0,458500.0
Texas_Dallas_https://www.datacentermap.com/usa/texas/dallas/900-quality-way/,datacentermap,900 Quality Way (DFW17),Digital Realty,"900 Quality Way, 75081 Richardson",Dallas,,Texas,USA,"58,000 sq.f.","114,900 sq.f.",1966,6.9 MW,,"Tier Design Tier 3, DSS PCI Certified, ISO27001 Certified, LEED Silver, ISO9001 Certified, ISO14001 Certified, SOC 2 Type II Certified, SOC 3 Type 2 Certified",https://www.datacentermap.com/usa/texas/dallas/900-quality-way/,6.9,114900.0
Texas_Dallas_https://www.datacentermap.com/usa/texas/dallas/evoque-dal1/,datacentermap,Centersquare - Dallas DFW2-A,Evoque,900 Guardians Way,Dallas,75013,Texas,USA,"74,212 sq.f.","115,633 sq.f.",,12 MW,,"DSS PCI Certified, ISAE3402 Type 2 Certified, SOC 1 Type II Certified, SOC 2 Type II Certified, SOC 3 Type 1 Certified",https://www.datacentermap.com/usa/texas/dallas/evoque-dal1/,12.0,115633.0
Texas_Dallas_https://www.datacentermap.com/usa/texas/dallas/cologix-dal2/,datacentermap,Cologix DAL2,Cologix,1950 North Stemmons Freeway Suite 2010,Dallas,75207,Texas,USA,,"50,000",,15 kW,Enterprise,"DSS, PCI Certified, ISO27001 Certified, HIPAA, SOC 1 Type II Certified, SOC 2 Type II Certified",https://www.datacentermap.com/usa/texas/dallas/cologix-dal2/,0.015,50000.0
Texas_Dallas_https://www.datacentermap.com/usa/texas/dallas/dfw-garland/,datacentermap,Stream DC DFW VII - Garland,Stream Data Centers,1813 Lookout Drive,Garland,75044,Texas,USA,"275,000 sq.f.","138,132 sq.f.",,43 MW,,,https://www.datacentermap.com/usa/texas/dallas/dfw-garland/,43.0,275000.0
Texas_Dallas_https://www.datacentermap.com/usa/texas/dallas/cologix-infomart/,datacentermap,Cologix DAL1,Cologix,1950 N. Stemmons Fwy Suite 1032,Dallas,75207,Texas,USA,,"40,000 SQF",,8 kW,,"SSAE 16 SOC1, PCI compliance",https://www.datacentermap.com/usa/texas/dallas/cologix-infomart/,0.008,40000.0
Texas_Dallas_https://www.datacentermap.com/usa/texas/dallas/1215-integrity-drive/,datacentermap,1215 Integrity Drive (DFW25),Digital Realty,1215 Integrity Drive,Dallas,75081,Texas,USA,"118,000 sq.f.","56,500 sq.f.",2011,6.9 MW,,"ISO27001 Certified, ISO9001 Certified, ISO14001 Certified",https://www.datacentermap.com/usa/texas/dallas/1215-integrity-drive/,6.9,118000.0
Texas_Dallas_https://www.datacentermap.com/usa/texas/dallas/950-e-collins-boulevard/,datacentermap,950 E. Collins Boulevard (DFW29),Digital Realty,950 E. Collins Boulevard,Dallas,75081,Texas,USA,"63,000 sq.f.","121,300 sq.f.",2012,7.2 MW,,DSS PCI Certified ISO27001 Certified ISO9001 Certified ISO14001 Certified SOC 2 Type II Certified SOC 3 Type 2 Certified,https://www.datacentermap.com/usa/texas/dallas/950-e-collins-boulevard/,7.2,121300.0
Texas_Dallas_https://www.datacentermap.com/usa/texas/dallas/2440-marsh-lane/,datacentermap,2440 Marsh Lane (DFW12),Digital Realty,2440 Marsh Lane,Dallas,75006,Texas,USA,"69,800 sq.f.","135,250 sq.f.",1998,6.7 MW,,"DSS PCI Certified, ISO27001 Certified, LEED, SOC 2 Type II Certified, SOC 3 Type 2 Certified",https://www.datacentermap.com/usa/texas/dallas/2440-marsh-lane/,6.7,135250.0
Texas_Dallas_https://www.datacentermap.com/usa/texas/dallas/907-security-row/,datacentermap,907 Security Row (DFW35),Digital Realty,907 Security Row,Dallas,75081,Texas,USA,"50,800 sq.f.","138,500 sq.f.",2014,9.6 MW,,DSS PCI Certified ISO27001 Certified ISO9001 Certified ISO14001 Certified SOC 2 Type II Certified SOC 3 Type 2 Certified,https://www.datacentermap.com/usa/texas/dallas/907-security-row/,9.6,138500.0
Texas_Dallas_https://www.datacentermap.com/usa/texas/dallas/flexential-plano/,datacentermap,Flexential Dallas - Plano Data Center,Flexential,3500 E Plano Pkwy,Plano,75074,Texas,USA,"261,425 sq.f.","261,425 sq.f.",,18 MW,,"ISO27001 Certified, SOC 1 Type II Certified, SOC 2 Type II Certified, SOC 3 Type 2 Certified, NIST 800-53 Certified",https://www.datacentermap.com/usa/texas/dallas/flexential-plano/,18.0,261425.0
Texas_Dallas_https://www.datacentermap.com/usa/texas/dallas/flexential-dallas-downtown/,datacentermap,Flexential Dallas - Downtown Data Center,Flexential,1950 Stemmons Freeway,Dallas,75207,Texas,USA,"80,447 sq.f.","80,447 sq.f.",,6.66 MW,,"ISO27001 Certified, SOC 1 Type II Certified, SOC 2 Type II Certified, SOC 3 Type 2 Certified, NIST 800-53 Certified",https://www.datacentermap.com/usa/texas/dallas/flexential-dallas-downtown/,6.66,80447.0
Texas_Dallas_https://www.datacentermap.com/usa/texas/dallas/4849-alpha-road/,datacentermap,4849 Alpha Road (DFW14),Digital Realty,4849 Alpha Road,Dallas,75244,Texas,USA,"31,000 sq.f.","125,600 sq.f.",1999,4.5 MW,,"DSS PCI Certified, LEED Gold, SOC 2 Type II Certified, SOC 3 Type 2 Certified",https://www.datacentermap.com/usa/texas/dallas/4849-alpha-road/,4.5,125600.0
Texas_Dallas_https://www.datacentermap.com/usa/texas/dallas/908-quality-way-dfw20/,datacentermap,908 Quality Way (DFW20),Digital Realty,908 Quality Way,Dallas,75081,Texas,USA,"38,000 sq.f.","38,000 sq.f.",,10 MW,,,https://www.datacentermap.com/usa/texas/dallas/908-quality-way-dfw20/,10.0,38000.0
Texas_Dallas_https://www.datacentermap.com/usa/texas/dallas/flexential-richardson/,datacentermap,Flexential Dallas - Richardson Data Center,Flexential,3010 Waterview Parkway,Richardson,75080,Texas,USA,"100,807 sq.f.","100,807 sq.f.",,3.75 MW,,"HITRUST CSF, PCI DSS, ISO27001, SOC 1 Type II, SOC 2 Type II, SOC 3 Type 2, NIST 800-53",https://www.datacentermap.com/usa/texas/dallas/flexential-richardson/,3.75,100807.0
Texas_Dallas_https://www.datacentermap.com/usa/texas/dallas/stream-dc-dfw-viii-wilmer/,datacentermap,Stream DC DFW-VIII - Wilmer,Stream Data Centers,60 Sunrise Road,Dallas,75146,Texas,USA,"690,000 sq.f.","690,000 sq.f.",,90 MW,Hyperscale,,https://www.datacentermap.com/usa/texas/dallas/stream-dc-dfw-viii-wilmer/,90.0,690000.0
Texas_Dallas_https://www.datacentermap.com/usa/texas/dallas/1502-ferris-rd/,datacentermap,1502 Ferris Rd,Digital Realty,1502 Ferris Rd,Dallas,75044,Texas,USA,"410,000 sq.f.","410,000 sq.f.",,8 MW,,,https://www.datacentermap.com/usa/texas/dallas/1502-ferris-rd/,8.0,410000.0
Texas_Dallas_https://www.datacentermap.com/usa/texas/dallas/cyrusone-carrolton/,datacentermap,CyrusOne DFW1 - Carrollton,CyrusOne Data Centers,1649 Frankfort Road West,Carrollton,75007,Texas,USA,"400,000 sq.f.","670,000 sq.f.",,90 MW,,"DSS PCI Compliant, ISO27001 Certified, SAS70 Type 2 Certified, LEED Silver, HIPAA, FISMA Certified, SOC 1 Type II Certified, SOC 2 Type II Certified, SSAE 18 Audited, HITECH",https://www.datacentermap.com/usa/texas/dallas/cyrusone-carrolton/,90.0,670000.0
Texas_Dallas_https://www.datacentermap.com/usa/texas/dallas/carrier1/,datacentermap,Prime Dallas Data Center Campus,,"Prime Data Centers, 1515 Round Table, 75247 Dallas",Dallas,,Texas,USA,"38,000 sq.f.","106,866 sq.f.",2014,7.5 MW,,"Tier Design Tier 3, ISO27001 Certified, SOC 2 Type II Certified",https://www.datacentermap.com/usa/texas/dallas/carrier1/,7.5,106866.0
Texas_Dallas_https://www.datacentermap.com/usa/texas/dallas/internap-dallas/,datacentermap,Evocative DAL6,Evocative Data Centers,1221 Coit Road,Plano,75075,Texas,USA,"52,000 sq.f.","111,000 sq.f.",2011,12 MW,,"DSS PCI Certified, SAS70 Type 2 Certified, LEED Certified, HIPAA, SOC 2 Type II Certified, SOC 3 Type 1 Certified",https://www.datacentermap.com/usa/texas/dallas/internap-dallas/,12.0,111000.0
Texas_Dallas_https://www.datacentermap.com/usa/texas/dallas/colo4dallas/,datacentermap,TierPoint Dallas,TierPoint,3004 Irving Blvd,Dallas,75247,Texas,USA,"51,000 sq.f.","68,000 sq.f.",2000,2.0kW,,"DSS PCI Certified, ISO27001 Certified, HIPAA, EU-US Privacy Shield Compliant, SOC 1 Type II Certified, SOC 2 Type II Certified, NIST 800-53 Certified",https://www.datacentermap.com/usa/texas/dallas/colo4dallas/,0.002,68000.0
Texas_Dallas_https://www.datacentermap.com/usa/texas/dallas/cyrusone-dfw3/,datacentermap,CyrusOne DFW3 - Allen,CyrusOne Data Centers,2300 Chelsea Blvd,Dallas,75013,Texas,USA,"976,000 sq.f.","60,000 sq.f.",,50 MW,,"Tier 4, DSS, PCI Certified, ISO27001 Certified, HIPAA, FISMA Certified, SOC 1 Type II Certified, SOC 2 Type II Certified, SSAE 18 Audited, HITECH",https://www.datacentermap.com/usa/texas/dallas/cyrusone-dfw3/,50.0,976000.0
Texas_Dallas_https://www.datacentermap.com/usa/texas/dallas/databank/,datacentermap,DataBank DFW1 - Downtown Dallas,DataBank,400 S. Akard,Dallas,75202,Texas,USA,"107,040 sq.f.","107,040 sq.f.",2005,7 MW,,"Tier 3, DSS, PCI Compliant, ISO27001 Certified, FedRAMP Authorized, SAS70, HIPAA, FISMA Certified, SSAE 18 Audited",https://www.datacentermap.com/usa/texas/dallas/databank/,7.0,107040.0
Texas_Dallas_https://www.datacentermap.com/usa/texas/dallas/aligned-dfw-01/,datacentermap,Aligned DFW-01,,"Aligned Data Centers, 2800 Summit Avenue, 75074 Plano",Dallas,,Texas,USA,"375,000 sq.f.","280,000 sq.f.",1980s,60 MW,,"Tier III Facility and Design Certifications from Uptime Institute, 100% Uptime SLA, SOC 2 Type 2, SOC 1 Type 2, PCI DSS, HIPAA, HITECH, NIST 800-53, ISO 27001:2013",https://www.datacentermap.com/usa/texas/dallas/aligned-dfw-01/,60.0,375000.0
Texas_Dallas_https://www.datacentermap.com/usa/texas/dallas/da1-evocative-data-center/,datacentermap,Evocative DAL1,Evocative Data Centers,2800 Summit Ave,Plano,75074,Texas,USA,"300,000 sq.f.","300,000 sq.f.",,30 MW,,"DSS PCI Compliant, HIPAA, SOC 2 Type II Certified, SOC 3 Type 1 Certified",https://www.datacentermap.com/usa/texas/dallas/da1-evocative-data-center/,30.0,300000.0
Texas_Dallas_https://www.datacentermap.com/usa/texas/dallas/vericenter-richardson/,datacentermap,365 Data Centers - Richardson,365 Data Centers,1001 East Campbell Road,Richardson,75081,Texas,USA,"75,100 sq.f.","75,100 sq.f.",,6.2 MW,,,https://www.datacentermap.com/usa/texas/dallas/vericenter-richardson/,6.2,75100.0
Texas_Dallas_https://www.datacentermap.com/usa/texas/dallas/4025-midway-road/,datacentermap,VAZATA Dallas I,VAZATA,4025 Midway Road,Dallas,75007,Texas,USA,"25,000 sq.f.","32,000 sq.f.",2008,3.3 MW,Enterprise,"Tier Design Tier 3, DSS PCI Compliant, SAS70 Type 2 Certified, HIPAA",https://www.datacentermap.com/usa/texas/dallas/4025-midway-road/,3.3,32000.0
Texas_Dallas_https://www.datacentermap.com/usa/texas/dallas/zcolo-1950-stemmons/,datacentermap,DataBank DFW5 - Dallas Infomart,DataBank,1950 Stemmons Fwy,Dallas,75207,Texas,USA,"15,000 sq.f.","15,000 sq.f.",,1.45 MW,,DSS PCI Compliant ISO27001 Certified HIPAA SSAE 18 Audited,https://www.datacentermap.com/usa/texas/dallas/zcolo-1950-stemmons/,1.45,15000.0
Texas_Dallas_https://www.datacentermap.com/usa/texas/dallas/zcolo-harry-hines/,datacentermap,DataBank DFW6 - Dallas Love Field,Zayo Group,8600 Harry Hines Blvd,Dallas,75235,Texas,USA,"12,560 sq.f.","12,560 sq.f.",,0.675 MW,,"DSS, PCI Compliant, ISO27001 Certified, HIPAA, SSAE 18 Audited",https://www.datacentermap.com/usa/texas/dallas/zcolo-harry-hines/,0.675,12560.0
Texas_Dallas_https://www.datacentermap.com/usa/texas/dallas/databank-dfw4/,datacentermap,DataBank DFW4 - Dallas Empire,DataBank,1100 Empire Central Place,Dallas,75247,Texas,USA,"35,900 sq.f.","35,900 sq.f.",,4 MW,,"DSS PCI Compliant, ISO27001 Certified, HIPAA, SSAE 18 Audited",https://www.datacentermap.com/usa/texas/dallas/databank-dfw4/,4.0,35900.0
Texas_Dallas_https://www.datacentermap.com/usa/texas/dallas/databank-dfw3-plano/,datacentermap,DataBank DFW3 - Plano,DataBank,8375 Dominion Pkwy,Plano,75024,Texas,USA,"72,600 sq.f.","72,600 sq.f.",,13.5 MW,,"Uptime Certified Tier III, DSS, PCI Compliant, ISO27001 Certified, FedRAMP Authorized, HIPAA, FISMA Certified, SSAE 18 Audited",https://www.datacentermap.com/usa/texas/dallas/databank-dfw3-plano/,13.5,72600.0
Texas_Dallas_https://www.datacentermap.com/usa/texas/dallas/nd-itg/,datacentermap,DataBank DFW7 - Dallas LBJ,DataBank,6606 Lyndon B Johnson Fwy,Dallas,75240,Texas,USA,"16,070 sq.f.","16,070 sq.f.",,0.94 MW,,DSS PCI Compliant ISO27001 Certified HIPAA FISMA Certified SSAE 18 Audited,https://www.datacentermap.com/usa/texas/dallas/nd-itg/,0.94,16070.0
Texas_Dallas_https://www.datacentermap.com/usa/texas/dallas/colohouse-dallas/,datacentermap,ColoHouse Dallas,ColoHouse,1649 West Frankford Road,Dallas,75007,Texas,USA,"670,000 sq.f.","400,000 sq.f.",,60 MW,,"DSS PCI Certified, ISO27001 Certified, HIPAA, FISMA Certified, SOC 1 Type II Certified, SOC 2 Type II Certified, SSAE 16 Type 2 Certified, HITECH",https://www.datacentermap.com/usa/texas/dallas/colohouse-dallas/,60.0,670000.0
Texas_Dallas_https://www.datacentermap.com/usa/texas/dallas/qts-irving-campus/,datacentermap,QTS Irving Campus,QTS Data Centers,6431 Longhorn Drive,Dallas,75063,Texas,USA,2439363 sq.f.,,,175 MW,,,https://www.datacentermap.com/usa/texas/dallas/qts-irving-campus/,175.0,2439363.0
Texas_Dallas_https://www.datacentermap.com/usa/texas/dallas/scalematrix-dallas-us-south-01/,datacentermap,ScaleMatrix Dallas,,ScaleMatrix 820 Allen Commerce Pkwy,Dallas,75013,Texas,USA,"16,000 sq.f.",,2017,12 MW,,"Tier 3, DSS, PCI Certified, HIPAA, SOC 1 Type II Certified, SOC 2 Type II Certified, SOC 3 Type 2 Certified, SSAE 18 Audited, SSAE 16 Type 2 Certified",https://www.datacentermap.com/usa/texas/dallas/scalematrix-dallas-us-south-01/,12.0,16000.0
Texas_Dallas_https://www.datacentermap.com/usa/texas/dallas/vazata-mckinney/,datacentermap,VAZATA McKinney,VAZATA,1720 Bray Central Dr,McKinney,75069,Texas,USA,"5,000 sq.f.","5,000 sq.f.",2016,1 MW,,Tier 2,https://www.datacentermap.com/usa/texas/dallas/vazata-mckinney/,1.0,5000.0
Texas_Dallas_https://www.datacentermap.com/usa/texas/dallas/serverphase-com/,datacentermap,Serverphase Data Center,M&A Technology Inc.,2045 Chenault Drive,Dallas,75006,Texas,USA,"10,000 sq.f.","10,000 sq.f.",2008,2 MW,,Tier 3,https://www.datacentermap.com/usa/texas/dallas/serverphase-com/,2.0,10000.0
Texas_Dallas_https://www.datacentermap.com/usa/texas/dallas/stack-infrastructure-dfw02-campus/,datacentermap,STACK Infrastructure DFW02 Campus,STACK INFRASTRUCTURE,STACK INFRASTRUCTURE E Belt Line Road,Lancaster,75146,Texas,USA,"1,542,600 sq.f.","1,542,600 sq.f.",2026,216 MW,Hyperscale,,https://www.datacentermap.com/usa/texas/dallas/stack-infrastructure-dfw02-campus/,216.0,1542600.0
Texas_Dallas_https://www.datacentermap.com/usa/texas/dallas/stack-infrastructure-dfw01b/,datacentermap,STACK Infrastructure DFW01B,STACK Infrastructure,6715 Pinecrest Dr,Plano,75024,Texas,USA,"156,000 sq.f.","156,000 sq.f.",,11 MW,Hyperscale,DSS PCI Compliant ISO27001 Certified LEED Silver HIPAA SSAE 18 Audited HITECH,https://www.datacentermap.com/usa/texas/dallas/stack-infrastructure-dfw01b/,11.0,156000.0
Texas_Dallas_https://www.datacentermap.com/usa/texas/dallas/edged-dallas/,datacentermap,Edged Dallas,Edged Energy,505 N Wildwood Dr,Irving,75061,Texas,USA,"162,545 sq.f.","162,545 sq.f.",,24 MW,,Tier 3,https://www.datacentermap.com/usa/texas/dallas/edged-dallas/,24.0,162545.0
Texas_Dallas_https://www.datacentermap.com/usa/texas/dallas/servermania-dallas-data-center/,datacentermap,ServerMania Dallas Data Center,ServerMania Inc,3000 Irving Blvd,Dallas,75247,Texas,USA,"64,000 sq.f.","68,000 sq.f.",2000,11.1 MW,,SSAE16,https://www.datacentermap.com/usa/texas/dallas/servermania-dallas-data-center/,11.1,68000.0
Texas_Dallas_https://www.datacentermap.com/usa/texas/dallas/5cdc-dallas-fort-worth-dfw01/,datacentermap,5CDC Dallas-Fort Worth - DFW01,5C Data Centers (5CDC),1201 John Burgess Dr,Fort Worth,76140,Texas,USA,"240,000 sq.f.","240,000 sq.f.",,144 MW,,,https://www.datacentermap.com/usa/texas/dallas/5cdc-dallas-fort-worth-dfw01/,144.0,240000.0
Texas_Dallas_https://www.datacentermap.com/usa/texas/dallas/skybox-atlantic-station/,datacentermap,Skybox Atlantic Station,Skybox Datacenters,2300 W Plano Pkwy,Plano,75075,Texas,USA,No data supplied by Skybox Datacenters,1M square feet,,100 MW,,LEED Certified,https://www.datacentermap.com/usa/texas/dallas/skybox-atlantic-station/,100.0,1.0
Texas_Dallas_https://www.datacentermap.com/usa/texas/dallas/databank-dfw9/,datacentermap,DataBank DFW9 - Red Oak,DataBank,"DataBank, Batchler Rd & Stainback Rd, 75154 Red Oak",Dallas,75154,Texas,USA,"300,000 sq.f.","425,000 sq.f.",2027,33.75 MW,,,https://www.datacentermap.com/usa/texas/dallas/databank-dfw9/,33.75,425000.0
Texas_Dallas_https://www.datacentermap.com/usa/texas/dallas/qts-irving-dfw1-dc3/,datacentermap,QTS Irving DC3,QTS Data Centers,6351 Longhorn Drive,Irving,75063,Texas,USA,"415,900 sq.f.","415,900 sq.f.",,43 MW,,,https://www.datacentermap.com/usa/texas/dallas/qts-irving-dfw1-dc3/,43.0,415900.0
Texas_Dallas_https://www.datacentermap.com/usa/texas/dallas/qts-fort-worth/,datacentermap,QTS Fort Worth 1 DC1,"QTS Realty Trust, Inc.",14100 Park Vista Boulevard,Fort Worth,76177,Texas,USA,"263,000 sq.f.","263,000 sq.f.",,50 MW,Hyperscale,"DSS PCI Certified, ISO27001 Certified, LEED Certified, ISO22301 Certified, SOC 1 Type II Certified, SOC 2 Type II Certified",https://www.datacentermap.com/usa/texas/dallas/qts-fort-worth/,50.0,263000.0
Texas_Dallas_https://www.datacentermap.com/usa/texas/dallas/skybox-legacy-campus/,datacentermap,Skybox Legacy Campus,Skybox Datacenters,"Skybox Datacenters, 75075 Plano",Dallas,,Texas,USA,1740000 sq.f.,,,100 MW,,LEED Certified,https://www.datacentermap.com/usa/texas/dallas/skybox-legacy-campus/,100.0,1740000.0
Texas_Dallas_https://www.datacentermap.com/usa/texas/dallas/core-scientific-denton/,datacentermap,Core Scientific Denton,,Core Scientific 8171 Jim Christal Rd,Denton,76207,Texas,USA,"30,000 sq.f.",,2022,125 MW,,,https://www.datacentermap.com/usa/texas/dallas/core-scientific-denton/,125.0,30000.0
Texas_Dallas_https://www.datacentermap.com/usa/texas/dallas/skybox-powercampus-dallas/,datacentermap,Skybox PowerCampus Dallas,Skybox Datacenters,"Skybox Datacenters, within near Interstate 35E, 75146 Lancaster",Dallas,,Texas,USA,5000000 sq.f.,,,300 MW,Hyperscale,LEED Certified,https://www.datacentermap.com/usa/texas/dallas/skybox-powercampus-dallas/,300.0,5000000.0
Texas_Dallas_https://www.datacentermap.com/usa/texas/dallas/powerhouse-irving/,datacentermap,PowerHouse Irving,PowerHouse Data Centers,111 Customer Way,Irving,75039,Texas,USA,2178000 sq.f.,"946,200 sq.f.",2025,200 MW,,,https://www.datacentermap.com/usa/texas/dallas/powerhouse-irving/,200.0,2178000.0
Texas_Dallas_https://www.datacentermap.com/usa/texas/dallas/lincoln-red-oak-campus/,datacentermap,Lincoln Red Oak Campus,Lincoln Property Company,"Lincoln Rackhouse, within Red Oak, Texas along the newly opened Loop 9 highway, 75154 Red Oak",Dallas,75154,Texas,USA,"800,000 sq.f.","800,000 sq.f.",2025,540 MW,Hyperscale,,https://www.datacentermap.com/usa/texas/dallas/lincoln-red-oak-campus/,540.0,800000.0
Texas_Dallas_https://www.datacentermap.com/usa/texas/dallas/irving-location/,datacentermap,Mobius Partners - Farmers Branch,Mobius Partners,4215 N. Beltwood Pkwy,Dallas,75244,Texas,USA,"20,000 sqft","3,400 sqft",,350KW,,,https://www.datacentermap.com/usa/texas/dallas/irving-location/,0.35,20000.0
Texas_Dallas_https://www.datacentermap.com/usa/texas/dallas/databank-dfw10-red-oak/,datacentermap,DataBank DFW10 - Red Oak,DataBank,"DataBank, Stainback Rd, 75154 Red Oak",Dallas,,Texas,USA,"425,170 sq.f.",,2025,240MW,,,https://www.datacentermap.com/usa/texas/dallas/databank-dfw10-red-oak/,240.0,425170.0
Texas_Houston_https://www.datacentermap.com/usa/texas/houston/houston-the-woodlands/,datacentermap,Stream DC Houston I - The Woodlands,Stream Data Centers,4001 Technology Forest Blvd,Houston,77381,Texas,USA,"30,000 sq.f.","30,000 sq.f.",,7.8 MW,,"Tier 3, LEED Silver",https://www.datacentermap.com/usa/texas/houston/houston-the-woodlands/,7.8,30000.0
Texas_Houston_https://www.datacentermap.com/usa/texas/houston/12235-north-fwy-iah14/,datacentermap,12235 North Fwy (IAH14),Digital Realty,12235 North Fwy,Houston,77060,Texas,USA,"42,400 sq.f.","42,400 sq.f.",,6.2 MW,,"DSS PCI Certified, ISO27001 Certified, SOC 2 Type II Certified, SOC 3 Type 2 Certified",https://www.datacentermap.com/usa/texas/houston/12235-north-fwy-iah14/,6.2,42400.0
Texas_Houston_https://www.datacentermap.com/usa/texas/houston/12231-north-fwy-iah13/,datacentermap,12231 North Fwy (IAH13),Digital Realty,12231 North Fwy,Houston,77060,Texas,USA,"30,600 sq.f.",,,3.3 MW,,"DSS PCI Certified, SOC 2 Type II Certified, SOC 3 Type 2 Certified",https://www.datacentermap.com/usa/texas/houston/12231-north-fwy-iah13/,3.3,30600.0
Texas_Houston_https://www.datacentermap.com/usa/texas/houston/digital-realty-houston/,datacentermap,12001-12245 North Freeway (IAH11),Digital Realty,12001-12245 North Freeway,Houston,77060,Texas,USA,"27,500 sq.f.","27,500 sq.f.",1989,3.3 MW,,"DSS PCI Certified, SOC 2 Type II Certified, SOC 3 Type 2 Certified",https://www.datacentermap.com/usa/texas/houston/digital-realty-houston/,3.3,27500.0
Texas_Houston_https://www.datacentermap.com/usa/texas/houston/12001-north-fwy-iah10/,datacentermap,12001 North Fwy (IAH10),Digital Realty,12001 North Fwy,Houston,77060,Texas,USA,"219,600 sq.f.","50,000 sq.f.",,"1,125 kW",,LEED Gold,https://www.datacentermap.com/usa/texas/houston/12001-north-fwy-iah10/,1.125,219600.0
Texas_Houston_https://www.datacentermap.com/usa/texas/houston/stratitsphere-alpha/,datacentermap,EdgeConneX Houston,StratITsphere,1510 Prime West Parkway,Katy,77449,Texas,USA,"91,400 sq.f.","17,700 sq.f.",2011,1 MW,,Tier 4,https://www.datacentermap.com/usa/texas/houston/stratitsphere-alpha/,1.0,91400.0
Texas_Houston_https://www.datacentermap.com/usa/texas/houston/houston-2/,datacentermap,Data Foundry- Houston 2,Data Foundry,660 Greens Pkwy,Houston,77067,Texas,USA,"175,000 sq.f.","350,000 sq.f.",1994,50 kW,,"SOC 2 Type II Certified, SSAE 16 Type 2 Certified",https://www.datacentermap.com/usa/texas/houston/houston-2/,0.05,350000.0
Texas_Houston_https://www.datacentermap.com/usa/texas/houston/skybox-houston-one/,datacentermap,Skybox Houston One,Skybox Datacenters,22000 Franz Road,Houston,77449,Texas,USA,"96,129 sq.f.","96,129 sq.f.",,26 MW,,"Tier 4, LEED Gold, HIPAA",https://www.datacentermap.com/usa/texas/houston/skybox-houston-one/,26.0,96129.0
Texas_Houston_https://www.datacentermap.com/usa/texas/houston/lighthouse-data-center/,datacentermap,Lighthouse Data Center,PS Lightwave,3960 Braxton Dr,Houston,77063,Texas,USA,"12,000 sq.f.","12,000 sq.f.",,0.075 MW,,,https://www.datacentermap.com/usa/texas/houston/lighthouse-data-center/,0.075,12000.0
Texas_Houston_https://www.datacentermap.com/usa/texas/houston/houston-west-campus/,datacentermap,DataBank HOU1 - Westway Park I,DataBank,5150 Westway Park Blvd,Houston,77041,Texas,USA,"110,190 sq.f.","110,190 sq.f.",,23.7 MW,,"SSAE 16 (SOC I type II), PCI DSS (sec 9 & 12), HIPAA, ISO 27001, FISMA, TIA 942 Class 4",https://www.datacentermap.com/usa/texas/houston/houston-west-campus/,23.7,110190.0
Texas_Houston_https://www.datacentermap.com/usa/texas/houston/quasar-data-center/,datacentermap,Quasar Data Center,"NTT, Cogent","1001 Texas Ave, Suite 310",Houston,77002,Texas,USA,8500,8500,,13.7 MW,Tier II,SAS 70 II Certification,https://www.datacentermap.com/usa/texas/houston/quasar-data-center/,13.7,8500.0
Texas_Houston_https://www.datacentermap.com/usa/texas/houston/databank-hou2-westway-park-ii/,datacentermap,DataBank HOU2 - Westway Park II,DataBank,5170 Westway Park Blvd,Houston,77041,Texas,USA,"79,520 sq.f.","79,520 sq.f.",,9 MW,,"DSS, PCI Compliant, ISO27001 Certified, HIPAA, FISMA Certified, SSAE 18 Audited",https://www.datacentermap.com/usa/texas/houston/databank-hou2-westway-park-ii/,9.0,79520.0
Texas_Houston_https://www.datacentermap.com/usa/texas/houston/databank-hou3-westway-park-iii/,datacentermap,DataBank HOU3 - Westway Park III,DataBank,11003 Corporate Centre Dr,Houston,77041,Texas,USA,"41,860 sq.f.","41,860 sq.f.",,4.5 MW,,"DSS PCI Compliant, ISO27001 Certified, HIPAA, FISMA Certified, SSAE 18 Audited",https://www.datacentermap.com/usa/texas/houston/databank-hou3-westway-park-iii/,4.5,41860.0
Texas_Houston_https://www.datacentermap.com/usa/texas/houston/alpheus-houston/,datacentermap,LOGIX Houston #2,LOGIX FIBER NETWORKS,811 Louisiana St,Houston,77002,Texas,USA,,5500,,400,,,https://www.datacentermap.com/usa/texas/houston/alpheus-houston/,400.0,5500.0
Texas_Houston_https://www.datacentermap.com/usa/texas/houston/crown-castle-tx1/,datacentermap,Crown Castle Houston (TX1),Crown Castle,801 Louisiana St,Houston,77002,Texas,USA,"5,370 sq.f.","5,370 sq.f.",2007,1 MW,,,https://www.datacentermap.com/usa/texas/houston/crown-castle-tx1/,1.0,5370.0
Texas_San Antonio_https://www.datacentermap.com/usa/texas/san-antonio/san-antonio-iii/,datacentermap,Stream DC San Antonio III,Stream Data Centers,11203 W Military Drive,San Antonio,78253,Texas,USA,"1,500,000 sq.f.","300,000 sq.f.",2025,200 MW,Hyperscale,,https://www.datacentermap.com/usa/texas/san-antonio/san-antonio-iii/,200.0,1500000.0
Texas_San Antonio_https://www.datacentermap.com/usa/texas/san-antonio/cyrusone-san-antonio/,datacentermap,CyrusOne SAT1 - San Antonio,CyrusOne Data Centers,9999 Westover Hills Blvd,San Antonio,78251,Texas,USA,"40,000 sq.f.","64,000 sq.f.",,9 MW,,"DSS, PCI Compliant, ISO27001 Certified, SAS70 Type 2 Certified, LEED Silver, HIPAA, FISMA Certified, SOC 1 Type II Certified, SOC 2 Type II Certified, SSAE 18 Audited, HITECH",https://www.datacentermap.com/usa/texas/san-antonio/cyrusone-san-antonio/,9.0,64000.0
Texas_San Antonio_https://www.datacentermap.com/usa/texas/san-antonio/cyrusone-sat5/,datacentermap,CyrusOne SAT5 - San Antonio,CyrusOne Data Centers,14719 Omicron Dr.,San Antonio,78245,Texas,USA,"100,000 sq.f.","175,000 sq.f.",,18 MW,,"Tier 4, DSS, PCI Certified, ISO27001 Certified, HIPAA, ISO22301 Certified, SOC 1 Type II Certified, SOC 2 Type II Certified, HITECH",https://www.datacentermap.com/usa/texas/san-antonio/cyrusone-sat5/,18.0,175000.0
Texas_San Antonio_https://www.datacentermap.com/usa/texas/san-antonio/cloudhq-sat-campus/,datacentermap,CloudHQ SAT Campus,,CloudHQ 15255 Lambda Dr,San Antonio,78245,Texas,USA,"3,023,300 sq.f.",,,600 MW,,,https://www.datacentermap.com/usa/texas/san-antonio/cloudhq-sat-campus/,600.0,3023300.0
Texas_Austin_https://www.datacentermap.com/usa/texas/austin/7500-metro-center-drive/,datacentermap,7500 Metro Center Drive (AUS11),Digital Realty,7500 Metro Center Drive,Austin,78744,Texas,USA,"31,600 sq.f.","86,000 sq.f.",2001,4.2 MW,,"Tier Design Tier 3, DSS PCI Certified, SOC 2 Type II Certified, SOC 3 Type 2 Certified",https://www.datacentermap.com/usa/texas/austin/7500-metro-center-drive/,4.2,86000.0
Texas_Austin_https://www.datacentermap.com/usa/texas/austin/cyrusone-aus3/,datacentermap,CyrusOne AUS3 - Austin,CyrusOne Data Centers,7100 Metropolis Drive,Austin,78744,Texas,USA,"172,000 sq.m.","120,000 sq.m.",,24 MW,,"DSS PCI Certified, ISO27001 Certified, HIPAA, FISMA Certified, SOC 1 Type II Certified, SOC 2 Type II Certified, SSAE 18 Audited, HITECH",https://www.datacentermap.com/usa/texas/austin/cyrusone-aus3/,24.0,172000.0
Texas_Austin_https://www.datacentermap.com/usa/texas/austin/data-foundry-texas1/,datacentermap,Data Foundry - Texas 1,Data Foundry,4100 Smith School Road,Austin,78744,Texas,USA,"130,000 sq.f.","130,000 sq.f.",,50 kW,,"DSS PCI Certified, SAS70 Type 2 Certified, HIPAA, SSAE 16 Type 2 Certified",https://www.datacentermap.com/usa/texas/austin/data-foundry-texas1/,0.05,130000.0
Texas_Austin_https://www.datacentermap.com/usa/texas/austin/thin-nology/,datacentermap,Thin-nology Data Center,Thin-nology LLC,3804 Helios Way,Austin,78660,Texas,USA,"5,200 sq.f.","8,000 sq.f.",,2 MW,,Tier 3,https://www.datacentermap.com/usa/texas/austin/thin-nology/,2.0,8000.0
Texas_Austin_https://www.datacentermap.com/usa/texas/austin/data-foundry-texas-2/,datacentermap,Data Foundry - Texas 2,Data Foundry,4100 Smith School Rd,Austin,78744,Texas,USA,"165,000 sq.f.","325,000 sq.f.",,36 MW,,SSAE 16 Type 2 Certified,https://www.datacentermap.com/usa/texas/austin/data-foundry-texas-2/,36.0,325000.0
Texas_Austin_https://www.datacentermap.com/usa/texas/austin/zcolo-7218-mcneil-dr/,datacentermap,DataBank AUS1 - Austin,DataBank,7218 McNeil Dr,Austin,78729,Texas,USA,"7,870 sq.f.","7,870 sq.f.",,0.405 MW,,"DSS, PCI Compliant, ISO27001 Certified, HIPAA, SSAE 18 Audited",https://www.datacentermap.com/usa/texas/austin/zcolo-7218-mcneil-dr/,0.405,7870.0
Texas_Austin_https://www.datacentermap.com/usa/texas/austin/skybox-austin/,datacentermap,Skybox Austin,Skybox Datacenters,600 New Meister Ln,Austin,78660,Texas,USA,"141,000 sq.f.","53,245 sq.f.",,30 MW,,"Tier Design Tier 3, LEED Certified",https://www.datacentermap.com/usa/texas/austin/skybox-austin/,30.0,141000.0
Texas_Austin_https://www.datacentermap.com/usa/texas/austin/sdc-austin/,datacentermap,SDC Austin,Sabey Data Center Properties LLC,1300 Louis Henna Blvd,Austin,78664,Texas,USA,"430,000 sq.f.","430,000 sq.f.",,84 MW,,"Tier 3, DSS, PCI Compliant, ISO27001 Certified, HIPAA, SOC 1 Type II Certified, SOC 2 Type II Certified, SSAE 18 Audited, HITECH",https://www.datacentermap.com/usa/texas/austin/sdc-austin/,84.0,430000.0
Texas_Austin_https://www.datacentermap.com/usa/texas/austin/core-scientific-austin/,datacentermap,Core Scientific Austin,,"Core Scientific, 3301 Hibbetts Rd, 78725",Austin,,Texas,USA,"312,000 sq.f.","118,000 sq.f.",2024,16 MW,,,https://www.datacentermap.com/usa/texas/austin/core-scientific-austin/,16.0,312000.0
Texas_Austin_https://www.datacentermap.com/usa/texas/austin/skybox-powercampus-austin/,datacentermap,Skybox PowerCampus Austin,Skybox Datacenters,"Skybox Datacenters, within about 25 miles north of Downtown Austin, 78634 Hutto",Austin,78634,Texas,USA,"3,880,000 sq.f.","3,880,000 sq.f.",,600 MW,Enterprise,LEED Certified,https://www.datacentermap.com/usa/texas/austin/skybox-powercampus-austin/,600.0,3880000.0
Texas_McAllen_https://www.datacentermap.com/usa/texas/mcallen/carriercom/,datacentermap,Chase Tower McAllen,1547 Critical Systems Realty,200 S 10th St Suite 1205,McAllen,78501,Texas,USA,"209,000 sq.f.","209,000 sq.f.",,1.5 MW,,,https://www.datacentermap.com/usa/texas/mcallen/carriercom/,1.5,209000.0
Texas_Eagle Pass_https://www.datacentermap.com/usa/texas/eagle-pass/mdc-eagle-pass/,datacentermap,MDC Eagle Pass - EGP1,MDC Data Centers,464 Bliss St,Eagle Pass,78852,Texas,USA,"1,500 sq.f.","5,208 sq.f.",2023,0.5 MW,,Tier 3,https://www.datacentermap.com/usa/texas/eagle-pass/mdc-eagle-pass/,0.5,5208.0
Texas_Fort Stockton_https://www.datacentermap.com/usa/texas/fort-stockton/fort-stockton-clean-campus/,datacentermap,Fort Stockton Clean Campus,Lancium,1753 US Hwy 285,Fort Stockton,79735,Texas,USA,"100,000 square feet",,,25 MW,,,https://www.datacentermap.com/usa/texas/fort-stockton/fort-stockton-clean-campus/,25.0,100000.0
Texas_Montgomery TX_https://www.datacentermap.com/usa/texas/montgomery-tx/montgomery-westland-bunker/,datacentermap,Data Journey The Bunker,,Data Journey 550 Club Dr.,Montgomery TX,77316,Texas,USA,"70,000 sq.f.","240,000 sq.f.",1981,200 MW,,,https://www.datacentermap.com/usa/texas/montgomery-tx/montgomery-westland-bunker/,200.0,240000.0
Texas_Pecos_https://www.datacentermap.com/usa/texas/pecos/core-scientific-pecos/,datacentermap,Core Scientific Pecos,Core Scientific,"Core Scientific, 1939 Farm to Market 2119",Pecos,79772,Texas,USA,"125,000 sq.f.",,2022,234.0,,,https://www.datacentermap.com/usa/texas/pecos/core-scientific-pecos/,234.0,125000.0
California_Los Angeles_https://www.datacentermap.com/usa/california/los-angeles/600-west-7th-street/,datacentermap,600 West 7th Street (LAX10),Digital Realty,600 West 7th Street,Los Angeles,90017,California,USA,"70,300 sq.f.","490,000 sq.f.",1934,9 MW,,"Tier 3, DSS, PCI Certified, ISO27001 Certified, LEED Gold, HIPAA, SOC 2 Type II Certified, SOC 3 Type 2 Certified, NIST 800-53 Security",https://www.datacentermap.com/usa/california/los-angeles/600-west-7th-street/,9.0,490000.0
California_Los Angeles_https://www.datacentermap.com/usa/california/los-angeles/2260-e-el-segundo/,datacentermap,2260 E El Segundo Blvd (LAX12),Digital Realty,2260 East El Segundo Boulevard,Los Angeles,90245,California,USA,"66,800 sq.f.","132,000 sq.f.",1979,7.1 MW,,"Tier 3, DSS, PCI Certified, ISO27001 Certified, SOC 2 Type II Certified, SOC 3 Type 2 Certified",https://www.datacentermap.com/usa/california/los-angeles/2260-e-el-segundo/,7.1,132000.0
California_Los Angeles_https://www.datacentermap.com/usa/california/los-angeles/la2/,datacentermap,Hivelocity - Los Angeles 2,Hivelocity,600 W. 7th St,Los Angeles,90017,California,USA,"490,000 sq.f.","490,000 sq.f.",2000,10 MW,,"Tier 4, DSS PCI Certified, SAS70 Type 2 Certified, HIPAA, SOC 1 Type II Certified, SOC 2 Type II Certified, SSAE 16 Type 2 Certified",https://www.datacentermap.com/usa/california/los-angeles/la2/,10.0,490000.0
California_Los Angeles_https://www.datacentermap.com/usa/california/los-angeles/one-wilshire-building/,datacentermap,One Wilshire,CoreSite,"GI Property Management, 624 South Grand Avenue, 90017",Los Angeles,,California,USA,"662,000 sq.f.","662,000 sq.f.",1966,32 MW,,,https://www.datacentermap.com/usa/california/los-angeles/one-wilshire-building/,32.0,662000.0
California_Los Angeles_https://www.datacentermap.com/usa/california/los-angeles/internap-los-angeles/,datacentermap,Evocative LAX14,Evocative Data Centers,3690 Redondo Beach Avenue,Los Angeles,90278,California,USA,"24,345 sq.f.","104,000 sq.f.",,7.5 MW,,"DSS PCI Compliant, HIPAA, SOC 2 Type II Certified, SOC 3 Type 1 Certified",https://www.datacentermap.com/usa/california/los-angeles/internap-los-angeles/,7.5,104000.0
California_Los Angeles_https://www.datacentermap.com/usa/california/los-angeles/colocation-america-telecom-center/,datacentermap,Colocation America LADC4,Colocation America,530 W. 6th St,Los Angeles,90017,California,USA,,"500,000",,0.15,,"Tier 3, DSS, PCI Certified, SAS70 Type 2 Certified, HIPAA",https://www.datacentermap.com/usa/california/los-angeles/colocation-america-telecom-center/,0.15,500000.0
California_Los Angeles_https://www.datacentermap.com/usa/california/los-angeles/la2-los-angles-evocative-dc/,datacentermap,Evocative LAX2,Evocative Data Centers,600 W 7th Street Suite 510,Los Angeles,90017,California,USA,"30,000 sq.f.",,,27 MW,,"DSS, PCI Compliant, HIPAA, SOC 2 Type II Certified, SOC 3 Type 1 Certified",https://www.datacentermap.com/usa/california/los-angeles/la2-los-angles-evocative-dc/,27.0,30000.0
California_Los Angeles_https://www.datacentermap.com/usa/california/los-angeles/is-west-agoura-ct/,datacentermap,Converge Technology Solutions Data Center,KeyInfo,30077 Agoura Ct,Agoura Hills,91301,California,USA,"6,000 sq.f.","6,000 sq.f.",2006,1 MW,Enterprise,Tier 3,https://www.datacentermap.com/usa/california/los-angeles/is-west-agoura-ct/,1.0,6000.0
California_Los Angeles_https://www.datacentermap.com/usa/california/los-angeles/telehouse-los-angeles/,datacentermap,TELEHOUSE Los Angeles Center,Telehouse America,626 Wilshire Boulevard,Los Angeles,90017,California,USA,,"13,000 square feet",1998,0.665 MW,,SSAE 16 compliant,https://www.datacentermap.com/usa/california/los-angeles/telehouse-los-angeles/,0.665,13000.0
California_Los Angeles_https://www.datacentermap.com/usa/california/los-angeles/cyxtera-lax2a/,datacentermap,Centersquare - Los Angeles LAX2,Cyxtera,3015 Winona Avenue,Burbank,91504,California,USA,"90,000 sq.f.","15,357 sq.f.",,2 MW,,"DSS PCI Certified, ISO27001 Certified, ISAE3402 Type 2 Certified, SOC 1 Type II Certified, SOC 2 Type II Certified, SSAE 18 Audited, NIST 800-53 Certified",https://www.datacentermap.com/usa/california/los-angeles/cyxtera-lax2a/,2.0,90000.0
California_Los Angeles_https://www.datacentermap.com/usa/california/los-angeles/vernon-data-center/,datacentermap,Vernon Data Center,"Downtown Properties Holdings, LLC",5001 S. Soto Street,Los Angeles,90058,California,USA,"300,000 sq.f.","300,000 sq.f.",2008,52 MW,,,https://www.datacentermap.com/usa/california/los-angeles/vernon-data-center/,52.0,300000.0
California_San Jose_https://www.datacentermap.com/usa/california/san-jose/prime-san-jose/,datacentermap,Prime San Jose,Prime Data Centers,6580 Via del Oro,San Jose,95119,California,USA,"45,000 sq.f.","80,000 sq.f.",,10 MW,,"Tier 3, ISO27001 Certified, SOC 2 Type II Certified",https://www.datacentermap.com/usa/california/san-jose/prime-san-jose/,10.0,80000.0
California_San Jose_https://www.datacentermap.com/usa/california/san-jose/equinix-sv12x/,datacentermap,Equinix SV12x,Equinix,"within Equinix's Great Oaks data center campus in San Jose, CA, 95119 San Jose",San Jose,95119,California,USA,"76,000 sq.f.","76,000 sq.f.",2024,28.8 MW,Hyperscale,,https://www.datacentermap.com/usa/california/san-jose/equinix-sv12x/,28.8,76000.0
California_San Jose_https://www.datacentermap.com/usa/california/san-jose/microsoft-alviso-milpitas-campus/,datacentermap,Microsoft Alviso-Milpitas Campus,Microsoft,1657 Alviso Milpitas Rd,San Jose,95134,California,USA,"396,914 sq.f.",,,99 MW,,,https://www.datacentermap.com/usa/california/san-jose/microsoft-alviso-milpitas-campus/,99.0,396914.0
California_San Jose_https://www.datacentermap.com/usa/california/san-jose/quality-santa-clara-1/,datacentermap,QTS Santa Clara I & II,"QTS Realty Trust, Inc.",2805/2807 Mission College Blvd,Santa Clara,95054,California,USA,"135,322 sq.f.","135,322 sq.f.",,7.5 MW,Hyperscale,"DSS PCI Certified, ISO27001 Certified, LEED Silver, FISMA Certified, SOC 1 Type II Certified, SOC 2 Type II Certified, SSAE 18 Audited",https://www.datacentermap.com/usa/california/san-jose/quality-santa-clara-1/,7.5,135322.0
California_San Jose_https://www.datacentermap.com/usa/california/san-jose/data-pipe-san-jose/,datacentermap,Rackspace San Jose,,"Rackspace Hosting, 150 South 1st St, 95113 San Jose",San Jose,,California,USA,"65,000 sq.f.",,,5.4 MW,,"DSS, PCI Certified, ISO27001 Certified, ISO9001 Certified, ISO14001 Certified, SOC 1 Type II Certified, SOC 2 Type II Certified, SOC 3 Type 2 Certified, SSAE 18 Audited",https://www.datacentermap.com/usa/california/san-jose/data-pipe-san-jose/,5.4,65000.0
California_San Jose_https://www.datacentermap.com/usa/california/san-jose/fortune/,datacentermap,STACK Infrastructure SVY01A,STACK INFRASTRUCTURE,2001 Fortune Drive,San Jose,95131,California,USA,"140,000 sq.f.","140,000 sq.f.",2009,9 MW,,"LEED Gold, ISO 9001, Tier 3, DSS, PCI Compliant, ISO27001 Certified, HIPAA, SSAE 18 Audited, HITECH",https://www.datacentermap.com/usa/california/san-jose/fortune/,9.0,140000.0
California_Fremont_https://www.datacentermap.com/usa/california/fremont/t5-data-centers-t5silicon-valley/,datacentermap,T5 Data Centers - T5@Silicon Valley,T5 Data Centers,39800 Eureka Dr,Newark,94560,California,USA,"128,566 sq.f.","128,566 sq.f.",,8.5 MW,,,https://www.datacentermap.com/usa/california/fremont/t5-data-centers-t5silicon-valley/,8.5,128566.0
California_Fremont_https://www.datacentermap.com/usa/california/fremont/prime-hayward/,datacentermap,Prime Silicon Valley - Hayward,Prime Data Centers,26415 Corporate Ave,Hayward,94545,California,USA,"146,000 sq.f.","146,000 sq.f.",,20 MW,Hyperscale,,https://www.datacentermap.com/usa/california/fremont/prime-hayward/,20.0,146000.0
California_San Francisco_https://www.datacentermap.com/usa/california/san-francisco/365-main-st/,datacentermap,365 Main Street (SFO12),Digital Realty,365 Main Street,San Francisco,94105,California,USA,"75,000 sq.f.","227,000 sq.f.",1940,8.6 MW,Enterprise,"Tier 3, DSS, PCI Certified, ISO27001, LEED, SOC 2 Type II Certified, SOC 3 Type 2 Certified, NIST 800-53",https://www.datacentermap.com/usa/california/san-francisco/365-main-st/,8.6,227000.0
California_San Francisco_https://www.datacentermap.com/usa/california/san-francisco/200-paul-avenue/,datacentermap,200 Paul Avenue (SFO10),Digital Realty,200 Paul Avenue,San Francisco,94124,California,USA,"117,700 sq.f.","527,000 sq.f.",1955,15.3 MW,,"Tier 3, DSS PCI Certified, LEED, SOC 2 Type II Certified, SOC 3 Type 2 Certified",https://www.datacentermap.com/usa/california/san-francisco/200-paul-avenue/,15.3,527000.0
California_San Francisco_https://www.datacentermap.com/usa/california/san-francisco/colocation-america-200-paul/,datacentermap,Colocation America SFDC1,Colocation America,200 Paul Ave,San Francisco,94124,California,USA,"32,000 sq.f.","32,000 sq.f.",2008,0.15 kW/sq.f.,,"Tier 3 DSS PCI Certified, SAS70 Type 2 Certified, HIPAA",https://www.datacentermap.com/usa/california/san-francisco/colocation-america-200-paul/,0.00015,32000.0
California_San Francisco_https://www.datacentermap.com/usa/california/san-francisco/novva-san-francisco/,datacentermap,Novva San Francisco,Novva,400 Paul Ave,San Francisco,94124,California,USA,"182,000 sq.f.","182,000 sq.f.",,36 MW,,DSS PCI Compliant,https://www.datacentermap.com/usa/california/san-francisco/novva-san-francisco/,36.0,182000.0
California_San Francisco_https://www.datacentermap.com/usa/california/san-francisco/cyxtera-sfo3b/,datacentermap,Centersquare - Silicon Valley SFO3-B,Cyxtera,1320 Kifer Rd,Sunnyvale,94086,California,USA,"378,000","49,000",,8 MW,,"DSS PCI Certified, ISO27001 Certified, ISAE3402 Type 2 Certified, SOC 1 Type II Certified, SOC 2 Type II Certified, SSAE 18 Audited, NIST 800-53 Certified",https://www.datacentermap.com/usa/california/san-francisco/cyxtera-sfo3b/,8.0,378000.0
California_Santa Clara_https://www.datacentermap.com/usa/california/santa-clara/1100-space-park-drive/,datacentermap,1100 Space Park Dr (SJC10),Digital Realty,1100 Space Park Drive,Santa Clara,95054,California,USA,"67,900 sq.f.","165,000 sq.f.",2001,6.3 MW,,"Tier 3, DSS, PCI Certified, ISO27001 Certified, HIPAA, SOC 2 Type II Certified, SOC 3 Type 2 Certified, NIST 800-53 Security",https://www.datacentermap.com/usa/california/santa-clara/1100-space-park-drive/,6.3,165000.0
California_Santa Clara_https://www.datacentermap.com/usa/california/santa-clara/3105-alfred-rd/,datacentermap,3105 Alfred Rd (SJC30),Digital Realty,3105 Alfred Road,Santa Clara,95054,California,USA,"26,900 sq.f.","50,000 sq.f.",1974,4.5 MW,,"LEED Gold, SOC 2 Type II Certified, SOC 3 Type 2 Certified",https://www.datacentermap.com/usa/california/santa-clara/3105-alfred-rd/,4.5,50000.0
California_Santa Clara_https://www.datacentermap.com/usa/california/santa-clara/1550-space-park/,datacentermap,1500 Space Park Dr (SJC14),Digital Realty,1500 Space Park Dr,Santa Clara,95054,California,USA,"65,500 sq.f.","65,500 sq.f.",1969,4.8 MW,,Gold LEED,https://www.datacentermap.com/usa/california/santa-clara/1550-space-park/,4.8,65500.0
California_Santa Clara_https://www.datacentermap.com/usa/california/santa-clara/telx-scl2/,datacentermap,2820 Northwestern Pkwy (SJC34),Digital Realty,2820 Northwestern Pkwy,Santa Clara,95051,California,USA,"22,700 sq.f.","38,000 sq.f.",,5.7 MW,,"DSS PCI Compliant, ISO27001 Certified, HIPAA, SOC 2 Type II Certified, SOC 3 Type 2 Certified, NIST 800-53",https://www.datacentermap.com/usa/california/santa-clara/telx-scl2/,5.7,38000.0
California_Santa Clara_https://www.datacentermap.com/usa/california/santa-clara/3115-alfred-rd/,datacentermap,3205 Alfred St (SJC35),Digital Realty,3205 Alfred Street,Santa Clara,95054,California,USA,"34,200 sq.f.","66,000 sq.f.",2018,6 MW,,"Tier 3, DSS, PCI Compliant, LEED Gold, SOC 2 Type II Certified, SOC 3 Type 2 Certified",https://www.datacentermap.com/usa/california/santa-clara/3115-alfred-rd/,6.0,66000.0
California_Santa Clara_https://www.datacentermap.com/usa/california/santa-clara/1525-comstock-street/,datacentermap,1525 Comstock St (SJC16),Digital Realty,1525 Comstock Street,Santa Clara,95054,California,USA,"65,500 sq.f.",,1980,"4,500 kW",,Platinum LEED certified,https://www.datacentermap.com/usa/california/santa-clara/1525-comstock-street/,4.5,65500.0
California_Santa Clara_https://www.datacentermap.com/usa/california/santa-clara/2805-lafayette/,datacentermap,2805 Lafayette St (SJC31),Digital Realty,2805 Lafayette Street,Santa Clara,95050,California,USA,"55,800 sq.f.","145,800 sq.f.",1984,9.3 MW,,DSS PCI Certified ISO27001 Certified ISO9001 Certified ISO14001 Certified ISO50001 Certified SOC 2 Type II Certified SOC 3 Type 2 Certified,https://www.datacentermap.com/usa/california/santa-clara/2805-lafayette/,9.3,145800.0
California_Santa Clara_https://www.datacentermap.com/usa/california/santa-clara/1201-comstock-street/,datacentermap,1201 Comstock St (SJC15),Digital Realty,1201 Comstock Street,Santa Clara,95054,California,USA,"65,500 sq.f.","65,500 sq.f.",1975,2.2 MW,,LEED Platinum,https://www.datacentermap.com/usa/california/santa-clara/1201-comstock-street/,2.2,65500.0
California_Santa Clara_https://www.datacentermap.com/usa/california/santa-clara/centersquare-silicon-valley-sfo4-b/,datacentermap,Centersquare - Silicon Valley SFO4-B,,1550 Space Park Dr,Santa Clara,95054,California,USA,"40,664 sq.f.","31,448 sq.f.",,3.3 MW,,"Tier 3, DSS, PCI Certified, ISO27001 Certified, ISAE3402 Type 2 Certified, SOC 1 Type I Certified, SOC 2 Type II Certified, NIST 800-53 Certified",https://www.datacentermap.com/usa/california/santa-clara/centersquare-silicon-valley-sfo4-b/,3.3,40664.0
California_Santa Clara_https://www.datacentermap.com/usa/california/santa-clara/3011-lafayette-street/,datacentermap,3011 Lafayette St (SJC11),Digital Realty,3011 Lafayette Street,Santa Clara,95054,California,USA,"51,000 sq.f.","90,800 sq.f.",2001,6 MW,,"DSS, PCI Compliant, SOC 2 Type II Certified, SOC 3 Type 2 Certified",https://www.datacentermap.com/usa/california/santa-clara/3011-lafayette-street/,6.0,90800.0
California_Santa Clara_https://www.datacentermap.com/usa/california/santa-clara/ntt-silicon-valley-sv1/,datacentermap,NTT Silicon Valley SV1,NTT Global Data Centers,1160 Walsh Avenue,Santa Clara,95050,California,USA,"64,090 sq.f.","64,090 sq.f.",,16 MW,,"DSS PCI Certified, ISO27001 Certified, LEED Gold, HIPAA, SOC 1 Type II Certified, SOC 2 Type II Certified, NIST 800-53 Certified",https://www.datacentermap.com/usa/california/santa-clara/ntt-silicon-valley-sv1/,16.0,64090.0
California_Santa Clara_https://www.datacentermap.com/usa/california/santa-clara/svcolo-santa-clara/,datacentermap,EdgeConneX Santa Clara - EDCSVC02,EdgeConneX,1700 Richard Avenue,Santa Clara,95050,California,USA,"19,800 sq.f.","11,700 sq.f.",2001,1.8 MW,,"Tier Design Tier 3, DSS, PCI Compliant, ISO27001 Certified, HIPAA, SOC 2 Type II Certified",https://www.datacentermap.com/usa/california/santa-clara/svcolo-santa-clara/,1.8,19800.0
California_Santa Clara_https://www.datacentermap.com/usa/california/santa-clara/internap-santa-clara/,datacentermap,Evocative SJC11,Evocative Data Centers,2151 Mission College Blvd,Santa Clara,95054,California,USA,"73,000 sq.f.","73,000 sq.f.",,9 MW,,"DSS PCI Compliant, HIPAA, SOC 2 Type II Certified, SOC 3 Type 1 Certified",https://www.datacentermap.com/usa/california/santa-clara/internap-santa-clara/,9.0,73000.0
California_Santa Clara_https://www.datacentermap.com/usa/california/santa-clara/prime-santa-clara-1/,datacentermap,Prime Santa Clara - 1111 Comstock,Prime Data Centers,1111 Comstock St,Santa Clara,95054,California,USA,"36,684 sq.f.","122,576 sq.f.",,9 MW,,"Tier 3, SOC 2 Type II Certified",https://www.datacentermap.com/usa/california/santa-clara/prime-santa-clara-1/,9.0,122576.0
California_Santa Clara_https://www.datacentermap.com/usa/california/santa-clara/prime-santa-clara-2/,datacentermap,Prime Santa Clara - 1231 Comstock,Prime Data Centers,1231 Comstock St,Santa Clara,95054,California,USA,"28,840 sq.f.","111,974 sq.f.",,9 MW,,"Tier 3, ISO27001 Certified, SOC 2 Type II Certified",https://www.datacentermap.com/usa/california/santa-clara/prime-santa-clara-2/,9.0,111974.0
California_Santa Clara_https://www.datacentermap.com/usa/california/santa-clara/cyrusone-scv1/,datacentermap,CyrusOne SCV1 - Santa Clara,CyrusOne Data Centers,2600 De La Cruz Blvd.,Santa Clara,95050,California,USA,"375,800 sq.f.","703,450 sq.f.",,67.5 MW,,,https://www.datacentermap.com/usa/california/santa-clara/cyrusone-scv1/,67.5,703450.0
California_Santa Clara_https://www.datacentermap.com/usa/california/santa-clara/equinix-santa-clara/,datacentermap,Equinix SV2,,Equinix 1350 Duane Ave,Santa Clara,95054,California,USA,"74,974 sq.f.",,,"9 x 2,000 kW diesel generators",,"DSS, PCI Certified, ISO27001 Certified, LEED Certified, HIPAA, ISO22301 Certified, ISO50001 Certified, FISMA Certified, SOC 1 Type II Certified, SOC 2 Type II Certified, NIST 800-53 Certified",https://www.datacentermap.com/usa/california/santa-clara/equinix-santa-clara/,18.0,74974.0
California_Santa Clara_https://www.datacentermap.com/usa/california/santa-clara/prime-santa-clara-3/,datacentermap,Prime Santa Clara - 2215 Martin,Prime Data Centers,2215 Martin Ave,Santa Clara,95050,California,USA,"32,738 sq.f.","79,356 sq.f.",,9 MW,,,https://www.datacentermap.com/usa/california/santa-clara/prime-santa-clara-3/,9.0,79356.0
California_Santa Clara_https://www.datacentermap.com/usa/california/santa-clara/databank-sfo1/,datacentermap,DataBank SFO1 - Silicon Valley,DataBank,5101 Lafayette Street,Santa Clara,95054,California,USA,"13,770 sq.f.","13,770 sq.f.",,3 MW,,DSS PCI Compliant ISO27001 Certified HIPAA SSAE 18 Audited,https://www.datacentermap.com/usa/california/santa-clara/databank-sfo1/,3.0,13770.0
California_Santa Clara_https://www.datacentermap.com/usa/california/santa-clara/edgecore-silicon-valley-sv01/,datacentermap,EdgeCore Silicon Valley SV01,,EdgeCore 2201 Laurelwood Rd,Santa Clara,95054,California,USA,"255,198 sq.f.",,,36 MW,,LEED Certified,https://www.datacentermap.com/usa/california/santa-clara/edgecore-silicon-valley-sv01/,36.0,255198.0
California_Santa Clara_https://www.datacentermap.com/usa/california/santa-clara/stack-infrastructure-svy02a/,datacentermap,STACK Infrastructure SVY02A,STACK INFRASTRUCTURE,1200 Memorex Dr,Santa Clara,95050,California,USA,"192,000 sq.f.","192,000 sq.f.",,36 MW,Hyperscale,DSS PCI Compliant ISO27001 Certified LEED HIPAA SSAE 18 Audited HITECH,https://www.datacentermap.com/usa/california/santa-clara/stack-infrastructure-svy02a/,36.0,192000.0
California_Santa Clara_https://www.datacentermap.com/usa/california/santa-clara/cyxtera-sfo1a/,datacentermap,Centersquare - Silicon Valley SFO1-A,Cyxtera,2401 Walsh Ave.,Santa Clara,95051,California,USA,"145,084 sq.f.","105,690 sq.f.",,4.8 MW,,"Tier 3, DSS, PCI Certified, ISO27001 Certified, ISAE3402 Type 2 Certified, SOC 1 Type II Certified, SOC 2 Type II Certified, SSAE 18 Audited, NIST 800-53 Certified",https://www.datacentermap.com/usa/california/santa-clara/cyxtera-sfo1a/,4.8,145084.0
California_Santa Clara_https://www.datacentermap.com/usa/california/santa-clara/cyxtera-sfo2a/,datacentermap,Centersquare - Silicon Valley SFO2-A,Cyxtera,4700 Old Ironsides Dr,Santa Clara,95054,California,USA,"71,034 sq.f.","90,000 sq.f.",,6 MW,,"Tier 3, DSS, PCI Certified, ISO27001 Certified, ISAE3402 Type 2 Certified, SOC 1 Type II Certified, SOC 2 Type II Certified, SSAE 18 Audited, NIST 800-53 Certified",https://www.datacentermap.com/usa/california/santa-clara/cyxtera-sfo2a/,6.0,90000.0
California_Santa Clara_https://www.datacentermap.com/usa/california/santa-clara/cyxtera-sfo2b/,datacentermap,Centersquare - Silicon Valley SFO2-B,Cyxtera,4650 Old Ironsides Dr,Santa Clara,95054,California,USA,"88,607 sq.f.","128,000 sq.f.",,7.6 MW,,"Tier 3, DSS, PCI Certified, ISO27001 Certified, ISAE3402 Type 2 Certified, SOC 1 Type II Certified, SOC 2 Type II Certified, SSAE 18 Audited, NIST 800-53 Certified",https://www.datacentermap.com/usa/california/santa-clara/cyxtera-sfo2b/,7.6,128000.0
California_Santa Clara_https://www.datacentermap.com/usa/california/santa-clara/cyxtera-sfo1b/,datacentermap,Centersquare - Silicon Valley SFO1-B,Cyxtera,2403 Walsh Ave.,Santa Clara,95051,California,USA,"64,687 sq.f.","88,581 sq.f.",,4.8 MW,,"Tier 3, DSS, PCI Certified, ISO27001 Certified, ISAE3402 Type 2 Certified, SOC 1 Type II Certified, SOC 2 Type II Certified, SSAE 18 Audited, NIST 800-53 Certified",https://www.datacentermap.com/usa/california/santa-clara/cyxtera-sfo1b/,4.8,88581.0
California_Santa Clara_https://www.datacentermap.com/usa/california/santa-clara/vantage-ca3-santa-clara-iii/,datacentermap,Vantage CA3 - Santa Clara III,Vantage Data Centers,2590 Walsh Ave,Santa Clara,95051,California,USA,"486,000 sq.f.","486,000 sq.f.",,64 MW,,,https://www.datacentermap.com/usa/california/santa-clara/vantage-ca3-santa-clara-iii/,64.0,486000.0
California_Santa Clara_https://www.datacentermap.com/usa/california/santa-clara/lightedge-santa-clara/,datacentermap,LightEdge - Santa Clara,LightEdge,2805 Bowers Ave,Santa Clara,95051,California,USA,"244,070 sq.f.","244,070 sq.f.",,72 MW,,,https://www.datacentermap.com/usa/california/santa-clara/lightedge-santa-clara/,72.0,244070.0
California_Santa Clara_https://www.datacentermap.com/usa/california/santa-clara/vantage-ca2-building-1/,datacentermap,Vantage CA2 - Building 1,Vantage Data Centers,765 Mathew St,Santa Clara,95050,California,USA,"541,000","541,000",,75MW,,,https://www.datacentermap.com/usa/california/santa-clara/vantage-ca2-building-1/,75.0,541000.0
California_Santa Clara_https://www.datacentermap.com/usa/california/santa-clara/vantage-ca2-building-2/,datacentermap,Vantage CA2 - Building 2,Vantage Data Centers,651 Mathew St,Santa Clara,95050,California,USA,"541,000","541,000",,75MW,,,https://www.datacentermap.com/usa/california/santa-clara/vantage-ca2-building-2/,75.0,541000.0
California_Santa Clara_https://www.datacentermap.com/usa/california/santa-clara/vantage-ca2-building-3/,datacentermap,Vantage CA2 - Building 3,Vantage Data Centers,737 Mathew St,Santa Clara,95050,California,USA,"541,000","541,000",,75MW,,,https://www.datacentermap.com/usa/california/santa-clara/vantage-ca2-building-3/,75.0,541000.0
California_Santa Clara_https://www.datacentermap.com/usa/california/santa-clara/vantage-ca2-santa-clara-ii-campus/,datacentermap,Vantage CA2 -Santa Clara II Campus,Vantage Data Centers,625-765 Mathew St,Santa Clara,95050,California,USA,"541,000 square feet","541,000 square feet",,75MW,,,https://www.datacentermap.com/usa/california/santa-clara/vantage-ca2-santa-clara-ii-campus/,75.0,541000.0
California_Sacramento_https://www.datacentermap.com/usa/california/sacramento/ntt-sacramento-ca3/,datacentermap,NTT Sacramento CA3,,1625 West National Drive,Sacramento,,California,USA,"68,469 sq.f.","68,469 sq.f.",,14 MW,,DSS PCI Certified ISO27001 Certified LEED Gold HIPAA SOC 1 Type II Certified SOC 2 Type II Certified NIST 800-53 Certified,https://www.datacentermap.com/usa/california/sacramento/ntt-sacramento-ca3/,14.0,68469.0
California_Sacramento_https://www.datacentermap.com/usa/california/sacramento/prime-building-one/,datacentermap,Prime Sacramento Data Center Campus,Prime Data Centers,2407 AK Street,Sacramento,95652,California,USA,"114,711 sq.f.","215,000 sq.f.",2019,26 MW,,"Tier 3, ISO27001 Certified, SOC 2 Type II Certified",https://www.datacentermap.com/usa/california/sacramento/prime-building-one/,26.0,215000.0
California_Sacramento_https://www.datacentermap.com/usa/california/sacramento/ntt-sacramento-ca2/,datacentermap,NTT Sacramento CA2,NTT Global Data Centers,1312 Striker Avenue,Sacramento,95834,California,USA,"87,855 sq.f.","87,855 sq.f.",,26.1 MW,,"DSS, PCI Certified, ISO27001 Certified, LEED Gold, HIPAA, SOC 1 Type II Certified, SOC 2 Type II Certified, NIST 800-53 Certified",https://www.datacentermap.com/usa/california/sacramento/ntt-sacramento-ca2/,26.1,87855.0
California_Sacramento_https://www.datacentermap.com/usa/california/sacramento/quest-roseville-sdc/,datacentermap,Quest Roseville HABC,Quest Technology Management,9000 Foothills Blvd,Roseville,95765,California,USA,"20,000 sq.f.","20,000 sq.f.",2014,8 MW,,"Tier 3, SSAE 16 Type II, DSS, PCI Compliant, SAS70 Type 2 Certified, HIPAA",https://www.datacentermap.com/usa/california/sacramento/quest-roseville-sdc/,8.0,20000.0
California_Sacramento_https://www.datacentermap.com/usa/california/sacramento/edcsac01/,datacentermap,EdgeConneX Sacramento - EDCSAC01,EdgeConneX,10980 Gold Center Dr,Sacramento,95670,California,USA,"28,500 sq.f.","6,500 sq.f.",,1.5 MW,,"Tier Design Tier 3, DSS, PCI Compliant, ISO27001 Certified, HIPAA, SOC 2 Type II Certified",https://www.datacentermap.com/usa/california/sacramento/edcsac01/,1.5,28500.0
California_Sacramento_https://www.datacentermap.com/usa/california/sacramento/prime-sacramento-dc2/,datacentermap,Prime Sacramento - Data Center 2,Prime Data Centers,2408 AK Street,Sacramento,95652,California,USA,"75,000 sq.f.","150,000 sq.f.",,18 MW,,"Tier 3, ISO27001 Certified, SOC 2 Type II Certified",https://www.datacentermap.com/usa/california/sacramento/prime-sacramento-dc2/,18.0,150000.0
California_Sacramento_https://www.datacentermap.com/usa/california/sacramento/datacate/,datacentermap,Datacate Rancho Cordova,Datacate Inc.,2999 Gold Canal Dr.,Sacramento,95670,California,USA,"18,000 sq.f.","12,000 sq.f.",,1.4 MW,,"HIPAA, SOC 2 Type II Certified, SOC 3 Type 2 Certified",https://www.datacentermap.com/usa/california/sacramento/datacate/,1.4,18000.0
California_Sacramento_https://www.datacentermap.com/usa/california/sacramento/sungard-sacramento/,datacentermap,365 Data Centers - Rancho Cordova,,"365 Data Centers, 11085 Sun Center Dr, 95670 Rancho Cordova",Sacramento,,California,USA,"69,000 sq.f.",,,5 MW,,,https://www.datacentermap.com/usa/california/sacramento/sungard-sacramento/,5.0,69000.0
California_San Diego_https://www.datacentermap.com/usa/california/san-diego/mdc-san-diego/,datacentermap,MDC San Diego - SDG1,MDC Data Centers,7014 Manya Cir,San Diego,92154,California,USA,"7,920 sq.f.","3,000 sq.f.",2023,0.5 MW,,Tier 3,https://www.datacentermap.com/usa/california/san-diego/mdc-san-diego/,0.5,7920.0
California_San Diego_https://www.datacentermap.com/usa/california/san-diego/castle-access/,datacentermap,DataBank SAN1 - San Diego World Trade,DataBank,12270 World Trade Drive,San Diego,92128,California,USA,"55,140 sq.f.","55,140 sq.f.",,3.2 MW,,"ISO 9001, 20000, 27001, SAS 70 Type II, SSAE16",https://www.datacentermap.com/usa/california/san-diego/castle-access/,3.2,55140.0
California_San Diego_https://www.datacentermap.com/usa/california/san-diego/edcsdg01/,datacentermap,EdgeConneX San Diego - EDCSDG01,EdgeConneX,5761 Copley Drive,San Diego,92111,California,USA,"9,477 sq.f.","2,386 sq.f.",,0.5 MW,,"Tier 3, DSS, PCI Compliant, ISO27001 Certified, HIPAA, SOC 2 Type II Certified",https://www.datacentermap.com/usa/california/san-diego/edcsdg01/,0.5,9477.0
California_San Diego_https://www.datacentermap.com/usa/california/san-diego/scalematrix/,datacentermap,ScaleMatrix San Diego,ScaleMatrix,5775 Kearny Villa Rd,San Diego,92123,California,USA,"50,000 sq.f.","50,000 sq.f.",1995,5 MW,,"Tier 3, DSS, PCI Certified, ISO27001, HIPAA, SOC 1 Type II Certified, SOC 2 Type II Certified, SOC 3 Type 2 Certified, SSAE 18 Audited, SSAE 16 Type 2 Certified",https://www.datacentermap.com/usa/california/san-diego/scalematrix/,5.0,50000.0
California_San Diego_https://www.datacentermap.com/usa/california/san-diego/i2b-networks-san-diego/,datacentermap,I2B Networks San Diego,"I2B Networks, Inc",8830 Complex Dr,San Diego,92123,California,USA,"11,000 sq.f.","11,000 sq.f.",,1.25 MW,,SSAE 16 Type 2 Certified,https://www.datacentermap.com/usa/california/san-diego/i2b-networks-san-diego/,1.25,11000.0
California_San Diego_https://www.datacentermap.com/usa/california/san-diego/simplenet-colo/,datacentermap,SimpleNet Colo,"SimpleNet, Inc.",225 Broadway,San Diego,92101,California,USA,"2,000 sq.f.","2,000 sq.f.",1998,450 KW,,,https://www.datacentermap.com/usa/california/san-diego/simplenet-colo/,0.45,2000.0
California_Irvine_https://www.datacentermap.com/usa/california/irvine/latisys-irvine/,datacentermap,DataBank SNA1 - Irvine,DataBank,17222 Von Karman Avenue,Irvine,92614,California,USA,"36,720 sq.f.","36,720 sq.f.",,2.64 MW,,"DSS PCI Certified, ISO27001 Certified, HIPAA, EU-US Privacy Shield Compliant, SSAE 18 Audited",https://www.datacentermap.com/usa/california/irvine/latisys-irvine/,2.64,36720.0
California_Irvine_https://www.datacentermap.com/usa/california/irvine/streaming-media-hosting/,datacentermap,Aecero,Anaheim Public Utilities,2463 W La Palma Ave,Anaheim,92801,California,USA,"110,000 sq.f.","110,000 sq.f.",2000,6 MW,,"Tier 4, DSS, PCI Compliant, SAS70 Type 2 Certified, HIPAA",https://www.datacentermap.com/usa/california/irvine/streaming-media-hosting/,6.0,110000.0
California_Irvine_https://www.datacentermap.com/usa/california/irvine/orange-county-internet-exchange/,datacentermap,Orange County Internet Exchange,Sangoma Technologies,2001 E. Dyer Rd,Santa Ana,92705,California,USA,"360,000Â± sf","10,000 square-foot",,10.5 MW,,,https://www.datacentermap.com/usa/california/irvine/orange-county-internet-exchange/,10.5,360000.0
California_Riverside_https://www.datacentermap.com/usa/california/riverside/aisonet/,datacentermap,AISO Solar Powered Data Center,AISO.Net,25655 Louisa Lane,Riverside,92585,California,USA,"2,000 sq.f.","2,000 sq.f.",1997,7 kW,,"Tier 3, DSS, PCI Compliant",https://www.datacentermap.com/usa/california/riverside/aisonet/,0.007,2000.0
California_Hawthorne_https://www.datacentermap.com/usa/california/hawthorne/evoque-hawthorne-lax1/,datacentermap,Centersquare - Los Angeles LAX4-A,,Centersquare 2301 W 120th St,Hawthorne,90250,California,USA,"288,583 sq.f.","40,106 sq.f.",,28 MW,,"Tier Design Tier 3, DSS PCI Certified, ISO27001 Certified, ISAE3402 Type 2 Certified, SOC 1 Type II Certified, SOC 2 Type II Certified, SOC 3 Type 1 Certified",https://www.datacentermap.com/usa/california/hawthorne/evoque-hawthorne-lax1/,28.0,288583.0
Ohio_Cleveland_https://www.datacentermap.com/usa/ohio/cleveland/h5dc-cleveland/,datacentermap,H5 Data Centers Cleveland,H5 Data Centers,1625 Rockwell Ave,Cleveland,44114,Ohio,USA,"351,000 sq.f.","351,000 sq.f.",,More than 10 MWs,Enterprise,"Tier 3, DSS, PCI Compliant, ISO27001 Certified, SOC 2 Type II Certified, SSAE 16 Type 2 Certified",https://www.datacentermap.com/usa/ohio/cleveland/h5dc-cleveland/,10.0,351000.0
Ohio_Cleveland_https://www.datacentermap.com/usa/ohio/cleveland/fidelity-voice-and-data/,datacentermap,Fusion Connect - Cleveland,Fidelity Voice and Data,1621 Euclid Ave,Cleveland,44115,Ohio,USA,"6,000 sq.f.","6,000 sq.f.",2008,1 MW,Enterprise,"Tier 2, DSS, PCI Compliant, SAS70 Type 1 Certified",https://www.datacentermap.com/usa/ohio/cleveland/fidelity-voice-and-data/,1.0,6000.0
Ohio_Cleveland_https://www.datacentermap.com/usa/ohio/cleveland/involta-independence/,datacentermap,Ark Data Centers Independence,Involta,7500 E. Pleasant Valley Rd,Independence,44131,Ohio,USA,"10,000 sq.f.","23,000 sq.f.",,1 MW,,DSS PCI Compliant HIPAA SOC 2 Type II Certified NIST 800-53 Certified,https://www.datacentermap.com/usa/ohio/cleveland/involta-independence/,1.0,23000.0
Ohio_Cleveland_https://www.datacentermap.com/usa/ohio/cleveland/expedient-cleveland-152/,datacentermap,Expedient Garfield Heights 2,Expedient Data Centers,15248 NEO Parkway,Cleveland,44128,Ohio,USA,"24,850 sq.f.","24,850 sq.f.",,2 MW,,"SAS 70 Type II, PCI-DSS, SOC 1 Type I, SOC 2 Type I, SSAE 18",https://www.datacentermap.com/usa/ohio/cleveland/expedient-cleveland-152/,2.0,24850.0
Ohio_Cleveland_https://www.datacentermap.com/usa/ohio/cleveland/databank-cleveland/,datacentermap,DataBank CLE1 - Downtown Cleveland,DataBank,1255 Euclid Avenue,Cleveland,44115,Ohio,USA,"7,440 sq.f.","7,440 sq.f.",2017,0.4 MW,,DSS PCI Compliant ISO27001 Certified HIPAA SSAE 18 Audited,https://www.datacentermap.com/usa/ohio/cleveland/databank-cleveland/,0.4,7440.0
Ohio_Cleveland_https://www.datacentermap.com/usa/ohio/cleveland/expedient-lewis-center/,datacentermap,Expedient Lewis Center,Expedient Data Centers,281 E Powell Rd,Cleveland,43035,Ohio,USA,"102,000 sq.f.","102,000 sq.f.",,7 MW,,"PCI Compliant, HIPAA, SOC 1 Type I Certified, SOC 2 Type I Certified, SSAE 18 Audited",https://www.datacentermap.com/usa/ohio/cleveland/expedient-lewis-center/,7.0,102000.0
Ohio_Cleveland_https://www.datacentermap.com/usa/ohio/cleveland/expedient-cleveland/,datacentermap,Expedient Garfield Heights 1,Expedient Data Centers,15166 NEO Parkway,Cleveland,44128,Ohio,USA,"42,000 sq.f.",,,2.7 MW,,"SSAE SOC I, II, III Compliant Facility, DSS PCI Compliant, HIPAA, SOC 1 Type I Certified, SOC 2 Type I Certified, SSAE 18 Audited",https://www.datacentermap.com/usa/ohio/cleveland/expedient-cleveland/,2.7,42000.0
Ohio_Columbus_https://www.datacentermap.com/usa/ohio/columbus/cologix-col4-s/,datacentermap,Cologix COL4-S,Cologix,7500 Alta View Blvd,Columbus,43085,Ohio,USA,256K SQFT,256K SQFT,,27 MW,,,https://www.datacentermap.com/usa/ohio/columbus/cologix-col4-s/,27.0,256.0
Ohio_Columbus_https://www.datacentermap.com/usa/ohio/columbus/weconnect-community-data-center/,datacentermap,WeConnect Community Data Center,WeConnect,35 Collegeview Road,Westerville,43081,Ohio,USA,"16,000 sq.f.","8,000 sq.f.",2012,3 MW,,"Tier 3, DSS PCI Certified, SOC 1 Type I Certified, SOC 2 Type I Certified",https://www.datacentermap.com/usa/ohio/columbus/weconnect-community-data-center/,3.0,16000.0
Ohio_Columbus_https://www.datacentermap.com/usa/ohio/columbus/edged-columbus/,datacentermap,Edged Columbus,,"Edged Energy, 6525 New Albany Rd E, 43054 New Albany",Columbus,,Ohio,USA,"206,000 sq.f.",,,24 MW,,Tier 3,https://www.datacentermap.com/usa/ohio/columbus/edged-columbus/,24.0,206000.0
Ohio_Columbus_https://www.datacentermap.com/usa/ohio/columbus/cyxtera-cmh1/,datacentermap,Centersquare - Columbus CMH1-A,Cyxtera,8180 Green Meadows Dr N,Columbus,43035,Ohio,USA,"35,128 sq.f.","27,223 sq.f.",,1.8 MW,Multi-tenant colocation,"Tier 3, DSS PCI Certified, ISO27001 Certified, ISAE3402 Type 2 Certified, SOC 1 Type II Certified, SOC 2 Type II Certified, SSAE 18 Audited, NIST 800-53 Certified",https://www.datacentermap.com/usa/ohio/columbus/cyxtera-cmh1/,1.8,35128.0
Ohio_Columbus_https://www.datacentermap.com/usa/ohio/columbus/new-albany-dc/,datacentermap,Insight New Albany Data Center,Insight Enterprises,7000 Souder Road,New Albany,43054,Ohio,USA,"30,000 sq.f.","15,000 sq.f.",2014,2 MW,,"Tier Design Tier 3, DSS PCI Certified, SAS70 Type 2 Certified, HIPAA",https://www.datacentermap.com/usa/ohio/columbus/new-albany-dc/,2.0,30000.0
Ohio_Columbus_https://www.datacentermap.com/usa/ohio/columbus/expedient-dublin/,datacentermap,Expedient Dublin,Expedient Data Centers,5700 Innovation Drive,Dublin,43016,Ohio,USA,"29,208 sq.f.",,,4.8 MW,,"DSS, PCI Compliant, HIPAA, SOC 1 Type I Certified, SOC 2 Type I Certified, SSAE 18 Audited",https://www.datacentermap.com/usa/ohio/columbus/expedient-dublin/,4.8,29208.0
Ohio_Columbus_https://www.datacentermap.com/usa/ohio/columbus/ceranet-dc1/,datacentermap,CeraNet DC1,"CeraNet, Inc.",826 Morrison Road,Columbus,43230,Ohio,USA,"2,500 sq.f.","2,500 sq.f.",1996,15 kW/sq.f.,,"Tier 3, DSS, PCI Certified, HIPAA",https://www.datacentermap.com/usa/ohio/columbus/ceranet-dc1/,0.015,2500.0
Ohio_Columbus_https://www.datacentermap.com/usa/ohio/columbus/5cdc-columbus-cmh01/,datacentermap,5CDC Columbus - CMH01,5C Data Centers (5CDC),601 Benjamin Dr,Columbus,45502,Ohio,USA,"320,000 sq.f.","66,000 sq.f.",,170 MW,,,https://www.datacentermap.com/usa/ohio/columbus/5cdc-columbus-cmh01/,170.0,320000.0
Ohio_Columbus_https://www.datacentermap.com/usa/ohio/columbus/expedient-chicago/,datacentermap,Expedient Upper Arlington,Expedient Data Centers,"5000 Arllington Centre Blvd, Building One",Columbus,43220,Ohio,USA,"21,591 sq.f.","21,591 sq.f.",,1.6 MW,,"DSS PCI Compliant, HIPAA, SOC 1 Type I Certified, SOC 2 Type I Certified, SSAE 18 Audited",https://www.datacentermap.com/usa/ohio/columbus/expedient-chicago/,1.6,21591.0
Ohio_Columbus_https://www.datacentermap.com/usa/ohio/columbus/cogent-columbus/,datacentermap,Cogent Data Center - Columbus,"Cogent Communications, Inc.",240 N 5th Street,Columbus,43215,Ohio,USA,"5,400 sq.f.","5,400 sq.f.",,1250KW,,,https://www.datacentermap.com/usa/ohio/columbus/cogent-columbus/,1.25,5400.0
Ohio_Columbus_https://www.datacentermap.com/usa/ohio/columbus/ceranet-dc3/,datacentermap,CeraNet DC3,"CeraNet, Inc.",4151 Executive Pkwy,Westerville,43081,Ohio,USA,"2,500 sq.f.","2,500 sq.f.",2010,15 kW/sq.f.,,"DSS PCI Certified, HIPAA",https://www.datacentermap.com/usa/ohio/columbus/ceranet-dc3/,0.015,2500.0
Ohio_Columbus_https://www.datacentermap.com/usa/ohio/columbus/metro-data-center/,datacentermap,DartPoints Dublin,DartPoints,565 Metro Place South,Dublin,43017,Ohio,USA,"40,000 sq.f.","6,000 sq.f.",2012,4 MW,,"Tier 4, SAS70 Type 2 Certified, HIPAA",https://www.datacentermap.com/usa/ohio/columbus/metro-data-center/,4.0,40000.0
Ohio_Columbus_https://www.datacentermap.com/usa/ohio/columbus/vantage-new-albany/,datacentermap,Vantage OH1 - New Albany,Vantage Data Centers,3325 Horizon Court,Columbus,43031,Ohio,USA,1.5 million square feet,1.5 million square feet,2025,192MW,Hyperscale,LEED Silver accreditation,https://www.datacentermap.com/usa/ohio/columbus/vantage-new-albany/,192.0,1.0
Ohio_Akron_https://www.datacentermap.com/usa/ohio/akron/involta-akron/,datacentermap,Ark Data Centers Akron 1,Involta,191 E. Miller Ave,Akron,44301,Ohio,USA,"26,000+ sq.f.","26,000+ sq.f.",2016,1 MW,Enterprise,"Uptime Institute Tier III Certification of Design Documents, Tier III Certification of Constructed Facility, DSS, PCI Compliant, HIPAA, SOC 2 Type II Certified, NIST 800-53 Certified",https://www.datacentermap.com/usa/ohio/akron/involta-akron/,1.0,26000.0
Ohio_Cincinnati_https://www.datacentermap.com/usa/ohio/cincinnati/flexential-cincinnati/,datacentermap,Flexential Cincinnati Data Center,Flexential,5307 Muhlhauser Rd,Cincinnati,45011,Ohio,USA,"43,550 sq.f.","43,550 sq.f.",,3.8 MW,,"ISO27001 Certified, SOC 1 Type II Certified, SOC 2 Type II Certified, SOC 3 Type 2 Certified, NIST 800-53 Certified",https://www.datacentermap.com/usa/ohio/cincinnati/flexential-cincinnati/,3.8,43550.0
Ohio_Cincinnati_https://www.datacentermap.com/usa/ohio/cincinnati/centergrid-hamilton/,datacentermap,CenterGrid - Hamilton,CenterGrid,101 Knightsbridge Dr,Hamilton,45011,Ohio,USA,"7,500 sq.f.","7,500 sq.f.",2013,2 MW,,"Tier 3, DSS, PCI Compliant, SAS70 Type 2 Certified, HIPAA Security",https://www.datacentermap.com/usa/ohio/cincinnati/centergrid-hamilton/,2.0,7500.0
Ohio_Canton_https://www.datacentermap.com/usa/ohio/canton/securedata-365/,datacentermap,Ark Data Centers Canton,SecureData 365,4726 Hills and Dales Rd. NW,Canton,44708-1512,Ohio,USA,"5,600 sq.f.","5,600 sq.f.",,1.5 MW,,"DSS, PCI Compliant, HIPAA, SOC 2 Type II Certified",https://www.datacentermap.com/usa/ohio/canton/securedata-365/,1.5,5600.0
Ohio_Lebanon_https://www.datacentermap.com/usa/ohio/lebanon/cyrusone-cincinnati-lebanon/,datacentermap,CyrusOne CIN5 - Lebanon,CyrusOne Data Centers,401 Kingsview Drive,Lebanon,45036,Ohio,USA,"95,000 sq.f.","228,000 sq.f.",,14 MW,,"DSS PCI Compliant, ISO27001 Certified, SAS70 Type 2 Certified, LEED Silver, HIPAA, FISMA Certified, SOC 1 Type II Certified, SOC 2 Type II Certified, SSAE 18 Audited",https://www.datacentermap.com/usa/ohio/lebanon/cyrusone-cincinnati-lebanon/,14.0,228000.0
Ohio_Dayton_https://www.datacentermap.com/usa/ohio/dayton/iron-mountain-ohs-1/,datacentermap,Iron Mountain Data Centers OHS-1,Iron Mountain,3366 S. Tech Blvd.,Dayton,45342,Ohio,USA,"44,000 sq.f.","44,000 sq.f.",,1.4 MW,,"DSS, PCI Certified, ISO27001 Certified, HIPAA, ISO9001 Certified, ISO14001 Certified, ISO22301 Certified, SOC 1 Type II Certified, SOC 2 Type II Certified, SOC 3 Type 1 Certified, NIST 800-53 Certified",https://www.datacentermap.com/usa/ohio/dayton/iron-mountain-ohs-1/,1.4,44000.0
Illinois_Chicago_https://www.datacentermap.com/usa/illinois/chicago/350-east-cermark-road/,datacentermap,350 East Cermak Road (ORD10),Digital Realty,350 East Cermak Road,Chicago,60616,Illinois,USA,"206,100 sq.f.","1,133,000 sq.f.",1924,19.5 MW,,"Tier 3, DSS, PCI Certified, ISO27001 Certified, LEED, HIPAA, SOC 2 Type II Certified, SOC 3 Type 2 Certified, NIST 800-53",https://www.datacentermap.com/usa/illinois/chicago/350-east-cermark-road/,19.5,1133000.0
Illinois_Chicago_https://www.datacentermap.com/usa/illinois/chicago/600-780-south-federal/,datacentermap,600 S. Federal St. (ORD11),Digital Realty,600 South Federal Street,Chicago,,Illinois,USA,"162,000 sq.f.","13,600 sq.f.",1910,2.4 MW,,"Tier 3, DSS PCI Certified, SOC 2 Type II Certified, SOC 3 Type 2 Certified",https://www.datacentermap.com/usa/illinois/chicago/600-780-south-federal/,2.4,162000.0
Illinois_Chicago_https://www.datacentermap.com/usa/illinois/chicago/2200-busse-road/,datacentermap,2200 Busse Road (CH1),Digital Realty,2200 Busse Road,Elk Grove Village,60007,Illinois,USA,"262,900 sq.f.","485,000 sq.f.",2007,36.4 MW,,"DSS PCI Certified, ISO27001 Certified, SOC 1 Type II Certified, SOC 2 Type II Certified, SOC 3 Type 2 Certified",https://www.datacentermap.com/usa/illinois/chicago/2200-busse-road/,36.4,485000.0
Illinois_Chicago_https://www.datacentermap.com/usa/illinois/chicago/iron-mountain-chi-1/,datacentermap,Iron Mountain Data Centers CHI-1,Iron Mountain Data Centers,1680 Touhy Avenue,Des Plaines,60018,Illinois,USA,"315,000 sq.f.",,2024,36 MW,Multi-tenant (data centers only),BREEAM Certificaton,https://www.datacentermap.com/usa/illinois/chicago/iron-mountain-chi-1/,36.0,315000.0
Illinois_Chicago_https://www.datacentermap.com/usa/illinois/chicago/chicago-i/,datacentermap,Stream DC Chicago I,Stream Data Centers,2080 Lunt Avenue,Chicago,60007,Illinois,USA,"126,689 sq.f.","70,000 sq.f.",,15 MW,Hyperscale,"ISO/IEC 27001, PCI DSS, HIPAA, SSAE 18 (SOC 1 Type II)",https://www.datacentermap.com/usa/illinois/chicago/chicago-i/,15.0,126689.0
Illinois_Chicago_https://www.datacentermap.com/usa/illinois/chicago/9377-grand-avenue/,datacentermap,9333 Grand Avenue (ORD12),Digital Realty,9333 Grand Avenue,Franklin Park,60131,Illinois,USA,"56,700 sq.f.","124,700 sq.f.",1991,6.7 MW,,"DSS PCI Certified, ISO27001 Certified, LEED, ISO9001 Certified, ISO14001 Certified, SOC 1 Type II Certified, SOC 2 Type II Certified, SOC 3 Type 2 Certified",https://www.datacentermap.com/usa/illinois/chicago/9377-grand-avenue/,6.7,124700.0
Illinois_Chicago_https://www.datacentermap.com/usa/illinois/chicago/digital-realty-chicago-ord14/,datacentermap,9377 Grand Ave (ORD14),Digital Realty,9377 Grand Ave,Franklin Park,60131,Illinois,USA,"66,100 sq.f.","179,000 sq.f.",,12.8 MW,,"DSS, PCI Certified, ISO27001 Certified, LEED, ISO9001 Certified, ISO14001 Certified, SOC 1 Type II Certified, SOC 2 Type II Certified, SOC 3 Type 2 Certified",https://www.datacentermap.com/usa/illinois/chicago/digital-realty-chicago-ord14/,12.8,179000.0
Illinois_Chicago_https://www.datacentermap.com/usa/illinois/chicago/digital-realty-chicago-ord13/,datacentermap,9355 Grand Ave (ORD13),Digital Realty,9355 Grand Ave,Chicago,60131,Illinois,USA,"110,800 sq.f.","292,000 sq.f.",,19.8 MW,,DSS PCI Certified ISO27001 Certified ISO9001 Certified ISO14001 Certified SOC 1 Type II Certified SOC 2 Type II Certified SOC 3 Type 2 Certified,https://www.datacentermap.com/usa/illinois/chicago/digital-realty-chicago-ord13/,19.8,292000.0
Illinois_Chicago_https://www.datacentermap.com/usa/illinois/chicago/chicago-ii/,datacentermap,Stream DC Chicago II,Stream Data Centers,1925 Busse Road,Elk Grove Village,60007,Illinois,USA,"226,000 sq.f.","208,000 sq.f.",2021,32 MW,,,https://www.datacentermap.com/usa/illinois/chicago/chicago-ii/,32.0,226000.0
Illinois_Chicago_https://www.datacentermap.com/usa/illinois/chicago/505-north-railroad-avenue/,datacentermap,505 N. Railroad Avenue (ORD23),Digital Realty,505 North Railroad Avenue,Northlake,60164,Illinois,USA,"220,000 sq.f.","251,000 sq.f.",1972,11 MW,,"DSS PCI Certified, SOC 2 Type II Certified, SOC 3 Type 2 Certified",https://www.datacentermap.com/usa/illinois/chicago/505-north-railroad-avenue/,11.0,251000.0
Illinois_Chicago_https://www.datacentermap.com/usa/illinois/chicago/1400-east-devon-avenue/,datacentermap,1400 East Devon Avenue (CH3),Digital Realty,1400 East Devon Avenue,Elk Grove Village,60007,Illinois,USA,"305,000 sq.f.","139,000 sq.f.",2017,27 MW,,"DSS PCI Certified, ISO27001 Certified, LEED Gold, SOC 1 Type II Certified, SOC 2 Type II Certified, SOC 3 Type 2 Certified",https://www.datacentermap.com/usa/illinois/chicago/1400-east-devon-avenue/,27.0,305000.0
Illinois_Chicago_https://www.datacentermap.com/usa/illinois/chicago/centersquare-chicago-ord1-d/,datacentermap,Centersquare - Chicago ORD1-D,Centersquare,350 E Cermak Rd,Chicago,60616,Illinois,USA,"12,528 sq.f.","9,403 sq.f.",,1.35 MW,,"Tier Design Tier 3, DSS PCI Certified, ISO27001 Certified, SOC 1 Type I Certified, SOC 2 Type II Certified, NIST 800-53 Certified",https://www.datacentermap.com/usa/illinois/chicago/centersquare-chicago-ord1-d/,1.35,12528.0
Illinois_Chicago_https://www.datacentermap.com/usa/illinois/chicago/cyrusone-chicago/,datacentermap,CyrusOne CHI5 - Lombard,,"CyrusOne Data Centers, 1850 Springers Drive, 60148 Lombard",Chicago,,Illinois,USA,"60,000 sq.f.","14,000 sq.f.",,9 MW,,"DSS, PCI Certified, ISO27001 Certified, HIPAA, FISMA Certified, SOC 1 Type II Certified, SSAE 18 Audited",https://www.datacentermap.com/usa/illinois/chicago/cyrusone-chicago/,9.0,60000.0
Illinois_Chicago_https://www.datacentermap.com/usa/illinois/chicago/cyrusone-chi2/,datacentermap,CyrusOne CHI2 - Aurora,CyrusOne Data Centers,2805 Diehl Rd.,Aurora,60502,Illinois,USA,"240,000 sq.f.","428,000 sq.f.",,58.4 MW,,Design Tier 3,https://www.datacentermap.com/usa/illinois/chicago/cyrusone-chi2/,58.4,428000.0
Illinois_Chicago_https://www.datacentermap.com/usa/illinois/chicago/elk-grove-village/,datacentermap,Deft Elk Grove Village,Deft,2200 Busse Rd,Elk Grove Village,60007,Illinois,USA,"275,000 sq.f.","485,000 sq.f.",,36.4 MW,,"Tier Design Tier 3, DSS, PCI Compliant, ISO27001 Certified, SAS70 Type 2 Certified, LEED Silver, SOC 2 Type II Certified",https://www.datacentermap.com/usa/illinois/chicago/elk-grove-village/,36.4,485000.0
Illinois_Chicago_https://www.datacentermap.com/usa/illinois/chicago/t5-data-centers-t5chicago/,datacentermap,T5 Data Centers - T5@Chicago,T5 Data Centers,200 Innovation Dr,Elk Grove Village,60007,Illinois,USA,"100,000 sq.f.","164,000 sq.f.",,30 MW,Enterprise and Hyperscale,"DSS, PCI Compliant, ISO27001 Certified, HIPAA, FISMA Certified, SOC 1 Type I Certified, SOC 2 Type II Certified, HITECH, NIST 800-53 Certified",https://www.datacentermap.com/usa/illinois/chicago/t5-data-centers-t5chicago/,30.0,164000.0
Illinois_Chicago_https://www.datacentermap.com/usa/illinois/chicago/prime-chicago/,datacentermap,Prime Chicago Data Center Campus,Prime Data Centers,1701 Midway Ct,Elk Grove Village,60007,Illinois,USA,"957,999 sq.f.","592,854 sq.f.",,180 MW,,"Tier 3, ISO27001 Certified, SOC 2 Type II Certified",https://www.datacentermap.com/usa/illinois/chicago/prime-chicago/,180.0,957999.0
Illinois_Chicago_https://www.datacentermap.com/usa/illinois/chicago/prime-chicago-b3/,datacentermap,Prime Chicago - Building 3,Prime Data Centers,1701 Midway Court,Elk Grove Village,60007,Illinois,USA,"279,360 sq.f.","177,843 sq.f.",,54 MW,Hyperscale,"Tier 3, ISO27001 Certified, SOC 2 Type II Certified",https://www.datacentermap.com/usa/illinois/chicago/prime-chicago-b3/,54.0,279360.0
Illinois_Chicago_https://www.datacentermap.com/usa/illinois/chicago/prime-chicago-b1/,datacentermap,Prime Chicago - Building 1,Prime Data Centers,"1500 E Higgins Rd, Elk Grove Village, IL 60007, USA",Elk Grove Village,60007,Illinois,USA,"242,052 sq.f.","384,210 sq.f.",,72 MW,Hyperscale,"Tier 3, ISO27001 Certified, SOC 2 Type II Certified",https://www.datacentermap.com/usa/illinois/chicago/prime-chicago-b1/,72.0,384210.0
Illinois_Chicago_https://www.datacentermap.com/usa/illinois/chicago/prime-chicago-b2/,datacentermap,Prime Chicago - Building 2,Prime Data Centers,1600 Oakton St,Elk Grove Village,60007,Illinois,USA,"177,843 sq.f.","279,360 sq.f.",,54 MW,Hyperscale,"ISO27001 Certified, SOC 2 Type II Certified",https://www.datacentermap.com/usa/illinois/chicago/prime-chicago-b2/,54.0,279360.0
Illinois_Chicago_https://www.datacentermap.com/usa/illinois/chicago/tierpoint-chicago/,datacentermap,TierPoint Chicago - Polk,TierPoint,601 W. Polk St.,Chicago,,Illinois,USA,"16,000 sq.f.","107,000 sq.f.",,2 x 2.25MW,,"DSS, PCI Certified, ISO27001 Certified, HIPAA, EU-US Privacy Shield Compliant, SOC 1 Type II Certified, SOC 2 Type II Certified",https://www.datacentermap.com/usa/illinois/chicago/tierpoint-chicago/,2.25,107000.0
Illinois_Chicago_https://www.datacentermap.com/usa/illinois/chicago/sungard-711-n-edgewood/,datacentermap,Element Critical Chicago One,,711 N. Edgewood Ave.,Chicago,60191,Illinois,USA,"85,500 sq.f.","151,000 sq.f.",,7 MW,,"DSS, PCI Certified, ISO27001 Certified, HIPAA, SOC 1 Type II Certified, SOC 2 Type II Certified",https://www.datacentermap.com/usa/illinois/chicago/sungard-711-n-edgewood/,7.0,151000.0
Illinois_Chicago_https://www.datacentermap.com/usa/illinois/chicago/new-continuum/,datacentermap,SBA Edge Chicago,SBA Edge,603 Discovery Drive,West Chicago,60185,Illinois,USA,"80,000 sq.f.","40,000 sq.f.",,10 MW,,"DSS PCI Compliant, ISO27001 Certified, HIPAA",https://www.datacentermap.com/usa/illinois/chicago/new-continuum/,10.0,80000.0
Illinois_Chicago_https://www.datacentermap.com/usa/illinois/chicago/colocation-america-350-e/,datacentermap,Colocation America CHIDC1,Colocation America,350 E. Cermak Rd,Chicago,60616,Illinois,USA,"58,852 sq.f.","58,852 sq.f.",,2.4 kW,,"Tier 3, DSS PCI Certified, SAS70 Type 2 Certified, HIPAA, SOC 1 Type II Certified, SSAE 16 Type 2 Certified",https://www.datacentermap.com/usa/illinois/chicago/colocation-america-350-e/,0.0024,58852.0
Illinois_Chicago_https://www.datacentermap.com/usa/illinois/chicago/us-signal-oak-brook/,datacentermap,US Signal Oak Brook,"US Signal Company, LLC",810 Jorie Blvd,Oak Brook,60523,Illinois,USA,"13,056 sq.f.","7,500 sq.f.",1962,0.25 MW,,"DSS, PCI Compliant, HIPAA, SOC 1 Type II Certified, SOC 2 Type I Certified, SSAE 18 Audited, HITECH",https://www.datacentermap.com/usa/illinois/chicago/us-signal-oak-brook/,0.25,13056.0
Illinois_Chicago_https://www.datacentermap.com/usa/illinois/chicago/serverfarm-ch1/,datacentermap,Serverfarm CH1,Serverfarm,840 S. Canal Street,Chicago,60607,Illinois,USA,"130,000 sq.f.","443,000 sq.f.",,20 MW,,"DSS PCI Compliant, ISO27001 Certified, HIPAA, SOC 2 Type II Certified",https://www.datacentermap.com/usa/illinois/chicago/serverfarm-ch1/,20.0,443000.0
Illinois_Chicago_https://www.datacentermap.com/usa/illinois/chicago/725-wells/,datacentermap,725 S. Wells,1547 Critical Systems Realty,725 S Wells,Chicago,60607,Illinois,USA,"66,000 sq. ft.","42,000 sq.f.",,5 MW,,,https://www.datacentermap.com/usa/illinois/chicago/725-wells/,5.0,66000.0
Illinois_Chicago_https://www.datacentermap.com/usa/illinois/chicago/zcolo-600-s-federal/,datacentermap,DataBank ORD1 - Downtown Chicago,DataBank,600 S Federal St,Chicago,,Illinois,USA,"10,130 sq.f.",,2020,1 MW,,DSS PCI Compliant ISO27001 Certified HIPAA SSAE 18 Audited,https://www.datacentermap.com/usa/illinois/chicago/zcolo-600-s-federal/,1.0,10130.0
Illinois_Chicago_https://www.datacentermap.com/usa/illinois/chicago/aligned-ord-01/,datacentermap,Aligned ORD-01,,"Aligned Data Centers, 505 Northwest Avenue, 60164 Northlake",Chicago,,Illinois,USA,"220,000 sq.f.","220,000 sq.f.",,36 MW,,"DSS PCI Compliant, ISO27001 Certified, HIPAA, SOC 1 Type II Certified, SOC 2 Type II Certified, HITECH, NIST 800-53 Certified",https://www.datacentermap.com/usa/illinois/chicago/aligned-ord-01/,36.0,220000.0
Illinois_Chicago_https://www.datacentermap.com/usa/illinois/chicago/edgeconnex-chi02/,datacentermap,EdgeConneX Chicago - EDCCHI02,EdgeConneX,2021 Lunt Ave,Elk Grove Village,60007,Illinois,USA,"19,875 sq.f.","19,875 sq.f.",,6 MW,,"Tier 3, DSS, PCI Compliant, ISO27001 Certified, HIPAA, SOC 2 Type II Certified",https://www.datacentermap.com/usa/illinois/chicago/edgeconnex-chi02/,6.0,19875.0
Illinois_Chicago_https://www.datacentermap.com/usa/illinois/chicago/cyxtera-ord1a/,datacentermap,Centersquare - Chicago ORD1-A,Cyxtera,350 East Cermak,Chicago,,Illinois,USA,"49,782 sq.f.","54,077 sq.f.",1999,5.4 MW,,"Tier 3, DSS, PCI Certified, ISO27001 Certified, SOC 1 Type I Certified, SOC 2 Type II Certified, NIST 800-53 Certified",https://www.datacentermap.com/usa/illinois/chicago/cyxtera-ord1a/,5.4,54077.0
Illinois_Chicago_https://www.datacentermap.com/usa/illinois/chicago/sirius-data-center/,datacentermap,CDW Elk Grove Data Center,CDW Corporation,1441 Touhy Ave,Elk Grove Village,60007,Illinois,USA,"30,000 sq.f.","30,000 sq.f.",2015,3 MW,,"Tier 3, DSS PCI Certified, ISO27001 Certified, SAS70 Type 2 Certified, LEED Gold, HIPAA",https://www.datacentermap.com/usa/illinois/chicago/sirius-data-center/,3.0,30000.0
Illinois_Chicago_https://www.datacentermap.com/usa/illinois/chicago/skybox-chicago-i/,datacentermap,Skybox Chicago I,Skybox Datacenters,800 E Devon Ave,Elk Grove Village,60007,Illinois,USA,"84,625 sq.f.","190,000 sq.f.",,30 MW,,"Tier Design Tier 3, LEED Silver",https://www.datacentermap.com/usa/illinois/chicago/skybox-chicago-i/,30.0,190000.0
Illinois_Chicago_https://www.datacentermap.com/usa/illinois/chicago/digital-fortress-chicago/,datacentermap,Digital Fortress Chicago,Digital Fortress,360 E 22nd St.,Chicago,60148,Illinois,USA,"110,000 sq.f.","17,000 sq.f.",1994,8 MW,Multitenant and wholesale,"Tier 3, DSS, PCI Compliant, HIPAA, SOC 1 Type II Certified, SOC 2 Type II Certified",https://www.datacentermap.com/usa/illinois/chicago/digital-fortress-chicago/,8.0,110000.0
Illinois_Chicago_https://www.datacentermap.com/usa/illinois/chicago/cloudhq-ord-campus/,datacentermap,CloudHQ ORD Campus,CloudHQ,1200 E Algonquin Rd,Des Plaines,60016,Illinois,USA,1700000 sq.f.,"566,767 square feet",,252 MW,,,https://www.datacentermap.com/usa/illinois/chicago/cloudhq-ord-campus/,252.0,1700000.0
Illinois_Chicago_https://www.datacentermap.com/usa/illinois/chicago/qts-chicago/,datacentermap,QTS Chicago 1 DC1,"QTS Realty Trust, Inc.",2800 S. Ashland Ave,Chicago,,Illinois,USA,"467,000 sq.f.","208,000 sq.f.",,42 MW,Hyperscale,"DSS PCI Certified, ISO27001 Certified, LEED Gold, FISMA Certified, SOC 1 Type II Certified, SOC 2 Type II Certified",https://www.datacentermap.com/usa/illinois/chicago/qts-chicago/,42.0,467000.0
Illinois_Chicago_https://www.datacentermap.com/usa/illinois/chicago/stack-infrastructure-chi01b/,datacentermap,STACK Infrastructure CHI01B,STACK Infrastructure,1301 Touhy Ave,Elk Grove Village,60007,Illinois,USA,"202,000 sq.f.",,,24 MW,Hyperscale,"Tier 3, DSS, PCI Compliant, ISO27001 Certified, LEED Silver, HIPAA",https://www.datacentermap.com/usa/illinois/chicago/stack-infrastructure-chi01b/,24.0,202000.0
Illinois_Chicago_https://www.datacentermap.com/usa/illinois/chicago/midway-technology-center/,datacentermap,Midway Technology Center,1547 Critical Systems Realty,40 E Garfield Blvd,Chicago,60615,Illinois,USA,"52,000 sq.f.","230,000 sq.f.",,5 MW,,,https://www.datacentermap.com/usa/illinois/chicago/midway-technology-center/,5.0,230000.0
Illinois_Chicago_https://www.datacentermap.com/usa/illinois/chicago/cyxtera-ord1/,datacentermap,Centersquare - Chicago ORD2-A,Centersquare,2425 Busse Road,Elk Grove Village,60007,Illinois,USA,"163,747 sq.f.","126,368 sq.f.",2014,9.6 MW,,"Tier 3, DSS, PCI Certified, ISO27001 Certified, SOC 1 Type I Certified, SOC 2 Type II Certified, NIST 800-53 Certified",https://www.datacentermap.com/usa/illinois/chicago/cyxtera-ord1/,9.6,163747.0
Illinois_Chicago_https://www.datacentermap.com/usa/illinois/chicago/chirisa-volo-technology-park/,datacentermap,Chirisa Volo Technology Park,,"Chirisa, 300 South Fish Lake Rd, 60073 Volo",Chicago,60073,Illinois,USA,2178000 sq.f.,"160,000 sq. ft.",,28 MW,,,https://www.datacentermap.com/usa/illinois/chicago/chirisa-volo-technology-park/,28.0,2178000.0
Illinois_Chicago_https://www.datacentermap.com/usa/illinois/chicago/edged-chicago-campus/,datacentermap,Edged Chicago Campus,Edged Energy,2725-2815 Bilter Rd,Aurora,60502,Illinois,USA,,65 acres,,100 MW,,,https://www.datacentermap.com/usa/illinois/chicago/edged-chicago-campus/,100.0,2831400.0
Illinois_Aurora_https://www.datacentermap.com/usa/illinois/aurora/bytegrid-aurora-chi1/,datacentermap,Aurora/Chicago,Databridge Sites,4267 Meridian Parkway,Aurora,60504,Illinois,USA,"70,000 sq.f.","34,000 sq.f.",2007,6MW,,Tier 3,https://www.datacentermap.com/usa/illinois/aurora/bytegrid-aurora-chi1/,6.0,70000.0
